{"type":"FeatureCollection","features":[{"type":"Feature","properties":{"name":"中央・総武線各駅停車","color":"FFD400"},"geometry":{"type":"MultiLineString","coordinates":[[[140.114352,35.61217],[140.113388,35.612689],[140.112654,35.61317],[140.11219,35.613478],[140.111884,35.613693],[140.111325,35.614128],[140.110332,35.614906],[140.109555,35.615559],[140.10896,35.616071],[140.108417,35.616672],[140.107792,35.617358],[140.107181,35.618039],[140.106549,35.618734],[140.105666,35.619693],[140.105037,35.620441],[140.104383,35.621247],[140.103809,35.621946],[140.103213,35.62265],[140.102493,35.623476],[140.101914,35.624119],[140.101229,35.624884],[140.100907,35.625288],[140.10052,35.625806],[140.100256,35.626188],[140.099716,35.626973],[140.098271,35.629042],[140.097367,35.630344],[140.097035,35.630811],[140.091218,35.63886],[140.090576,35.639816],[140.089799,35.640927],[140.088906,35.64222],[140.088419,35.642922],[140.087377,35.644418],[140.086273,35.645964],[140.084883,35.647888],[140.084357,35.648492],[140.083903,35.648934],[140.083323,35.649393],[140.082681,35.649803],[140.082186,35.650097],[140.081978,35.650182],[140.081651,35.650336],[140.081265,35.650496],[140.081022,35.650576],[140.080658,35.650694],[140.080147,35.650843],[140.079501,35.650978],[140.078765,35.651105],[140.077381,35.651291],[140.076288,35.651433],[140.075339,35.651527],[140.073497,35.651717],[140.072054,35.65192],[140.070544,35.652196],[140.069672,35.652432],[140.068822,35.652748],[140.06817,35.653037],[140.067314,35.653466],[140.066615,35.653829],[140.065971,35.654158],[140.06537,35.654474],[140.064335,35.655006],[140.06373,35.655313],[140.062805,35.65578],[140.062261,35.656071],[140.061644,35.656402],[140.060966,35.656878],[140.060202,35.657488],[140.059318,35.658218],[140.058466,35.658845],[140.057628,35.659525],[140.056844,35.660229],[140.056078,35.660971],[140.055289,35.661648],[140.054538,35.662312],[140.053594,35.66314],[140.052684,35.663938],[140.051655,35.664775],[140.050662,35.665597],[140.049397,35.666663],[140.045936,35.669593],[140.042238,35.672728],[140.040131,35.674462],[140.037665,35.676619],[140.034236,35.679481],[140.033546,35.680068],[140.031414,35.681881],[140.030258,35.682867],[140.028711,35.684177],[140.026026,35.686444],[140.024859,35.687522],[140.022562,35.689441],[140.021708,35.690135],[140.020921,35.690716],[140.020501,35.691039],[140.019208,35.692114],[140.018793,35.692466],[140.017895,35.693273],[140.016976,35.694046],[140.015738,35.69508],[140.014048,35.696487],[140.013149,35.69724],[140.012649,35.69765],[140.011878,35.698169],[140.011427,35.698403],[140.010719,35.698747],[140.010037,35.699005],[140.009309,35.699213],[140.008619,35.699362],[140.008008,35.699456],[140.007533,35.699503],[140.007029,35.699546],[140.004841,35.699709],[140.003172,35.699877],[140.002462,35.699984],[140.001928,35.700052],[140.001614,35.700083],[139.989778,35.701264],[139.988745,35.70138],[139.987728,35.701474],[139.987094,35.70153],[139.986501,35.701545],[139.985347,35.701576],[139.984187,35.701689],[139.983196,35.701844],[139.98208,35.701975],[139.978394,35.702295],[139.977375,35.702341],[139.97659,35.702255],[139.975879,35.702125],[139.974657,35.701938],[139.973607,35.701933],[139.972816,35.702039],[139.972258,35.702155],[139.970671,35.702452],[139.969604,35.702786],[139.968266,35.703338],[139.965921,35.704346],[139.963273,35.705497],[139.960678,35.706713],[139.959368,35.707296],[139.958993,35.707461],[139.958546,35.707659],[139.958204,35.707826],[139.95784,35.708002],[139.957104,35.708405],[139.956118,35.708905],[139.955222,35.709298],[139.954703,35.709512],[139.953689,35.709937],[139.952679,35.710361],[139.928861,35.720243],[139.926395,35.721277],[139.91284,35.726915],[139.908074,35.728773],[139.906897,35.729313],[139.906174,35.729649],[139.905365,35.730052],[139.904678,35.730384],[139.903846,35.730727],[139.902693,35.731186],[139.902044,35.731404],[139.900958,35.731775],[139.900044,35.732118],[139.896253,35.733692],[139.894884,35.73428],[139.894349,35.734527],[139.892681,35.735295],[139.892155,35.735477],[139.891563,35.735647],[139.891198,35.735727],[139.890758,35.735808],[139.890304,35.735872],[139.889866,35.735909],[139.889304,35.735946],[139.888766,35.735937],[139.888039,35.735895],[139.887518,35.735841],[139.887081,35.735767],[139.886519,35.735638],[139.886005,35.735494],[139.88546,35.735319],[139.885073,35.735158],[139.884757,35.735013],[139.884445,35.734861],[139.88398,35.734615],[139.883493,35.734328],[139.882787,35.73389],[139.880884,35.732568],[139.880294,35.732155],[139.878964,35.731236],[139.877466,35.73018],[139.876833,35.729711],[139.876135,35.729243],[139.875428,35.728762],[139.874271,35.727965],[139.873382,35.727375],[139.872744,35.72689],[139.871639,35.726111],[139.870937,35.72568],[139.868099,35.723745],[139.867195,35.723],[139.865055,35.721351],[139.863358,35.720112],[139.862104,35.719256],[139.860708,35.71851],[139.858894,35.717444],[139.857721,35.716699],[139.856517,35.71593],[139.854559,35.714678],[139.853146,35.713751],[139.852152,35.713064],[139.848145,35.710331],[139.847331,35.709775],[139.845973,35.708766],[139.844891,35.708016],[139.844312,35.707624],[139.843721,35.707237],[139.843195,35.706871],[139.841573,35.705807],[139.840828,35.705294],[139.839891,35.704389],[139.839258,35.703641],[139.838096,35.701749],[139.837128,35.700097],[139.836775,35.699638],[139.836457,35.699325],[139.835973,35.698928],[139.835638,35.698698],[139.835221,35.698469],[139.83478,35.698254],[139.834279,35.698065],[139.833806,35.697907],[139.833121,35.697723],[139.832486,35.697631],[139.831956,35.697571],[139.831111,35.697521],[139.830277,35.697507],[139.829223,35.697471],[139.82798,35.697397],[139.826394,35.697307],[139.824903,35.697233],[139.821866,35.697027],[139.819676,35.696902],[139.816552,35.696769],[139.814249,35.696655],[139.812591,35.696597],[139.811844,35.696555],[139.81062,35.6965],[139.809912,35.696459],[139.809,35.696419],[139.808204,35.696373],[139.80725,35.696323],[139.806497,35.696286],[139.805439,35.696226],[139.801884,35.696041],[139.797915,35.695827],[139.797387,35.695809],[139.796112,35.695664],[139.795512,35.695647],[139.794525,35.695711],[139.791869,35.695904],[139.791389,35.696009],[139.790873,35.696179],[139.789267,35.696778],[139.788685,35.696984],[139.788187,35.697097],[139.787389,35.69718],[139.786291,35.697267],[139.784459,35.697423],[139.783,35.697544],[139.781924,35.697641],[139.776842,35.698051],[139.775113,35.698187],[139.771065,35.698536],[139.768436,35.698747],[139.767882,35.698796],[139.767522,35.698878],[139.766882,35.699117],[139.76618,35.699351],[139.765312,35.699574],[139.763479,35.700054],[139.763188,35.700203],[139.762658,35.700537],[139.76231,35.700788],[139.761821,35.701084],[139.761241,35.70131],[139.760951,35.701384],[139.760627,35.70144],[139.760148,35.701466],[139.759636,35.70146],[139.758926,35.701411],[139.758326,35.701387],[139.757424,35.701431],[139.756449,35.701632],[139.755412,35.70186],[139.754961,35.701929],[139.754057,35.702009],[139.753252,35.702061],[139.752105,35.702143],[139.751097,35.702216],[139.750122,35.702291],[139.747292,35.702491],[139.747027,35.702502],[139.74668,35.702481],[139.746184,35.702397],[139.745804,35.702286],[139.745398,35.702123],[139.745058,35.70192],[139.744749,35.701705],[139.744464,35.701444],[139.74424,35.701175],[139.744102,35.700999],[139.74394,35.700734],[139.743763,35.70045],[139.743446,35.699991],[139.743078,35.699545],[139.7424,35.698747],[139.74125,35.697351],[139.740932,35.696924],[139.740126,35.695896],[139.739927,35.695598],[139.739434,35.694892],[139.739124,35.694498],[139.738783,35.694054],[139.738377,35.69352],[139.738174,35.693292],[139.738015,35.693123],[139.737759,35.692894],[139.736837,35.692189],[139.736322,35.691808],[139.736026,35.691607],[139.735746,35.691458],[139.734909,35.691042],[139.734536,35.690829],[139.733992,35.690534],[139.733428,35.690246],[139.732938,35.689976],[139.732528,35.689746],[139.732126,35.689442],[139.731827,35.689147],[139.731609,35.688861],[139.731354,35.688469],[139.731239,35.688183],[139.73117,35.687878],[139.731058,35.687413],[139.730985,35.687028],[139.730869,35.686586],[139.730458,35.685229],[139.73023,35.684619],[139.729981,35.684113],[139.729424,35.683413],[139.728693,35.682607],[139.727665,35.682035],[139.726871,35.681653],[139.725879,35.681192],[139.724514,35.680582],[139.723387,35.680095],[139.722857,35.679937],[139.722269,35.679858],[139.721769,35.679854],[139.721367,35.67989],[139.720313,35.68004],[139.718929,35.680238],[139.718229,35.680322],[139.717141,35.680462],[139.716178,35.680603],[139.715124,35.680759],[139.713509,35.680983],[139.711672,35.681182],[139.709353,35.681537],[139.708677,35.681552],[139.707792,35.68148],[139.706662,35.681419],[139.705632,35.681351],[139.70538,35.681357],[139.705016,35.681397],[139.704656,35.681466],[139.704337,35.681558],[139.703957,35.681702],[139.70355,35.681912],[139.703253,35.682123],[139.702931,35.682398],[139.702689,35.682677],[139.702498,35.682958],[139.702343,35.683252],[139.702272,35.683487],[139.701917,35.684823],[139.701744,35.685249],[139.701446,35.686006],[139.701155,35.68667],[139.700927,35.68729],[139.700652,35.688007],[139.700509,35.688614],[139.700271,35.689574],[139.700162,35.690184],[139.700103,35.69117],[139.70009,35.691901],[139.700039,35.692526],[139.699919,35.692988],[139.699769,35.693622],[139.699669,35.694347],[139.699604,35.695],[139.699539,35.695537],[139.699392,35.696112],[139.699227,35.69678],[139.699077,35.697286],[139.698956,35.697765],[139.698868,35.69805],[139.698755,35.698324],[139.698548,35.698741],[139.698284,35.69918],[139.698133,35.699433],[139.697575,35.700354],[139.697045,35.701208],[139.696716,35.701634],[139.696283,35.702108],[139.695667,35.70271],[139.694902,35.703426],[139.694148,35.704027],[139.6937,35.704312],[139.693239,35.704573],[139.692688,35.704843],[139.69236,35.704987],[139.691839,35.705182],[139.69121,35.705383],[139.69055,35.705566],[139.689503,35.705849],[139.688907,35.705982],[139.688362,35.706077],[139.687774,35.706156],[139.687427,35.706197],[139.686785,35.706249],[139.686345,35.706256],[139.685609,35.706249],[139.683385,35.706191],[139.682458,35.706197],[139.681939,35.706181],[139.681174,35.706157],[139.680026,35.706124],[139.679218,35.706097],[139.678419,35.706077],[139.67737,35.706048],[139.676204,35.706015],[139.675378,35.705984],[139.674151,35.705953],[139.672945,35.70591],[139.671981,35.705882],[139.671393,35.70583],[139.670431,35.705789],[139.669337,35.705764],[139.667998,35.705728],[139.666956,35.705699],[139.665752,35.705664],[139.664348,35.705633],[139.663178,35.705619],[139.661394,35.705612],[139.660345,35.70557],[139.65952,35.705533],[139.65868,35.705508],[139.658675,35.705508],[139.658045,35.705489],[139.657583,35.705476],[139.656906,35.705454],[139.655871,35.705425],[139.655196,35.705407],[139.654507,35.705393],[139.653311,35.705358],[139.652774,35.705349],[139.652205,35.705336],[139.650906,35.705289],[139.650365,35.705265],[139.649317,35.705205],[139.648462,35.705196],[139.647143,35.705183],[139.646523,35.705167],[139.645824,35.705151],[139.645257,35.705132],[139.644427,35.70511],[139.643577,35.705087],[139.642668,35.705064],[139.638236,35.704967],[139.637732,35.704953],[139.637339,35.704932],[139.636714,35.704871],[139.636693,35.704873],[139.635747,35.704796],[139.634827,35.704756],[139.634041,35.70474],[139.63305,35.704731],[139.632259,35.704704],[139.63119,35.704681],[139.630486,35.704662],[139.629945,35.704645],[139.628956,35.704616],[139.628,35.704592],[139.626796,35.704553],[139.62617,35.704547],[139.625181,35.704518],[139.624494,35.704497],[139.62371,35.704483],[139.620906,35.70442],[139.619193,35.704357],[139.618075,35.704308],[139.616572,35.704255],[139.615184,35.704229],[139.614605,35.704245],[139.614133,35.704222],[139.613591,35.704208],[139.613591,35.704208],[139.612819,35.704187],[139.612342,35.704166],[139.611748,35.704154],[139.61103,35.704132],[139.610012,35.704106],[139.609644,35.704094],[139.609073,35.704079],[139.608308,35.704056],[139.607351,35.704027],[139.606787,35.704005],[139.605946,35.703977],[139.603707,35.703914],[139.60216,35.703871],[139.601587,35.70384],[139.600935,35.703791],[139.600459,35.70375],[139.599437,35.703689],[139.598989,35.703694],[139.598094,35.703709],[139.597268,35.703719],[139.596297,35.703684],[139.595396,35.703657],[139.594793,35.703645],[139.593821,35.703614],[139.593598,35.703606],[139.592573,35.703577],[139.591701,35.703547],[139.591035,35.70353],[139.589664,35.70349],[139.583925,35.703335],[139.583097,35.703291],[139.582556,35.703245],[139.581875,35.703182],[139.581294,35.703107],[139.580944,35.703082],[139.579678,35.703034],[139.578421,35.703052],[139.577888,35.70307],[139.577315,35.703075],[139.576676,35.703074],[139.575876,35.703072],[139.575378,35.703065],[139.574909,35.703049],[139.574489,35.703039],[139.573491,35.70301],[139.572048,35.70297],[139.567751,35.702855],[139.566128,35.702812],[139.564751,35.702774],[139.563557,35.702738],[139.562887,35.702699],[139.562165,35.702641],[139.561665,35.702612],[139.560991,35.702587],[139.560278,35.702572],[139.559792,35.702567],[139.559792,35.702567]]]}}]}