{"type":"FeatureCollection","features":[{"type":"Feature","properties":{"name":"京浜東北・根岸線","color":"00B2E5"},"geometry":{"type":"MultiLineString","coordinates":[[[139.531074,35.352761],[139.531893,35.354663],[139.532046,35.35508],[139.532142,35.355412],[139.532185,35.355759],[139.532196,35.35613],[139.532171,35.356406],[139.532092,35.356768],[139.53198,35.357116],[139.531858,35.357423],[139.531741,35.357648],[139.531553,35.357936],[139.531308,35.358281],[139.530154,35.359702],[139.529961,35.360011],[139.529789,35.360364],[139.529641,35.360766],[139.52956,35.361167],[139.529539,35.361444],[139.529547,35.361759],[139.529593,35.362073],[139.529654,35.362329],[139.530548,35.365237],[139.530802,35.366033],[139.530986,35.36641],[139.531191,35.366727],[139.531457,35.367043],[139.531736,35.36731],[139.53206,35.367557],[139.532626,35.367951],[139.533056,35.368182],[139.533579,35.368423],[139.534175,35.368636],[139.534712,35.36878],[139.535456,35.368918],[139.536164,35.36899],[139.536849,35.368995],[139.537495,35.368954],[139.538071,35.368857],[139.538826,35.368681],[139.539487,35.368489],[139.539987,35.368337],[139.540654,35.36815],[139.542828,35.367562],[139.543971,35.367266],[139.544626,35.367129],[139.545364,35.367054],[139.545961,35.367048],[139.546441,35.367088],[139.546993,35.367168],[139.547456,35.367275],[139.551365,35.368187],[139.552267,35.368381],[139.553076,35.368582],[139.554298,35.368876],[139.557401,35.369626],[139.558154,35.369795],[139.558488,35.36988],[139.558758,35.369973],[139.559204,35.370121],[139.559829,35.370351],[139.560241,35.370532],[139.560611,35.370701],[139.560927,35.370869],[139.561437,35.371139],[139.562552,35.371682],[139.56302,35.371896],[139.563814,35.372195],[139.564248,35.37233],[139.565011,35.372533],[139.565803,35.372723],[139.567868,35.373198],[139.572531,35.374321],[139.577957,35.375595],[139.578833,35.375778],[139.579431,35.375903],[139.580046,35.376003],[139.580803,35.376085],[139.581589,35.37612],[139.582548,35.376107],[139.583265,35.376065],[139.583983,35.375974],[139.584687,35.375896],[139.585702,35.375844],[139.586495,35.37584],[139.587052,35.375878],[139.587886,35.375965],[139.588673,35.376091],[139.589332,35.376246],[139.58992,35.376408],[139.590461,35.376587],[139.590865,35.376746],[139.592732,35.377551],[139.593802,35.377875],[139.59559,35.378423],[139.597912,35.379131],[139.5988,35.379381],[139.598982,35.379437],[139.599406,35.379516],[139.600048,35.379611],[139.600596,35.379653],[139.601166,35.379667],[139.601746,35.379661],[139.602452,35.379595],[139.603398,35.379464],[139.604241,35.379279],[139.605324,35.378974],[139.608958,35.378024],[139.609531,35.377884],[139.610037,35.377782],[139.610543,35.377695],[139.611054,35.377665],[139.611595,35.377662],[139.612079,35.377656],[139.612588,35.377682],[139.613227,35.377743],[139.613836,35.377855],[139.615775,35.378265],[139.616693,35.378472],[139.617344,35.378766],[139.617757,35.378961],[139.618016,35.379113],[139.618317,35.379298],[139.618557,35.379464],[139.618837,35.379675],[139.618987,35.379802],[139.619195,35.379989],[139.619401,35.380195],[139.619599,35.380418],[139.619742,35.380589],[139.619901,35.380797],[139.620059,35.381031],[139.620226,35.381325],[139.620341,35.381569],[139.620419,35.381768],[139.620541,35.382081],[139.620648,35.38243],[139.62073,35.382822],[139.620775,35.38332],[139.620776,35.383556],[139.620772,35.383789],[139.620756,35.384035],[139.620721,35.384271],[139.620676,35.384524],[139.620604,35.384779],[139.620481,35.385135],[139.620325,35.385511],[139.620202,35.385742],[139.620034,35.386017],[139.619832,35.3863],[139.61885,35.387565],[139.61863,35.387837],[139.617246,35.389606],[139.617012,35.389898],[139.616779,35.390208],[139.616567,35.390524],[139.616433,35.390755],[139.616293,35.391015],[139.616165,35.3913],[139.61604,35.391649],[139.615949,35.391961],[139.615876,35.392288],[139.615821,35.392681],[139.615799,35.392971],[139.615812,35.39325],[139.615884,35.395291],[139.6159,35.395485],[139.615966,35.395927],[139.616087,35.396447],[139.61622,35.396881],[139.616383,35.39731],[139.616541,35.397665],[139.616661,35.397887],[139.616824,35.398153],[139.617862,35.399702],[139.619078,35.40149],[139.619414,35.402013],[139.619814,35.402615],[139.621352,35.404865],[139.623413,35.407864],[139.62375,35.408349],[139.625143,35.41041],[139.625342,35.410652],[139.625592,35.410922],[139.625886,35.411186],[139.626155,35.411395],[139.626404,35.411569],[139.626712,35.41175],[139.627021,35.411915],[139.632069,35.414445],[139.632891,35.414849],[139.633571,35.415186],[139.633995,35.415357],[139.634519,35.415516],[139.637404,35.416202],[139.637918,35.41634],[139.638474,35.416481],[139.639178,35.416653],[139.643151,35.417591],[139.643639,35.417729],[139.644156,35.417923],[139.644646,35.418139],[139.645012,35.418342],[139.645446,35.418614],[139.645872,35.418921],[139.646192,35.419205],[139.646479,35.419495],[139.646681,35.419737],[139.647034,35.420133],[139.647366,35.420655],[139.647574,35.421085],[139.64769,35.421501],[139.647756,35.421961],[139.647774,35.422351],[139.647759,35.422798],[139.64773,35.423307],[139.647664,35.423745],[139.647551,35.424196],[139.647362,35.424719],[139.647199,35.425138],[139.645885,35.428131],[139.645711,35.428581],[139.645608,35.429061],[139.645539,35.429598],[139.645537,35.430012],[139.645596,35.430681],[139.645568,35.43258],[139.645502,35.43317],[139.645387,35.433673],[139.645255,35.434041],[139.644455,35.435807],[139.644179,35.436366],[139.643616,35.437463],[139.642294,35.44013],[139.6418,35.440832],[139.641269,35.441338],[139.640657,35.441695],[139.639787,35.442088],[139.638187,35.442759],[139.637372,35.443187],[139.636323,35.443867],[139.635481,35.444562],[139.634828,35.445189],[139.632916,35.447328],[139.632761,35.447559],[139.632606,35.44786],[139.632486,35.448204],[139.632189,35.449398],[139.63206,35.44971],[139.631816,35.450098],[139.631553,35.450426],[139.630409,35.451629],[139.630002,35.452051],[139.629446,35.452683],[139.62807,35.454291],[139.625126,35.457999],[139.624724,35.458473],[139.624036,35.459326],[139.621953,35.46193],[139.621828,35.462104],[139.621697,35.462338],[139.621593,35.462585],[139.621514,35.46284],[139.621467,35.463176],[139.621437,35.463504],[139.621438,35.463777],[139.621485,35.464171],[139.621627,35.464599],[139.621811,35.464973],[139.622034,35.465243],[139.623113,35.466397],[139.623267,35.466601],[139.623431,35.466879],[139.623679,35.467224],[139.623938,35.467516],[139.62422,35.467826],[139.624675,35.468348],[139.625774,35.469728],[139.625946,35.469938],[139.626114,35.470141],[139.627521,35.471702],[139.628528,35.472819],[139.628821,35.473133],[139.629365,35.473727],[139.631358,35.475922],[139.631803,35.476346],[139.632615,35.477175],[139.63407,35.478762],[139.634753,35.47952],[139.63517,35.480015],[139.635667,35.480544],[139.636704,35.481648],[139.636952,35.481882],[139.637374,35.482201],[139.637861,35.482492],[139.638249,35.482676],[139.638743,35.48287],[139.63901,35.482964],[139.639524,35.483139],[139.6414,35.483748],[139.642451,35.484081],[139.643186,35.484383],[139.644113,35.484725],[139.644957,35.484955],[139.645954,35.485127],[139.647115,35.485322],[139.647749,35.485384],[139.648572,35.485413],[139.649454,35.485445],[139.650168,35.485513],[139.650967,35.485658],[139.651631,35.48583],[139.652202,35.486013],[139.652914,35.486275],[139.653397,35.486505],[139.654949,35.487295],[139.655472,35.487584],[139.656228,35.487988],[139.657503,35.488647],[139.658397,35.489116],[139.660348,35.490145],[139.660861,35.490495],[139.66249,35.491727],[139.663009,35.492139],[139.663264,35.492375],[139.663521,35.492681],[139.663711,35.492938],[139.664313,35.493884],[139.664574,35.4942],[139.664848,35.49447],[139.665129,35.494712],[139.665385,35.494893],[139.66671,35.495792],[139.667115,35.496083],[139.668558,35.497266],[139.670043,35.498492],[139.671021,35.499337],[139.672199,35.500366],[139.672731,35.500826],[139.673297,35.501335],[139.673498,35.50152],[139.673755,35.501793],[139.674095,35.502195],[139.674361,35.502557],[139.674671,35.503028],[139.674865,35.503382],[139.67508,35.503882],[139.675319,35.504715],[139.67612,35.508205],[139.676817,35.510905],[139.676912,35.511235],[139.677075,35.511724],[139.677317,35.512382],[139.677811,35.513787],[139.678087,35.514613],[139.678283,35.515044],[139.678464,35.515371],[139.678701,35.515736],[139.678916,35.516025],[139.679227,35.516381],[139.679644,35.516752],[139.680252,35.517321],[139.680785,35.517794],[139.681388,35.518315],[139.684016,35.520515],[139.687127,35.523107],[139.688872,35.524578],[139.690851,35.526243],[139.691602,35.526872],[139.692755,35.527833],[139.693475,35.528442],[139.694549,35.529341],[139.69664,35.531185],[139.69836,35.532628],[139.699396,35.533391],[139.699861,35.533771],[139.700676,35.534461],[139.701504,35.53518],[139.70197,35.535648],[139.702238,35.535963],[139.706588,35.541161],[139.706912,35.541568],[139.707041,35.541751],[139.707374,35.54227],[139.707722,35.542844],[139.70808,35.543556],[139.709731,35.547408],[139.713416,35.55623],[139.714831,35.559642],[139.715561,35.561351],[139.715663,35.561674],[139.716715,35.564201],[139.717588,35.566289],[139.718222,35.567807],[139.719703,35.571349],[139.72351,35.580445],[139.724894,35.583749],[139.725002,35.584014],[139.725138,35.584288],[139.725226,35.584451],[139.725469,35.5849],[139.72567,35.585222],[139.725937,35.585644],[139.726135,35.585943],[139.726441,35.586427],[139.726718,35.586837],[139.727315,35.58772],[139.728855,35.590111],[139.732947,35.596461],[139.733193,35.596848],[139.733411,35.597249],[139.73357,35.597546],[139.733691,35.597882],[139.733891,35.598547],[139.733956,35.598857],[139.734004,35.599203],[139.73405,35.599514],[139.734108,35.599951],[139.73414,35.60023],[139.734565,35.603606],[139.734791,35.605407],[139.734796,35.605798],[139.734866,35.606603],[139.735009,35.607539],[139.735104,35.608046],[139.735265,35.609152],[139.735534,35.611153],[139.735916,35.614037],[139.735997,35.614529],[139.736444,35.616163],[139.737276,35.619117],[139.737442,35.619857],[139.737786,35.621169],[139.738202,35.622758],[139.738417,35.623567],[139.738566,35.624174],[139.738768,35.625084],[139.7388,35.625321],[139.738831,35.625707],[139.738839,35.626285],[139.738857,35.627163],[139.738822,35.627886],[139.738742,35.629456],[139.738754,35.629988],[139.738829,35.630539],[139.739005,35.631148],[139.739202,35.631735],[139.739515,35.632409],[139.740073,35.633741],[139.741286,35.63665],[139.74166,35.637484],[139.742071,35.638459],[139.742364,35.639175],[139.742571,35.639861],[139.742784,35.640511],[139.742936,35.641151],[139.743087,35.641764],[139.743243,35.642205],[139.74345,35.642651],[139.743725,35.643103],[139.744151,35.643625],[139.744571,35.64401],[139.745089,35.644368],[139.747406,35.645551],[139.74871,35.64616],[139.749854,35.646711],[139.750718,35.647108],[139.751696,35.647579],[139.752746,35.648089],[139.753061,35.648275],[139.753523,35.648593],[139.754014,35.648968],[139.754343,35.649251],[139.754678,35.649559],[139.754973,35.649895],[139.755277,35.650288],[139.755509,35.650633],[139.755699,35.650956],[139.755821,35.651175],[139.756088,35.651738],[139.756313,35.652304],[139.756549,35.653091],[139.75688,35.654241],[139.757439,35.656304],[139.757577,35.656905],[139.757755,35.657651],[139.758309,35.659926],[139.758472,35.660664],[139.758564,35.661265],[139.758615,35.661789],[139.758622,35.662317],[139.75859,35.66303],[139.75855,35.663581],[139.758482,35.664061],[139.758376,35.664681],[139.758304,35.665232],[139.758252,35.665975],[139.758112,35.66675],[139.758057,35.667302],[139.758051,35.667647],[139.758068,35.667951],[139.758122,35.668271],[139.758224,35.668572],[139.758325,35.668854],[139.758501,35.66917],[139.760102,35.672012],[139.760267,35.672285],[139.760415,35.672523],[139.760615,35.672809],[139.760898,35.673137],[139.761322,35.673553],[139.7617,35.673864],[139.762165,35.674211],[139.762727,35.67463],[139.763838,35.675487],[139.764207,35.675785],[139.764477,35.676037],[139.764697,35.676284],[139.764831,35.67645],[139.765029,35.676741],[139.765206,35.677077],[139.765967,35.679006],[139.766062,35.679289],[139.766137,35.679708],[139.766414,35.680458],[139.766698,35.681203],[139.767123,35.682315],[139.767302,35.682717],[139.767425,35.682975],[139.767655,35.683507],[139.767864,35.683944],[139.768006,35.684312],[139.768192,35.684733],[139.768441,35.685329],[139.768669,35.685918],[139.769138,35.68718],[139.769593,35.688306],[139.770341,35.690084],[139.770561,35.690602],[139.771086,35.691758],[139.771568,35.693004],[139.771689,35.693321],[139.771851,35.693718],[139.772166,35.694458],[139.772489,35.695259],[139.772602,35.695564],[139.772708,35.695921],[139.772782,35.696221],[139.772842,35.696547],[139.772968,35.697284],[139.773065,35.697985],[139.773165,35.698838],[139.773245,35.699654],[139.773295,35.700115],[139.773418,35.701174],[139.773487,35.701557],[139.773575,35.701882],[139.773881,35.702796],[139.774052,35.703348],[139.774152,35.703862],[139.774577,35.706255],[139.774914,35.708287],[139.774958,35.708739],[139.774952,35.708976],[139.774912,35.709227],[139.774727,35.710345],[139.774701,35.710546],[139.774703,35.71083],[139.774758,35.711127],[139.774872,35.711471],[139.775015,35.711777],[139.775178,35.71207],[139.776866,35.714506],[139.777152,35.714852],[139.777467,35.715247],[139.778077,35.715926],[139.778803,35.716724],[139.779229,35.717213],[139.779383,35.717451],[139.779491,35.717653],[139.779604,35.71792],[139.77969,35.71819],[139.779755,35.718493],[139.779787,35.718798],[139.77978,35.719091],[139.779741,35.719388],[139.779673,35.719633],[139.779577,35.719887],[139.77943,35.720145],[139.779266,35.72037],[139.778937,35.72076],[139.778064,35.721666],[139.777203,35.722387],[139.776949,35.722591],[139.776814,35.722704],[139.776669,35.722838],[139.775179,35.724215],[139.774414,35.724923],[139.773852,35.725442],[139.773465,35.725761],[139.773186,35.725968],[139.772834,35.726211],[139.772491,35.726426],[139.771773,35.726909],[139.771243,35.727331],[139.769883,35.728535],[139.76939,35.72899],[139.769056,35.729331],[139.767664,35.730911],[139.767405,35.731259],[139.766069,35.733169],[139.765653,35.733693],[139.765275,35.734102],[139.764703,35.734716],[139.763508,35.735878],[139.762206,35.737047],[139.760792,35.738221],[139.76005,35.738851],[139.759576,35.739274],[139.759159,35.739602],[139.758526,35.739981],[139.757816,35.740435],[139.75724,35.740894],[139.756921,35.741134],[139.755818,35.741795],[139.755498,35.741964],[139.754371,35.742639],[139.753433,35.743181],[139.753117,35.743341],[139.751278,35.744182],[139.750996,35.74432],[139.750713,35.744485],[139.750386,35.744673],[139.750081,35.744844],[139.749481,35.745194],[139.749169,35.745397],[139.748857,35.745608],[139.748501,35.745826],[139.747134,35.746537],[139.744947,35.747736],[139.742941,35.748693],[139.742315,35.748985],[139.741962,35.749181],[139.741641,35.7494],[139.741393,35.749617],[139.741179,35.749812],[139.740957,35.750056],[139.740712,35.750352],[139.74049,35.750573],[139.740212,35.750818],[139.739927,35.751029],[139.739199,35.751536],[139.738917,35.751764],[139.737593,35.753049],[139.737182,35.753508],[139.736414,35.754384],[139.736057,35.754809],[139.73586,35.755069],[139.733956,35.757768],[139.733703,35.758115],[139.733445,35.758416],[139.73317,35.75868],[139.732915,35.758904],[139.732559,35.75917],[139.732112,35.759471],[139.731494,35.759895],[139.730874,35.760339],[139.729357,35.761418],[139.728783,35.761828],[139.728452,35.762082],[139.728042,35.762442],[139.72756,35.762984],[139.727382,35.763214],[139.727228,35.763411],[139.72699,35.763741],[139.726556,35.764362],[139.726295,35.764774],[139.726018,35.765248],[139.72578,35.765678],[139.725462,35.766211],[139.724963,35.767076],[139.724385,35.768099],[139.723621,35.769451],[139.722892,35.770731],[139.722684,35.771173],[139.722567,35.771442],[139.722477,35.771853],[139.7224,35.772338],[139.722376,35.772891],[139.722365,35.77341],[139.72237,35.775188],[139.722366,35.775429],[139.722298,35.775835],[139.722188,35.776244],[139.721986,35.776668],[139.721696,35.777164],[139.720594,35.778837],[139.720073,35.779506],[139.71965,35.780045],[139.719507,35.780275],[139.719279,35.780715],[139.718374,35.782507],[139.717851,35.783586],[139.717521,35.784381],[139.717319,35.784912],[139.717164,35.785429],[139.717095,35.785973],[139.717095,35.786486],[139.717114,35.786914],[139.718073,35.795273],[139.718412,35.798385],[139.718428,35.798774],[139.718412,35.799348],[139.71834,35.79986],[139.718186,35.80039],[139.71785,35.801289],[139.717406,35.80212],[139.716969,35.802802],[139.716368,35.80353],[139.715047,35.804881],[139.714176,35.805744],[139.713544,35.806347],[139.711438,35.808452],[139.711038,35.808905],[139.71068,35.809305],[139.710413,35.809566],[139.705753,35.814295],[139.703622,35.81642],[139.701738,35.818289],[139.700181,35.819856],[139.699841,35.820206],[139.699467,35.820558],[139.699145,35.820838],[139.698646,35.821247],[139.698186,35.821598],[139.696811,35.822636],[139.693334,35.82526],[139.693106,35.825458],[139.692856,35.825657],[139.692597,35.825899],[139.692221,35.826251],[139.691692,35.826808],[139.691124,35.82739],[139.689381,35.829113],[139.68888,35.829588],[139.688578,35.829854],[139.688131,35.830236],[139.68758,35.830779],[139.683495,35.834848],[139.682748,35.835513],[139.681916,35.836047],[139.681416,35.83635],[139.680795,35.836721],[139.68064,35.836807],[139.680393,35.836994],[139.680148,35.83719],[139.679737,35.837578],[139.678592,35.838691],[139.67789,35.839399],[139.674943,35.842338],[139.674088,35.843171],[139.673463,35.843676],[139.671674,35.845083],[139.67125,35.845449],[139.670817,35.845851],[139.669483,35.847241],[139.667258,35.849541],[139.666626,35.850176],[139.665601,35.851161],[139.664836,35.851771],[139.664334,35.852139],[139.661483,35.854217],[139.660272,35.855117],[139.659968,35.855378],[139.65965,35.855681],[139.659256,35.856093],[139.65898,35.856393],[139.658752,35.856691],[139.658438,35.857157],[139.657907,35.858151],[139.657544,35.858756],[139.656731,35.859949],[139.656345,35.860496],[139.656154,35.860763],[139.655738,35.861409],[139.655165,35.862218],[139.654567,35.863116],[139.652747,35.865805],[139.652358,35.866324],[139.651922,35.86682],[139.651524,35.867228],[139.651382,35.867368],[139.650728,35.867959],[139.648704,35.869792],[139.647774,35.870608],[139.646106,35.872171],[139.644981,35.873119],[139.644487,35.873555],[139.644192,35.873854],[139.643932,35.874153],[139.64369,35.874451],[139.643447,35.874807],[139.643234,35.875163],[139.64303,35.875544],[139.642783,35.876106],[139.641605,35.878634],[139.640001,35.882386],[139.639721,35.883051],[139.639189,35.88428],[139.638495,35.885699],[139.638062,35.886563],[139.637799,35.887153],[139.637233,35.888363],[139.636181,35.890593],[139.63602,35.89088],[139.635741,35.891323],[139.635414,35.891787],[139.634425,35.89312],[139.63294,35.895121],[139.632022,35.896282],[139.631214,35.897244],[139.630759,35.89779],[139.630378,35.898198],[139.629414,35.899193],[139.628923,35.899648],[139.628047,35.900439],[139.627559,35.900886],[139.627193,35.901301],[139.626859,35.90174],[139.626556,35.902158],[139.626207,35.90267],[139.625851,35.903287],[139.625576,35.903823],[139.62536,35.904289],[139.625202,35.904747],[139.624975,35.905499],[139.624722,35.906204],[139.624252,35.907248],[139.624011,35.907782],[139.624011,35.907782]]]}}]}