{"type":"FeatureCollection","features":[{"type":"Feature","properties":{"name":"山手線","color":"9ACD32"},"geometry":{"type":"MultiLineString","coordinates":[[[139.766489,35.681258],[139.766887,35.682239],[139.76713,35.682767],[139.767348,35.683128],[139.767572,35.683545],[139.767705,35.683813],[139.767884,35.684224],[139.768361,35.685401],[139.769417,35.688141],[139.770377,35.690422],[139.770535,35.690816],[139.770685,35.691224],[139.770937,35.691841],[139.771252,35.692545],[139.771394,35.692869],[139.771479,35.693064],[139.772304,35.695065],[139.772371,35.695223],[139.77247,35.695478],[139.772556,35.695742],[139.772626,35.695975],[139.772674,35.696178],[139.772747,35.696577],[139.772807,35.6972],[139.77292,35.698092],[139.77302,35.698946],[139.773142,35.699726],[139.773186,35.700045],[139.773328,35.701094],[139.773399,35.70159],[139.773452,35.701806],[139.773515,35.701995],[139.773829,35.702965],[139.773931,35.703269],[139.773988,35.703486],[139.774033,35.703688],[139.774136,35.704276],[139.774286,35.705098],[139.774401,35.70577],[139.774462,35.706291],[139.774517,35.706761],[139.774657,35.707511],[139.7748,35.708293],[139.774855,35.708713],[139.774855,35.709034],[139.774794,35.709463],[139.774657,35.710185],[139.774604,35.710528],[139.774614,35.710867],[139.774654,35.711178],[139.774788,35.711633],[139.77499,35.712104],[139.775355,35.712679],[139.775842,35.713383],[139.776273,35.714009],[139.776573,35.714435],[139.776966,35.714895],[139.777379,35.715353],[139.777993,35.716046],[139.77848,35.716576],[139.77905,35.717214],[139.779263,35.717486],[139.779373,35.717678],[139.779493,35.717911],[139.779581,35.718158],[139.77966,35.718496],[139.77969,35.718835],[139.779675,35.719078],[139.779633,35.719318],[139.77953,35.719676],[139.779383,35.72],[139.779176,35.720271],[139.778953,35.720525],[139.778553,35.720955],[139.77785,35.721666],[139.777118,35.722306],[139.776631,35.722757],[139.774902,35.724354],[139.773874,35.725302],[139.773479,35.725643],[139.773192,35.725863],[139.772856,35.726101],[139.772109,35.726552],[139.771582,35.726886],[139.771029,35.727332],[139.770079,35.728137],[139.769662,35.72854],[139.769187,35.72905],[139.768594,35.729713],[139.767932,35.730464],[139.767254,35.731211],[139.766651,35.732042],[139.765996,35.733034],[139.765566,35.733619],[139.765312,35.733911],[139.763891,35.735347],[139.762559,35.736559],[139.761925,35.737089],[139.76107,35.737812],[139.759244,35.739313],[139.758436,35.739869],[139.757927,35.74016],[139.75751,35.740308],[139.757203,35.740395],[139.75703,35.740432],[139.756848,35.740459],[139.756656,35.740479],[139.756474,35.74049],[139.756281,35.740497],[139.75606,35.740491],[139.755814,35.740475],[139.755537,35.740433],[139.755295,35.740389],[139.755083,35.740327],[139.754818,35.740239],[139.754622,35.740154],[139.75439,35.740038],[139.754164,35.73992],[139.753839,35.73975],[139.753498,35.739576],[139.753186,35.739413],[139.752092,35.738848],[139.751579,35.738583],[139.750981,35.738283],[139.750285,35.737949],[139.749487,35.73757],[139.74878,35.737245],[139.747619,35.736748],[139.746509,35.73628],[139.745832,35.736],[139.744725,35.735554],[139.743813,35.735184],[139.741829,35.734382],[139.739097,35.733277],[139.738057,35.732797],[139.736446,35.732122],[139.734916,35.731484],[139.734593,35.731354],[139.734313,35.731258],[139.733994,35.731164],[139.733641,35.731074],[139.733369,35.731019],[139.733017,35.730963],[139.73274,35.730936],[139.732416,35.730923],[139.732142,35.73092],[139.731873,35.730931],[139.731617,35.730953],[139.731385,35.730984],[139.731183,35.731019],[139.730958,35.731063],[139.730781,35.731108],[139.729417,35.731459],[139.729233,35.731515],[139.72866,35.731679],[139.726077,35.732326],[139.72267,35.733218],[139.718297,35.734374],[139.717676,35.734526],[139.717405,35.734569],[139.717115,35.734603],[139.716795,35.734625],[139.716436,35.734627],[139.716049,35.734605],[139.715657,35.734556],[139.715328,35.7345],[139.715072,35.734438],[139.714775,35.734363],[139.714432,35.734258],[139.714124,35.734141],[139.713557,35.733859],[139.713069,35.733485],[139.712752,35.73318],[139.71251,35.732903],[139.712153,35.732383],[139.712016,35.732188],[139.711897,35.731999],[139.711766,35.731732],[139.711305,35.730875],[139.710402,35.728938],[139.710146,35.728294],[139.709872,35.727609],[139.708666,35.725491],[139.70842,35.725033],[139.707813,35.723851],[139.706882,35.722057],[139.706731,35.72177],[139.706563,35.721391],[139.706214,35.720448],[139.705884,35.71951],[139.705787,35.719192],[139.705193,35.717342],[139.704959,35.716535],[139.704812,35.716043],[139.704502,35.715128],[139.704293,35.714512],[139.704129,35.714096],[139.703868,35.713421],[139.703684,35.712865],[139.70333,35.711834],[139.703095,35.711135],[139.702869,35.710477],[139.702555,35.709586],[139.702158,35.708459],[139.700885,35.704833],[139.70067,35.704216],[139.700585,35.703882],[139.700486,35.70341],[139.7004,35.702746],[139.700305,35.702006],[139.70017,35.700619],[139.700111,35.70014],[139.700093,35.69965],[139.70007,35.699398],[139.700031,35.699015],[139.699962,35.69836],[139.699909,35.698042],[139.699768,35.697442],[139.699634,35.696848],[139.699486,35.696105],[139.69945,35.69587],[139.699395,35.695547],[139.699381,35.695265],[139.699389,35.695028],[139.699436,35.69471],[139.699521,35.694396],[139.699661,35.693882],[139.699727,35.693623],[139.699949,35.692716],[139.699967,35.69233],[139.699942,35.691941],[139.699924,35.691594],[139.699918,35.690903],[139.699979,35.690135],[139.700083,35.68954],[139.700298,35.688651],[139.700554,35.688024],[139.700803,35.68744],[139.700988,35.686872],[139.701189,35.686202],[139.70135,35.685818],[139.701681,35.685075],[139.701822,35.684607],[139.701987,35.683999],[139.702143,35.683402],[139.702322,35.682987],[139.70256,35.682478],[139.702758,35.682005],[139.702916,35.681601],[139.702995,35.681344],[139.703136,35.680828],[139.703248,35.680412],[139.703433,35.679714],[139.703731,35.678621],[139.7038,35.678244],[139.703883,35.677676],[139.703915,35.677202],[139.703955,35.676461],[139.70398,35.675999],[139.703977,35.675639],[139.703924,35.675221],[139.703775,35.674747],[139.703736,35.67464],[139.70369,35.674492],[139.703598,35.674238],[139.703499,35.673942],[139.703363,35.673536],[139.703243,35.673206],[139.703152,35.672952],[139.703009,35.672534],[139.702859,35.672114],[139.702755,35.67176],[139.702516,35.670738],[139.70241,35.670116],[139.702342,35.669604],[139.702277,35.669039],[139.702164,35.668189],[139.70187,35.666055],[139.701464,35.663178],[139.701403,35.662668],[139.70135,35.661941],[139.701258,35.660521],[139.701209,35.660128],[139.701196,35.659838],[139.7012,35.659546],[139.701226,35.659269],[139.701313,35.658812],[139.701549,35.658123],[139.701811,35.6577],[139.702223,35.65712],[139.702654,35.65657],[139.703149,35.656003],[139.70385,35.655195],[139.704855,35.654121],[139.705141,35.653873],[139.705561,35.653466],[139.705904,35.653066],[139.706372,35.652533],[139.70715,35.651627],[139.707343,35.651377],[139.707529,35.651154],[139.707798,35.650798],[139.70798,35.6505],[139.708597,35.649403],[139.709044,35.648573],[139.709255,35.648172],[139.709416,35.647836],[139.709637,35.647328],[139.710392,35.645962],[139.710784,35.645276],[139.711249,35.644457],[139.711517,35.644034],[139.711811,35.643525],[139.712187,35.64287],[139.712488,35.642285],[139.712795,35.641723],[139.7131,35.641148],[139.713336,35.640699],[139.713534,35.640218],[139.713706,35.639809],[139.713854,35.639519],[139.713957,35.639345],[139.714121,35.63909],[139.714258,35.63888],[139.714482,35.638575],[139.714632,35.638331],[139.714757,35.638076],[139.714853,35.637818],[139.714899,35.63756],[139.714924,35.637386],[139.714946,35.637082],[139.715,35.636735],[139.715068,35.63643],[139.715255,35.63573],[139.715355,35.635356],[139.715535,35.634733],[139.715753,35.634015],[139.715936,35.633311],[139.716212,35.63214],[139.716397,35.631515],[139.716522,35.631292],[139.716636,35.631067],[139.716815,35.630783],[139.717024,35.630526],[139.717296,35.630243],[139.717636,35.629962],[139.718104,35.629651],[139.718547,35.629423],[139.720013,35.628786],[139.721041,35.628303],[139.721438,35.628105],[139.721784,35.6279],[139.722211,35.627609],[139.722593,35.627318],[139.72305,35.626895],[139.723508,35.626371],[139.723976,35.625756],[139.724412,35.625155],[139.724561,35.624935],[139.724837,35.624616],[139.725028,35.624362],[139.725988,35.623075],[139.726652,35.622196],[139.727082,35.621586],[139.727613,35.62088],[139.727986,35.62039],[139.72853,35.619669],[139.729127,35.61885],[139.729659,35.618177],[139.730164,35.617736],[139.730574,35.617457],[139.731018,35.617222],[139.731298,35.617105],[139.731598,35.617008],[139.731938,35.616927],[139.732291,35.616869],[139.73257,35.616842],[139.73284,35.616834],[139.73309,35.616844],[139.733326,35.616864],[139.733595,35.616902],[139.733867,35.616959],[139.734212,35.617027],[139.734543,35.617108],[139.735007,35.61728],[139.735344,35.617433],[139.735661,35.617613],[139.736093,35.617906],[139.736465,35.618251],[139.736769,35.618618],[139.737024,35.619027],[139.737158,35.619332],[139.737258,35.619611],[139.737899,35.621969],[139.738358,35.623682],[139.738546,35.624485],[139.738666,35.62501],[139.738702,35.625269],[139.738723,35.625625],[139.738708,35.626072],[139.73866,35.626465],[139.738588,35.626894],[139.738514,35.627514],[139.738479,35.628065],[139.738442,35.629008],[139.738431,35.629503],[139.738469,35.63],[139.738642,35.63069],[139.738888,35.631273],[139.739199,35.631936],[139.739526,35.632663],[139.73977,35.633311],[139.73996,35.633872],[139.740224,35.634578],[139.740551,35.635425],[139.740898,35.636217],[139.741202,35.636861],[139.741392,35.637223],[139.741522,35.637525],[139.741755,35.638114],[139.742015,35.638786],[139.742289,35.639376],[139.742524,35.639904],[139.742693,35.640388],[139.742844,35.640992],[139.742883,35.641406],[139.743021,35.641905],[139.743227,35.642467],[139.743463,35.642914],[139.743857,35.643443],[139.744135,35.643745],[139.744436,35.644004],[139.744851,35.644309],[139.745458,35.644672],[139.74627,35.645118],[139.747155,35.645574],[139.748248,35.646075],[139.748944,35.646414],[139.749946,35.646891],[139.750868,35.647334],[139.751893,35.647823],[139.752913,35.648309],[139.753411,35.648627],[139.754193,35.649226],[139.754642,35.649638],[139.754927,35.64997],[139.755256,35.650401],[139.75556,35.65086],[139.755789,35.651297],[139.756008,35.651762],[139.756257,35.652409],[139.756464,35.65307],[139.75661,35.653631],[139.756778,35.654314],[139.756965,35.65501],[139.757173,35.655869],[139.757372,35.656558],[139.757519,35.657066],[139.757624,35.657463],[139.758222,35.659939],[139.758385,35.660677],[139.758452,35.661085],[139.758499,35.661528],[139.758527,35.661918],[139.758527,35.662599],[139.758507,35.663022],[139.75846,35.66347],[139.758431,35.663741],[139.758368,35.664168],[139.758313,35.66444],[139.758265,35.664816],[139.758214,35.66518],[139.75815,35.665622],[139.75802,35.666168],[139.757938,35.666705],[139.757933,35.66748],[139.757952,35.667789],[139.758023,35.668222],[139.758125,35.668561],[139.758315,35.669017],[139.758738,35.66978],[139.759992,35.672008],[139.760177,35.672324],[139.760353,35.672598],[139.760634,35.672974],[139.760906,35.673289],[139.761401,35.673745],[139.762108,35.674318],[139.762625,35.67475],[139.763196,35.675187],[139.763857,35.675653],[139.76423,35.675949],[139.764486,35.676193],[139.764708,35.676444],[139.764846,35.676616],[139.764991,35.676862],[139.765084,35.677022],[139.765172,35.677203],[139.765273,35.677468],[139.765424,35.67786],[139.765742,35.678664],[139.765877,35.679023],[139.765963,35.679268],[139.765997,35.67945],[139.76601,35.679705],[139.766069,35.680005],[139.766161,35.680343],[139.766319,35.680795],[139.766445,35.681139],[139.766489,35.681258]]]}}]}