{"type":"FeatureCollection","features":[{"type":"Feature","properties":{},"geometry":{"type":"LineString","coordinates":[[139.678723,35.668596],[139.679495,35.668977],[139.68063,35.669549],[139.68127,35.669813],[139.681852,35.669998],[139.682371,35.670097],[139.682629,35.67013],[139.682975,35.670151],[139.683368,35.670139],[139.683783,35.670094],[139.684271,35.670027],[139.685046,35.669898],[139.687097,35.669577],[139.68857,35.669323],[139.689597,35.669129],[139.690147,35.669021],[139.690813,35.668947],[139.691545,35.668899],[139.692354,35.668932],[139.692872,35.668959],[139.693431,35.669011],[139.694731,35.669168],[139.696681,35.669381],[139.69848,35.669579],[139.700259,35.669787],[139.701024,35.669846],[139.701712,35.669818],[139.702204,35.669758],[139.702637,35.669672],[139.703022,35.669557],[139.703323,35.669435],[139.704535,35.668892],[139.706066,35.668185],[139.707471,35.667528],[139.712406,35.665238],[139.713059,35.664841],[139.713632,35.664486],[139.714867,35.663699],[139.715965,35.662999],[139.716298,35.662832],[139.716709,35.662744],[139.716971,35.662712],[139.717102,35.66271],[139.717194,35.662731],[139.717289,35.662774],[139.717463,35.662907],[139.7179,35.663254],[139.718607,35.663848],[139.718794,35.663954],[139.718985,35.664032],[139.719352,35.664133],[139.724444,35.665482],[139.724597,35.665534],[139.724865,35.665633],[139.725125,35.665766],[139.725434,35.665933],[139.725743,35.666144],[139.726048,35.666373],[139.726327,35.66666],[139.726986,35.667313],[139.72729,35.667597],[139.727468,35.66776],[139.727673,35.667884],[139.727837,35.667942],[139.728146,35.668039],[139.730167,35.668687],[139.730276,35.668714],[139.730631,35.66876],[139.731844,35.668882],[139.731956,35.668899],[139.732062,35.668944],[139.732142,35.668993],[139.732281,35.669116],[139.734861,35.670877],[139.73504,35.670975],[139.735116,35.671043],[139.736106,35.671997],[139.736377,35.672245],[139.73645,35.67229],[139.737145,35.672748],[139.737264,35.672812],[139.737671,35.672944],[139.739073,35.673416],[139.739641,35.673498],[139.740185,35.673557],[139.741178,35.673541],[139.741594,35.673537],[139.743139,35.673654],[139.744217,35.673732],[139.745146,35.673875],[139.746129,35.674082],[139.74662,35.674113],[139.746977,35.674117],[139.747452,35.674052],[139.748005,35.67392],[139.748566,35.673742],[139.750311,35.67303],[139.754628,35.671186],[139.75477,35.67113],[139.754945,35.671074],[139.755099,35.671047],[139.755264,35.671037],[139.75544,35.671037],[139.755647,35.671045],[139.755847,35.671081],[139.756018,35.671119],[139.7562,35.671176],[139.756333,35.671235],[139.756467,35.671318],[139.756588,35.67139],[139.756716,35.671484],[139.756844,35.671611],[139.75763,35.672911],[139.757892,35.673228],[139.759312,35.674615],[139.7599,35.675258],[139.760012,35.675473],[139.760483,35.676874],[139.761174,35.678875],[139.762382,35.682457],[139.762728,35.68359],[139.763364,35.685697],[139.763735,35.686932],[139.764326,35.689297],[139.764699,35.69107],[139.765363,35.694347],[139.765363,35.694446],[139.765325,35.694726],[139.765205,35.695359],[139.765092,35.695989],[139.765117,35.696147],[139.765365,35.696698],[139.765973,35.697928],[139.766583,35.699143],[139.767122,35.699944],[139.767953,35.700689],[139.768868,35.701502],[139.769066,35.70176],[139.769251,35.702032],[139.76944,35.702447],[139.769666,35.703126],[139.769783,35.70368],[139.769828,35.704426],[139.770013,35.70724],[139.770013,35.707525],[139.769793,35.709287],[139.76956,35.710232],[139.769432,35.710603],[139.769294,35.710991],[139.769145,35.711414],[139.768784,35.712414],[139.767945,35.714415],[139.767042,35.71576],[139.766358,35.716763],[139.764244,35.718875],[139.76247,35.720665],[139.762289,35.720889],[139.762235,35.720981],[139.762164,35.721187],[139.762139,35.721405],[139.762146,35.7216],[139.762166,35.721719],[139.762237,35.721979],[139.762598,35.723306],[139.763725,35.727093],[139.763741,35.727178],[139.763733,35.727278],[139.763585,35.727994],[139.76348,35.72848],[139.763384,35.728951],[139.763374,35.729279],[139.763414,35.729523],[139.763457,35.729701],[139.763517,35.729871],[139.76357,35.730022],[139.763672,35.730257],[139.763731,35.730354],[139.763864,35.730532],[139.764027,35.730699],[139.764287,35.730959],[139.764453,35.731078],[139.764625,35.73121],[139.764907,35.731374],[139.765203,35.73153],[139.766471,35.732148],[139.767753,35.73282],[139.768916,35.733303],[139.774775,35.735736],[139.775134,35.735946],[139.776614,35.736946],[139.777205,35.737645],[139.778724,35.739955],[139.78165,35.744363],[139.782355,35.744968],[139.783239,35.745394],[139.783758,35.745534],[139.7844,35.745692],[139.785256,35.74578],[139.787258,35.745774],[139.795825,35.746224],[139.796384,35.746296],[139.797095,35.746411],[139.798135,35.746562],[139.801015,35.746722],[139.801982,35.746757],[139.802409,35.746822],[139.802794,35.746953],[139.803079,35.747079],[139.803321,35.74722],[139.803525,35.747396],[139.803733,35.747622],[139.803974,35.747934],[139.804167,35.748333],[139.804402,35.749072],[139.804829,35.750708],[139.805095,35.751557],[139.805417,35.752301],[139.80617,35.753668],[139.806515,35.754297],[139.806788,35.75469],[139.807049,35.755017],[139.807321,35.755349],[139.807575,35.755635],[139.810206,35.758761],[139.810385,35.758932],[139.81072,35.759245],[139.811053,35.759527],[139.811511,35.759875],[139.811886,35.760124],[139.812308,35.760396],[139.812593,35.760549],[139.812827,35.760666],[139.813101,35.760775],[139.813339,35.760862],[139.81361,35.760934],[139.813826,35.760992],[139.814318,35.761063],[139.814774,35.761111],[139.817636,35.761374],[139.818145,35.76142],[139.818703,35.761489],[139.822677,35.76189],[139.823342,35.761985],[139.823605,35.762028],[139.824538,35.762136],[139.826994,35.762404],[139.827848,35.762473],[139.829305,35.762618],[139.82969,35.762685],[139.829893,35.762738],[139.830105,35.762831],[139.830257,35.762908],[139.830406,35.763018],[139.830526,35.763128],[139.830615,35.76321],[139.830689,35.763317],[139.830762,35.763443],[139.830825,35.76359],[139.830863,35.763685],[139.830884,35.763782],[139.830908,35.76391],[139.830908,35.764011],[139.830897,35.764101],[139.83087,35.764234],[139.830826,35.764399],[139.83078,35.764573],[139.83059,35.765245],[139.830571,35.765321],[139.830551,35.76542],[139.830523,35.765619],[139.830474,35.765931],[139.830472,35.766214],[139.830467,35.766748],[139.83039,35.769948],[139.830392,35.77017],[139.830402,35.770433],[139.830415,35.770554],[139.83044,35.770673],[139.830477,35.770823],[139.830549,35.771065],[139.830607,35.771222],[139.83072,35.771502],[139.830969,35.772139],[139.831771,35.774184],[139.831874,35.77447],[139.831953,35.774791],[139.832037,35.775186],[139.832106,35.775853],[139.832131,35.776598],[139.832158,35.777349],[139.832158,35.777349]]}}]}