{"type":"FeatureCollection","features":[{"type":"Feature","properties":{"id":"JR-East.ChuoRapid","ja":"中央線快速","en":"Chuo Line (Rapid)","color":"#F15A22"},"geometry":{"type":"LineString","coordinates":[[139.766045,35.680338],[139.766168,35.68077],[139.766415,35.68147],[139.766582,35.681828],[139.766977,35.682609],[139.767544,35.683643],[139.767797,35.684173],[139.768197,35.6852],[139.76873,35.68657],[139.769326,35.68811],[139.769867,35.689411],[139.770107,35.689976],[139.770391,35.690723],[139.770532,35.691284],[139.770753,35.691845],[139.771202,35.692742],[139.771437,35.693257],[139.771552,35.693678],[139.771603,35.694147],[139.771632,35.694514],[139.77165,35.694977],[139.771599,35.695328],[139.771476,35.695702],[139.771264,35.696105],[139.770954,35.696505],[139.770348,35.697025],[139.769567,35.697559],[139.76873,35.698191],[139.767893,35.698695],[139.767202,35.698921],[139.766151,35.699254],[139.764929,35.699548],[139.763406,35.699979],[139.762959,35.700243],[139.762283,35.700705],[139.76185,35.70098],[139.761563,35.701106],[139.761291,35.701205],[139.760919,35.701308],[139.760595,35.701369],[139.760308,35.701388],[139.759794,35.701385],[139.759214,35.701351],[139.758495,35.701311],[139.75813,35.701311],[139.757569,35.701351],[139.757062,35.701426],[139.756463,35.701559],[139.755838,35.701689],[139.755315,35.701778],[139.754781,35.701835],[139.752047,35.702047],[139.749639,35.70222],[139.747198,35.702428],[139.746752,35.702399],[139.746258,35.702304],[139.74591,35.702202],[139.745566,35.702058],[139.745234,35.701893],[139.744968,35.701709],[139.744741,35.701532],[139.744535,35.701312],[139.744357,35.701112],[139.744244,35.700931],[139.743938,35.70048],[139.743574,35.699971],[139.743129,35.699425],[139.742915,35.699175],[139.742579,35.698778],[139.740674,35.696459],[139.738408,35.693401],[139.738048,35.693018],[139.737729,35.692735],[139.736544,35.691838],[139.736177,35.691588],[139.736061,35.691495],[139.735945,35.691425],[139.735819,35.691358],[139.734182,35.690494],[139.733743,35.69021],[139.733481,35.690054],[139.733287,35.689938],[139.732595,35.689543],[139.73228,35.689316],[139.732022,35.689094],[139.731759,35.688818],[139.731541,35.688535],[139.73107,35.687844],[139.730894,35.687458],[139.730793,35.68715],[139.730616,35.686389],[139.730341,35.685329],[139.730174,35.684865],[139.729931,35.684433],[139.729602,35.684034],[139.729039,35.683512],[139.728173,35.682899],[139.727008,35.682052],[139.726426,35.681633],[139.726187,35.681454],[139.725898,35.681306],[139.724967,35.680878],[139.723718,35.680312],[139.723378,35.68018],[139.72308,35.680094],[139.722817,35.680028],[139.722548,35.679987],[139.72227,35.679954],[139.721936,35.67995],[139.721621,35.679972],[139.721276,35.680013],[139.720937,35.680058],[139.718946,35.680317],[139.716947,35.680574],[139.715222,35.680819],[139.713912,35.681003],[139.712145,35.681251],[139.710137,35.681544],[139.70958,35.681604],[139.709281,35.681616],[139.708998,35.681616],[139.708719,35.681616],[139.708208,35.681587],[139.705807,35.681431],[139.705554,35.68142],[139.705281,35.681432],[139.705043,35.681461],[139.704749,35.681515],[139.704355,35.681622],[139.704066,35.681737],[139.703797,35.681878],[139.703559,35.682005],[139.703346,35.682157],[139.703108,35.682351],[139.702931,35.682552],[139.702784,35.682717],[139.702655,35.682926],[139.702508,35.683205],[139.702417,35.683461],[139.702293,35.683945],[139.702196,35.68435],[139.70212,35.684628],[139.702051,35.6848],[139.70195,35.685045],[139.701862,35.685265],[139.701766,35.685485],[139.701669,35.685722],[139.701461,35.686237],[139.70124,35.686849],[139.701055,35.687585],[139.700841,35.688488],[139.700519,35.689972],[139.700392,35.691359],[139.700277,35.692241],[139.700037,35.693005],[139.699744,35.693982],[139.699685,35.694608],[139.699609,35.695355],[139.699449,35.69602],[139.699342,35.696407],[139.699034,35.697652],[139.698913,35.698195],[139.698695,35.698739],[139.698448,35.699171],[139.69804,35.699899],[139.697808,35.700296],[139.697329,35.701051],[139.697043,35.70144],[139.696682,35.701869],[139.696341,35.702244],[139.695993,35.702573],[139.69564,35.70292],[139.695195,35.703329],[139.694795,35.703656],[139.694396,35.703963],[139.694114,35.704162],[139.693836,35.704348],[139.69345,35.704567],[139.693028,35.704787],[139.692573,35.705],[139.692061,35.705204],[139.691328,35.705442],[139.690468,35.705704],[139.689948,35.705846],[139.688994,35.706057],[139.68785,35.70624],[139.686774,35.706344],[139.686032,35.706367],[139.685473,35.706374],[139.684817,35.70635],[139.68389,35.706321],[139.682498,35.706281],[139.681153,35.706239],[139.67995,35.706201],[139.67865,35.706163],[139.672986,35.705997],[139.672243,35.705992],[139.67112,35.70599],[139.666741,35.70599],[139.664776,35.705934],[139.663282,35.705868],[139.661697,35.705755],[139.660276,35.705673],[139.659532,35.70561],[139.65872,35.705583],[139.652684,35.705419],[139.651785,35.705396],[139.650832,35.705396],[139.649862,35.705379],[139.648327,35.705303],[139.647494,35.705266],[139.647055,35.705252],[139.638302,35.705046],[139.63627,35.704976],[139.635158,35.704906],[139.633931,35.704832],[139.632213,35.704777],[139.624083,35.704554],[139.621495,35.704525],[139.621061,35.704545],[139.619559,35.704525],[139.617937,35.70445],[139.616942,35.704376],[139.615226,35.704313],[139.614549,35.704314],[139.606536,35.70407],[139.601683,35.703923],[139.600638,35.703893],[139.599398,35.703855],[139.597557,35.703813],[139.595185,35.703728],[139.59113,35.703616],[139.587704,35.703511],[139.583435,35.70339],[139.582337,35.703322],[139.58114,35.703236],[139.579576,35.70318],[139.57807,35.703156],[139.576084,35.703147],[139.567822,35.702943],[139.56518,35.702929],[139.563244,35.702871],[139.562655,35.702806],[139.561474,35.702782],[139.558673,35.702715],[139.556823,35.702626],[139.555056,35.702493],[139.554268,35.7024],[139.553206,35.702379],[139.550617,35.702324],[139.541737,35.70207],[139.538193,35.701976],[139.526856,35.701644],[139.524809,35.701572],[139.522615,35.7015],[139.521148,35.701482],[139.520404,35.701454],[139.519477,35.701421],[139.507158,35.701134],[139.501916,35.70092],[139.500148,35.700849],[139.498691,35.700799],[139.491879,35.700586],[139.48435,35.700358],[139.481886,35.700172],[139.481453,35.700139],[139.479567,35.700081],[139.478943,35.700089],[139.477527,35.70015],[139.476002,35.700117],[139.473489,35.70004],[139.468077,35.699882],[139.466648,35.69978],[139.465159,35.699722],[139.463718,35.699696],[139.462682,35.699705],[139.462023,35.699682],[139.459878,35.699526],[139.455845,35.699422],[139.447745,35.699252],[139.445756,35.699213],[139.443995,35.699162],[139.43971,35.699021],[139.438131,35.698981],[139.434559,35.69886],[139.426958,35.698629],[139.425714,35.698555],[139.424329,35.698458],[139.423253,35.698377],[139.421986,35.698275],[139.419421,35.6981],[139.41613,35.697824],[139.415328,35.697685],[139.414601,35.697562],[139.413826,35.69752],[139.412792,35.697566],[139.412422,35.697642],[139.411512,35.697824],[139.410675,35.697955],[139.409812,35.698094],[139.408933,35.698078],[139.407988,35.697993],[139.407364,35.697862],[139.40703,35.697785],[139.406517,35.697654],[139.405938,35.697455],[139.405378,35.69722],[139.404953,35.697015],[139.404464,35.696751],[139.40407,35.696505],[139.403528,35.696119],[139.402916,35.695586],[139.402405,35.695048],[139.402065,35.694625],[139.401827,35.694289],[139.401634,35.693969],[139.401474,35.693665],[139.401246,35.693253],[139.401087,35.692939],[139.400872,35.692544],[139.400436,35.691747],[139.400022,35.690969],[139.399756,35.690462],[139.399349,35.689687],[139.398259,35.687609],[139.39459,35.680819],[139.392931,35.677676],[139.392644,35.67705],[139.392406,35.676216],[139.391893,35.674484],[139.391593,35.673262],[139.390849,35.670443],[139.390322,35.668907],[139.390037,35.667834],[139.389706,35.666957],[139.389216,35.666],[139.388978,35.665566],[139.388817,35.665326],[139.388817,35.665326],[139.388586,35.664992],[139.388275,35.664599],[139.388029,35.664326],[139.387805,35.664065],[139.387596,35.663854],[139.387016,35.663263],[139.386518,35.662838],[139.385886,35.66235],[139.385202,35.661881],[139.383234,35.660642],[139.382081,35.659885],[139.380873,35.65912],[139.379915,35.658534],[139.378978,35.657915],[139.377608,35.657025],[139.376844,35.65649],[139.374199,35.65494],[139.372763,35.654024],[139.371169,35.653015],[139.3706,35.652703],[139.369973,35.652431],[139.369321,35.652217],[139.368637,35.652058],[139.367828,35.651956],[139.367415,35.651936],[139.366708,35.651959],[139.365989,35.652034],[139.365191,35.65214],[139.364626,35.652196],[139.364143,35.652224],[139.363706,35.652205],[139.363307,35.652169],[139.362737,35.652083],[139.362309,35.65197],[139.361791,35.651807],[139.361114,35.65151],[139.359824,35.650874],[139.359327,35.650641],[139.359008,35.650493],[139.358471,35.650301],[139.358048,35.65019],[139.357634,35.650131],[139.357048,35.650074],[139.356543,35.650078],[139.356062,35.650127],[139.355639,35.650207],[139.355286,35.650311],[139.354935,35.650438],[139.354536,35.650614],[139.354192,35.650784],[139.351874,35.651935],[139.351014,35.652361],[139.349417,35.653143],[139.348548,35.653552],[139.348114,35.653732],[139.347714,35.653875],[139.347157,35.654033],[139.346372,35.654178],[139.345545,35.654317],[139.344996,35.654407],[139.344298,35.654525],[139.34371,35.654624],[139.342825,35.654781],[139.341759,35.654984],[139.340203,35.65524],[139.33927,35.655411],[139.338158,35.655606],[139.33742,35.655748],[139.3357,35.656086],[139.333906,35.656425],[139.333469,35.656482],[139.332433,35.656606],[139.329633,35.656944],[139.329046,35.657032],[139.328011,35.657237],[139.326137,35.657692],[139.324461,35.658103],[139.320247,35.659153],[139.319658,35.659271],[139.319277,35.6593],[139.318902,35.659314],[139.318577,35.659297],[139.318275,35.659261],[139.317843,35.659191],[139.317462,35.659089],[139.31716,35.658994],[139.316849,35.658865],[139.316449,35.658682],[139.31605,35.658465],[139.315638,35.65825],[139.315181,35.657999],[139.310312,35.655402],[139.300164,35.649995],[139.293164,35.646259],[139.292714,35.646038],[139.292276,35.645836],[139.291473,35.645511],[139.290928,35.645328],[139.290297,35.645107],[139.285289,35.643335],[139.283019,35.642439],[139.282109,35.642125],[139.281526,35.641919]]}}]}