{"type":"FeatureCollection","features":[{"type":"Feature","properties":{"id":"JR-East.JobanRapid","ja":"常磐線快速","en":"Joban Line (Rapid)","color":"#00B2E5"},"geometry":{"type":"LineString","coordinates":[[139.739021,35.627148],[139.739017,35.62758],[139.738939,35.628532],[139.738921,35.629131],[139.738953,35.629726],[139.739084,35.630247],[139.739676,35.631445],[139.739826,35.632394],[139.74005,35.633273],[139.740582,35.634551],[139.741055,35.635685],[139.741467,35.636672],[139.741901,35.637715],[139.742296,35.638649],[139.742759,35.639805],[139.742981,35.640758],[139.743277,35.641757],[139.743451,35.64232],[139.743614,35.642701],[139.743835,35.643097],[139.744048,35.643375],[139.744266,35.643611],[139.744603,35.643927],[139.745097,35.644275],[139.745612,35.644554],[139.74681,35.645146],[139.748107,35.645758],[139.749486,35.646425],[139.750944,35.647135],[139.752451,35.647849],[139.752854,35.648053],[139.753218,35.648285],[139.753788,35.648692],[139.754377,35.649152],[139.75469,35.649446],[139.755138,35.649949],[139.755415,35.650324],[139.75573,35.650823],[139.75591,35.651148],[139.756196,35.651772],[139.756316,35.652067],[139.756607,35.652955],[139.756939,35.654053],[139.757218,35.654954],[139.757593,35.656337],[139.757828,35.657491],[139.757962,35.658089],[139.758384,35.659836],[139.758598,35.660883],[139.758682,35.661573],[139.758707,35.662188],[139.758703,35.662801],[139.758667,35.663295],[139.758583,35.664006],[139.758499,35.664544],[139.758451,35.66502],[139.758443,35.665671],[139.758309,35.666781],[139.758214,35.667515],[139.758224,35.667861],[139.758262,35.668179],[139.758316,35.668449],[139.758394,35.668669],[139.758539,35.669037],[139.758795,35.669498],[139.759129,35.6701],[139.760405,35.672361],[139.760678,35.67277],[139.761031,35.673166],[139.761483,35.673588],[139.762065,35.674027],[139.762757,35.674508],[139.76332,35.67493],[139.763865,35.675371],[139.7641,35.675579],[139.764528,35.675956],[139.764896,35.67638],[139.765062,35.676643],[139.765374,35.677177],[139.765645,35.677722],[139.765994,35.678324],[139.766491,35.679885],[139.766859,35.680793],[139.767307,35.681996],[139.767411,35.6824],[139.76745,35.682543],[139.76747,35.682596],[139.767492,35.682659],[139.767684,35.683294],[139.768038,35.684091],[139.768449,35.685074],[139.768685,35.685644],[139.768874,35.686166],[139.769382,35.687548],[139.769706,35.688328],[139.770029,35.689117],[139.770229,35.689597],[139.770395,35.690017],[139.770557,35.690406],[139.770767,35.690873],[139.771023,35.691379],[139.771269,35.691881],[139.771445,35.692261],[139.771556,35.692615],[139.771713,35.693109],[139.771821,35.693375],[139.77208,35.693964],[139.772329,35.694575],[139.772506,35.69505],[139.77268,35.695517],[139.772773,35.695789],[139.772847,35.696084],[139.772917,35.696422],[139.773093,35.69723],[139.773217,35.697873],[139.773339,35.698995],[139.773345,35.699796],[139.77339,35.700206],[139.773527,35.701168],[139.773558,35.701449],[139.773661,35.70187],[139.773815,35.702335],[139.774089,35.703127],[139.774171,35.703378],[139.774298,35.704057],[139.774634,35.705995],[139.774745,35.706514],[139.774872,35.707204],[139.775,35.70792],[139.775076,35.708425],[139.77508,35.708777],[139.775045,35.709167],[139.775004,35.709607],[139.774922,35.710079],[139.774888,35.710382],[139.774929,35.710857],[139.775008,35.711174],[139.775187,35.711564],[139.775662,35.712227],[139.776104,35.712814],[139.776735,35.713683],[139.777365,35.714601],[139.7777,35.715049],[139.778263,35.715797],[139.778878,35.716455],[139.779222,35.716802],[139.77953,35.717168],[139.779842,35.717619],[139.780014,35.717912],[139.78014,35.718264],[139.780223,35.718829],[139.780202,35.719195],[139.78008,35.719642],[139.779945,35.719966],[139.779759,35.720292],[139.779551,35.720587],[139.779231,35.720937],[139.778726,35.721466],[139.778304,35.721883],[139.777497,35.722489],[139.776842,35.723012],[139.776206,35.723617],[139.775304,35.724442],[139.774482,35.725205],[139.773964,35.725691],[139.773466,35.72608],[139.772898,35.726503],[139.77196,35.72734],[139.77092,35.72822],[139.77069,35.7284],[139.77017,35.72886],[139.7697,35.72936],[139.76927,35.7299],[139.76908,35.73026],[139.76904,35.73049],[139.76907,35.73066],[139.76923,35.73113],[139.76937,35.7315],[139.76949,35.73173],[139.76956,35.73186],[139.76961,35.73193],[139.76996,35.73233],[139.77035,35.73267],[139.77054,35.73282],[139.77094,35.73306],[139.77151,35.73334],[139.77184,35.73347],[139.7726,35.73365],[139.77345,35.73379],[139.77366,35.73382],[139.77475,35.73369],[139.77598,35.73354],[139.77771,35.73329],[139.77817,35.73323],[139.77839,35.7332],[139.77886,35.73314],[139.77895,35.73313],[139.77958,35.73303],[139.77991,35.73299],[139.78044,35.73292],[139.78065,35.73289],[139.78125,35.73281],[139.78154,35.73277],[139.78233,35.73266],[139.78266,35.73261],[139.78386,35.73245],[139.78416,35.73241],[139.78491,35.73232],[139.7852,35.73228],[139.7866,35.7321],[139.78665,35.73209],[139.78684,35.73207],[139.78711,35.73203],[139.78841,35.73184],[139.78867,35.73181],[139.78893,35.73178],[139.78971,35.73168],[139.79122,35.73146],[139.79136,35.73144],[139.79152,35.73142],[139.79168,35.7314],[139.79203,35.73136],[139.7925,35.7313],[139.79269,35.73128],[139.79496,35.73098],[139.7953,35.73095],[139.79558,35.73096],[139.79612,35.73102],[139.7965,35.73112],[139.79689,35.7313],[139.79712,35.73142],[139.79748,35.73165],[139.79794,35.73202],[139.79822,35.73228],[139.79831,35.73237],[139.79848,35.73256],[139.79865,35.73278],[139.7989,35.73314],[139.79925,35.73366],[139.79964,35.73431],[139.80002,35.73499],[139.80032,35.73563],[139.80038,35.73579],[139.80051,35.73609],[139.80066,35.73649],[139.80103,35.7376],[139.80127,35.73838],[139.80134,35.73862],[139.8015,35.73917],[139.80165,35.7396],[139.8021,35.74108],[139.8022,35.74138],[139.80247,35.7423],[139.80258,35.74284],[139.80267,35.74313],[139.80278,35.74348],[139.80281,35.74356],[139.80303,35.74429],[139.80312,35.74455],[139.80362,35.74616],[139.80382,35.74668],[139.80388,35.74684],[139.80449,35.74835],[139.80479,35.74934],[139.80541,35.75124],[139.80562,35.75188],[139.80586,35.75253],[139.8061,35.75298],[139.806103,35.753294],[139.806337,35.753764],[139.806702,35.754346],[139.807168,35.754935],[139.807557,35.755397],[139.808436,35.756452],[139.809561,35.75782],[139.810485,35.758864],[139.811014,35.759323],[139.811433,35.759669],[139.811685,35.759861],[139.811938,35.760033],[139.812209,35.760195],[139.812607,35.760416],[139.813022,35.760579],[139.81327,35.760671],[139.813554,35.760758],[139.813858,35.760849],[139.814335,35.760936],[139.815397,35.761069],[139.815739,35.761082],[139.818192,35.761344],[139.820665,35.761598],[139.822728,35.761807],[139.823707,35.761913],[139.831816,35.76276],[139.839047,35.763526],[139.840743,35.763718],[139.841693,35.763883],[139.84234,35.764038],[139.84291,35.764202],[139.843434,35.764397],[139.843936,35.764605],[139.844426,35.764841],[139.845014,35.765159],[139.846031,35.765723],[139.846656,35.766055],[139.847259,35.76632],[139.848635,35.766887],[139.849421,35.767116],[139.850084,35.767265],[139.850438,35.767322],[139.851118,35.767391],[139.851792,35.767461],[139.859752,35.768175],[139.862933,35.768365],[139.865651,35.76868],[139.866816,35.768863],[139.868138,35.769096],[139.869705,35.769248],[139.873044,35.769561],[139.874079,35.769552],[139.875758,35.769493],[139.876709,35.769412],[139.882996,35.768711],[139.883605,35.76868],[139.884341,35.768686],[139.884897,35.768714],[139.885492,35.768776],[139.885884,35.768824],[139.886412,35.768883],[139.887506,35.769149],[139.888166,35.769319],[139.889544,35.769769],[139.89123,35.770225],[139.892289,35.770542],[139.893191,35.770928],[139.894123,35.771465],[139.894629,35.771806],[139.895092,35.772187],[139.895463,35.772543],[139.895803,35.772873],[139.89605,35.773204],[139.896506,35.773811],[139.896797,35.774317],[139.897142,35.77496],[139.897395,35.775661],[139.899678,35.781943],[139.899781,35.782293],[139.900035,35.783186],[139.900226,35.783855],[139.900505,35.784576],[139.900787,35.785372],[139.901144,35.78626],[139.901512,35.787176],[139.901866,35.788035],[139.902252,35.788824],[139.902869,35.789951],[139.903853,35.791745],[139.904521,35.792767],[139.904921,35.793293],[139.905316,35.793783],[139.907341,35.796025],[139.9079,35.796621],[139.911108,35.800121],[139.91223,35.801417],[139.912583,35.801835],[139.913,35.802359],[139.913498,35.803036],[139.914052,35.803914],[139.914912,35.805154],[139.915152,35.805573],[139.915355,35.805927],[139.915589,35.80645],[139.915779,35.806931],[139.915916,35.807421],[139.916473,35.809435],[139.916833,35.810809],[139.917126,35.811702],[139.917535,35.813245],[139.917961,35.81484],[139.918479,35.81665],[139.919066,35.818717],[139.919888,35.821286],[139.920009,35.821718],[139.920421,35.823209],[139.920529,35.823675],[139.920716,35.824458],[139.920906,35.82519],[139.920984,35.825428],[139.921096,35.825698],[139.921202,35.825954],[139.921324,35.82619],[139.921443,35.826432],[139.921639,35.826761],[139.921807,35.827028],[139.921996,35.8273],[139.922182,35.82755],[139.922447,35.827922],[139.922689,35.828234],[139.923038,35.828658],[139.923287,35.828922],[139.923687,35.829326],[139.924034,35.829647],[139.9245,35.830092],[139.925207,35.830598],[139.925942,35.830998],[139.926513,35.831294],[139.927805,35.831923],[139.929891,35.832953],[139.932234,35.834059],[139.934959,35.835372],[139.937134,35.836449],[139.939022,35.8374],[139.940542,35.838135],[139.952785,35.844057],[139.95388,35.844594],[139.955112,35.845225],[139.955975,35.845751],[139.95807,35.847208],[139.959432,35.848303],[139.960806,35.849582],[139.961257,35.850035],[139.961968,35.850826],[139.962894,35.851971],[139.965656,35.85545],[139.967059,35.857246],[139.968399,35.858935],[139.969725,35.860699],[139.970655,35.861887],[139.97193,35.863497],[139.972937,35.86474],[139.97469,35.866947],[139.975906,35.868486],[139.976768,35.869573],[139.977143,35.869989],[139.977485,35.870373],[139.977902,35.87076],[139.978204,35.871037],[139.978635,35.871388],[139.978968,35.871652],[139.979341,35.871912],[139.979697,35.872166],[139.980035,35.872393],[139.980472,35.872682],[139.983416,35.874738],[139.984011,35.875064],[139.984618,35.875326],[139.985225,35.875529],[139.985837,35.87568],[139.986719,35.875808],[139.987252,35.875835],[139.987728,35.875831],[139.98825,35.875785],[139.98877,35.875711],[139.989558,35.875564],[139.991476,35.875128],[139.994308,35.874457],[139.998728,35.873393],[140.001524,35.872694],[140.002303,35.872507],[140.003052,35.8724],[140.00325,35.87238],[140.003924,35.872317],[140.005014,35.872351],[140.006166,35.872458],[140.008524,35.872608],[140.009864,35.872691],[140.013751,35.872913],[140.016394,35.872968],[140.019097,35.873098],[140.020546,35.873217],[140.0219,35.873273],[140.023106,35.873263],[140.024223,35.873206],[140.026504,35.873126],[140.028392,35.873061],[140.037655,35.872708],[140.039142,35.872724],[140.042693,35.872574],[140.043954,35.87254],[140.044647,35.872577],[140.045261,35.872657],[140.045762,35.872764],[140.04632,35.872923],[140.046882,35.873126],[140.047377,35.873335],[140.047858,35.873624],[140.048257,35.873869],[140.048639,35.874185],[140.048956,35.874447],[140.049288,35.874811],[140.049588,35.875173],[140.049911,35.875666],[140.050224,35.876122],[140.050825,35.877087],[140.051733,35.878488],[140.052939,35.880256],[140.053946,35.881736],[140.05487,35.883357],[140.055729,35.884702],[140.056578,35.886015],[140.057882,35.887978],[140.060313,35.891729],[140.061894,35.89406],[140.062825,35.895376],[140.064045,35.897065],[140.064092,35.897133]]}}]}