{"type":"FeatureCollection","features":[{"type":"Feature","properties":{"id":"JR-East.JobanLocal","ja":"常磐線各駅停車","en":"Joban Line (Local)","color":"#00BB85"},"geometry":{"type":"LineString","coordinates":[[139.823737,35.761964],[139.827653,35.762361],[139.829847,35.762612],[139.831257,35.762778],[139.832587,35.762919],[139.840636,35.763778],[139.841109,35.763854],[139.84178,35.764001],[139.842098,35.764068],[139.842589,35.764197],[139.843136,35.764381],[139.843804,35.764626],[139.84433,35.764887],[139.844637,35.765037],[139.845342,35.765434],[139.84594,35.765776],[139.847007,35.766343],[139.848052,35.766751],[139.848785,35.767027],[139.849376,35.767181],[139.849936,35.76731],[139.850425,35.76739],[139.851083,35.767458],[139.851616,35.767509],[139.855914,35.767901],[139.856609,35.767976],[139.857853,35.768128],[139.859724,35.768295],[139.861605,35.768426],[139.86233,35.76848],[139.863453,35.768601],[139.864395,35.768695],[139.865335,35.768841],[139.866705,35.769085],[139.868059,35.769311],[139.869543,35.769476],[139.872454,35.769725],[139.873768,35.769735],[139.874928,35.769657],[139.877005,35.769517],[139.883677,35.768814],[139.884041,35.768806],[139.884727,35.768833],[139.885344,35.768889],[139.885813,35.768971],[139.886907,35.769207],[139.888564,35.769534],[139.88957,35.769672],[139.890016,35.769732],[139.890568,35.76984],[139.891155,35.769997],[139.891608,35.770155],[139.892226,35.770383],[139.893147,35.770769],[139.893575,35.770989],[139.894106,35.771304],[139.894622,35.771659],[139.894791,35.771776],[139.8953,35.772208],[139.895729,35.772632],[139.896014,35.772958],[139.896372,35.773424],[139.896684,35.773889],[139.896903,35.774299],[139.897171,35.774783],[139.897337,35.775202],[139.897691,35.776186],[139.898191,35.777564],[139.899797,35.781955],[139.900107,35.782875],[139.900402,35.783845],[139.900815,35.785001],[139.901445,35.786776],[139.901549,35.787029],[139.901923,35.787894],[139.90239,35.788882],[139.902889,35.789797],[139.903706,35.791295],[139.903994,35.791779],[139.904469,35.79253],[139.904843,35.793045],[139.90524,35.793535],[139.905684,35.794064],[139.905947,35.794359],[139.910253,35.799072],[139.911214,35.800041],[139.912417,35.801383],[139.913117,35.802256],[139.913494,35.80272],[139.913883,35.803305],[139.914435,35.804149],[139.915176,35.805265],[139.915408,35.805658],[139.915626,35.806109],[139.915866,35.806676],[139.915987,35.807012],[139.91612,35.807511],[139.916213,35.807864],[139.917569,35.812663],[139.917832,35.813714],[139.918157,35.814899],[139.918553,35.816327],[139.920074,35.821602],[139.920405,35.822792],[139.920756,35.824084],[139.921065,35.825176],[139.92127,35.82574],[139.921498,35.826251],[139.921841,35.826865],[139.922078,35.827217],[139.922528,35.827855],[139.92296,35.828393],[139.923281,35.828759],[139.923593,35.829087],[139.923969,35.829452],[139.92429,35.829722],[139.924774,35.830117],[139.925152,35.830402],[139.925511,35.830634],[139.925817,35.830824],[139.926318,35.831094],[139.926665,35.831265],[139.927859,35.831843],[139.930382,35.833045],[139.932645,35.834157],[139.933061,35.834364],[139.934068,35.83486],[139.935591,35.83559],[139.937667,35.836633],[139.940452,35.838009],[139.941499,35.838499],[139.94284,35.839142],[139.945204,35.840299],[139.946912,35.841128],[139.949732,35.842489],[139.953978,35.844506],[139.955084,35.845093],[139.955692,35.84547],[139.956385,35.845931],[139.957666,35.846825],[139.958417,35.847367],[139.958943,35.847794],[139.959574,35.848308],[139.960104,35.848789],[139.960791,35.849443],[139.961393,35.850068],[139.961968,35.850693],[139.962686,35.851572],[139.963365,35.852418],[139.963976,35.853206],[139.968068,35.858393],[139.968524,35.858954],[139.969817,35.860622],[139.971066,35.862207],[139.972161,35.863585],[139.973006,35.864693],[139.973781,35.865665],[139.974938,35.867093],[139.975799,35.868186],[139.97667,35.869306],[139.977079,35.869806],[139.977389,35.870149],[139.977632,35.870395],[139.977967,35.870729],[139.97824,35.870969],[139.978441,35.871144],[139.978777,35.871406],[139.979088,35.871641],[139.979372,35.871848],[139.979764,35.872121],[139.980058,35.872321],[139.981049,35.872984],[139.983113,35.874391],[139.983585,35.874682],[139.983956,35.874885],[139.984508,35.875138],[139.985107,35.875346],[139.985956,35.875563],[139.986622,35.875656],[139.987294,35.875683],[139.988152,35.875656],[139.988881,35.875577],[139.989656,35.87542],[139.99142,35.875021],[140.001715,35.87255],[140.002291,35.872435],[140.003058,35.872316],[140.003716,35.872255],[140.004223,35.872251],[140.00489,35.872255],[140.005439,35.87229],[140.006932,35.872374],[140.008874,35.872508],[140.011714,35.872692],[140.015053,35.872855],[140.016203,35.872878],[140.018217,35.872946],[140.019618,35.873036],[140.022,35.873218],[140.023237,35.873216],[140.024308,35.873163],[140.038071,35.872649],[140.039894,35.872559],[140.042614,35.87247],[140.043566,35.87246],[140.044302,35.87246],[140.044907,35.87252],[140.045585,35.872631],[140.046182,35.872796],[140.046558,35.872906],[140.046909,35.873037],[140.047281,35.873211],[140.047761,35.873467],[140.048219,35.873755],[140.048546,35.873993],[140.04888,35.874283],[140.049107,35.874497],[140.049376,35.874776],[140.049533,35.874983],[140.049715,35.875234],[140.049941,35.875538],[140.050185,35.875923],[140.056021,35.884617],[140.061059,35.892293],[140.061839,35.893714],[140.062605,35.89474],[140.063732,35.896326]]}}]}