{"type":"FeatureCollection","features":[{"type":"Feature","properties":{"id":"JR-East.Ome","ja":"青梅線","en":"Ome Line","color":"#F15A22"},"geometry":{"type":"LineString","coordinates":[[139.414915,35.698142],[139.412254,35.69814],[139.411283,35.698179],[139.410833,35.698234],[139.410554,35.698294],[139.410322,35.698359],[139.396274,35.702721],[139.395234,35.703023],[139.393721,35.703492],[139.391756,35.704098],[139.391098,35.704316],[139.390766,35.704426],[139.390006,35.704663],[139.381758,35.70719],[139.364573,35.712458],[139.351449,35.716463],[139.347514,35.717665],[139.347065,35.717806],[139.346619,35.717978],[139.346291,35.718133],[139.346011,35.718295],[139.345469,35.718693],[139.345159,35.718988],[139.344956,35.719208],[139.344548,35.719837],[139.34433,35.720221],[139.343786,35.720973],[139.343036,35.721992],[139.342728,35.722307],[139.342338,35.722797],[139.341526,35.723882],[139.34052,35.725206],[139.339282,35.726881],[139.334568,35.733245],[139.33403,35.734031],[139.333345,35.734916],[139.33279,35.735651],[139.30667,35.770892],[139.30505,35.773054],[139.304279,35.774105],[139.303984,35.774461],[139.303694,35.774768],[139.303341,35.77511],[139.302889,35.775525],[139.302569,35.775809],[139.302223,35.776087],[139.30158,35.77657],[139.30103,35.776936],[139.300659,35.777171],[139.300295,35.77738],[139.299666,35.777679],[139.299241,35.77788],[139.271121,35.790579],[139.270678,35.790778],[139.2704,35.790884],[139.270041,35.790982],[139.269669,35.791042],[139.269367,35.791068],[139.269004,35.79107],[139.268752,35.791052],[139.268503,35.791019],[139.26824,35.790964],[139.26795,35.790896],[139.264249,35.789934],[139.263996,35.789876],[139.263754,35.78983],[139.263505,35.789793],[139.263231,35.789776],[139.263023,35.789771],[139.262812,35.789783],[139.262673,35.789796],[139.262488,35.789822],[139.26227,35.789867],[139.261992,35.789929],[139.261823,35.789975],[139.261236,35.790175],[139.260723,35.790305],[139.260476,35.790357],[139.259994,35.790391],[139.25962,35.790382],[139.259031,35.790403],[139.257682,35.790486],[139.256751,35.790586],[139.256242,35.790637],[139.255736,35.790667],[139.252831,35.790842],[139.252739,35.790845],[139.251817,35.790951],[139.247668,35.791643],[139.247341,35.791677],[139.246975,35.791701],[139.246747,35.791708],[139.246361,35.791699],[139.245975,35.791677],[139.245619,35.79164],[139.245161,35.791562],[139.244722,35.791469],[139.244484,35.791408],[139.244223,35.791331],[139.243694,35.791141],[139.24334,35.79099],[139.238929,35.788621],[139.238713,35.788506],[139.237182,35.78762],[139.236626,35.787316],[139.235853,35.786984],[139.23536,35.786727],[139.235144,35.786603],[139.234882,35.78648],[139.234603,35.786381],[139.234209,35.786272],[139.233847,35.786219],[139.233526,35.786197],[139.233159,35.786206],[139.232706,35.786266],[139.232382,35.786348],[139.232139,35.786425],[139.231899,35.786517],[139.231677,35.786624],[139.231297,35.786859],[139.230698,35.78739],[139.23004,35.787941],[139.229863,35.788118],[139.229663,35.788337],[139.2295,35.788551],[139.229214,35.789028],[139.229142,35.789176],[139.229022,35.789509],[139.228983,35.789658],[139.228656,35.791607],[139.228625,35.791754],[139.228588,35.791869],[139.228524,35.79203],[139.22842,35.792238],[139.22833,35.792388],[139.228198,35.792578],[139.227715,35.79326],[139.22733,35.793776],[139.227129,35.794005],[139.226732,35.794383],[139.22648,35.794664],[139.226399,35.794796],[139.226106,35.795303],[139.225834,35.795785],[139.225563,35.7962],[139.225296,35.796547],[139.224666,35.797315],[139.224418,35.797569],[139.224118,35.797834],[139.223711,35.798147],[139.218168,35.802351],[139.216482,35.803717],[139.215459,35.804623],[139.214854,35.80528],[139.214249,35.805929],[139.213357,35.806995],[139.213158,35.807197],[139.21302,35.807304],[139.212772,35.807468],[139.212256,35.807763],[139.21171,35.808065],[139.211341,35.808221],[139.211039,35.808299],[139.210809,35.808339],[139.210567,35.808344],[139.210353,35.808336],[139.210083,35.808306],[139.209281,35.808167],[139.208605,35.808045],[139.208146,35.807925],[139.207799,35.807761],[139.207566,35.807589],[139.207374,35.807426],[139.206614,35.806752],[139.206441,35.80663],[139.206164,35.806469],[139.205934,35.806365],[139.205721,35.806292],[139.205581,35.806248],[139.205359,35.8062],[139.203851,35.805959],[139.203528,35.805887],[139.203266,35.805813],[139.203017,35.805734],[139.202706,35.805618],[139.202456,35.805532],[139.202258,35.805475],[139.201972,35.805414],[139.201674,35.805374],[139.201421,35.805354],[139.201063,35.805342],[139.198879,35.805298],[139.197341,35.805231],[139.19697,35.805233],[139.196609,35.805256],[139.196331,35.80528],[139.19612,35.805307],[139.195807,35.805364],[139.194387,35.805717],[139.193543,35.805934],[139.191693,35.806408],[139.190614,35.806679],[139.190167,35.806759],[139.189701,35.806793],[139.189343,35.806794],[139.189013,35.806766],[139.1885,35.806678],[139.188336,35.806637],[139.187919,35.806499],[139.186626,35.805923],[139.18639,35.805803],[139.186252,35.805722],[139.186065,35.805586],[139.185895,35.805441],[139.185781,35.805324],[139.185637,35.805152],[139.185554,35.805036],[139.185411,35.80478],[139.185331,35.804565],[139.18478,35.802824],[139.184707,35.80265],[139.184629,35.802494],[139.184576,35.80242],[139.184471,35.80228],[139.184334,35.802135],[139.184247,35.80205],[139.184038,35.801892],[139.183909,35.801817],[139.183706,35.801726],[139.183533,35.801672],[139.183288,35.801605],[139.182824,35.801531],[139.181717,35.801428],[139.181229,35.801381],[139.180393,35.80133],[139.179507,35.801243],[139.17926,35.801222],[139.178962,35.801214],[139.178653,35.801255],[139.178423,35.801314],[139.178188,35.801393],[139.177912,35.801511],[139.177675,35.801663],[139.177457,35.801837],[139.177294,35.801992],[139.177163,35.802163],[139.177041,35.802393],[139.176968,35.802642],[139.176913,35.802856],[139.176894,35.803019],[139.176922,35.803271],[139.17697,35.803481],[139.177705,35.805759],[139.177738,35.806043],[139.177724,35.806395],[139.177669,35.806806],[139.177561,35.807151],[139.177428,35.807375],[139.177257,35.807588],[139.177041,35.807805],[139.176824,35.807958],[139.176547,35.808106],[139.176317,35.808207],[139.176059,35.808271],[139.175833,35.808304],[139.175478,35.808345],[139.175216,35.808349],[139.174925,35.808323],[139.174709,35.808278],[139.174526,35.808233],[139.174339,35.808167],[139.174168,35.808087],[139.17399,35.807992],[139.173717,35.80784],[139.173169,35.807522],[139.17306,35.807468],[139.172789,35.807364],[139.172605,35.807305],[139.172341,35.807264],[139.172023,35.807226],[139.171716,35.80723],[139.171407,35.80727],[139.171135,35.807337],[139.170893,35.807411],[139.17061,35.807539],[139.170368,35.807698],[139.170152,35.807885],[139.169978,35.808057],[139.169904,35.80815],[139.169795,35.808369],[139.169669,35.808625],[139.168887,35.810238],[139.168708,35.810557],[139.168522,35.810801],[139.168323,35.811005],[139.168103,35.811202],[139.167629,35.811564],[139.16531,35.813332],[139.16501,35.81349],[139.164672,35.813606],[139.164393,35.813672],[139.164124,35.813703],[139.163916,35.813709],[139.163702,35.813697],[139.163494,35.813665],[139.163285,35.813627],[139.163002,35.813542],[139.162768,35.813436],[139.162582,35.813326],[139.162376,35.813164],[139.162255,35.813061],[139.162142,35.812939],[139.162006,35.812749],[139.161869,35.812526],[139.161405,35.811724],[139.161312,35.811591],[139.16115,35.811418],[139.161009,35.811294],[139.160862,35.81119],[139.160748,35.811116],[139.160481,35.81095],[139.160261,35.810856],[139.159977,35.810749],[139.159651,35.810663],[139.159332,35.810618],[139.159044,35.8106],[139.158783,35.810607],[139.158399,35.810677],[139.158082,35.810769],[139.15774,35.810884],[139.157499,35.811025],[139.156733,35.811469],[139.156449,35.811673],[139.156354,35.811747],[139.156234,35.811863],[139.156102,35.812025],[139.155969,35.812229],[139.155887,35.812374],[139.155805,35.81261],[139.155743,35.812816],[139.15572,35.812949],[139.155711,35.81309],[139.155704,35.813751],[139.155698,35.813897],[139.155662,35.814047],[139.155571,35.814322],[139.155531,35.814407],[139.155235,35.814925],[139.154951,35.815386],[139.154817,35.815552],[139.154676,35.815696],[139.154467,35.815853],[139.154333,35.815941],[139.154166,35.81604],[139.153947,35.816128],[139.153701,35.816203],[139.153372,35.816262],[139.152996,35.816314],[139.152617,35.816347],[139.152025,35.816344],[139.151206,35.816284],[139.14942,35.816154],[139.149044,35.816106],[139.148787,35.816039],[139.148609,35.81597],[139.148351,35.815847],[139.14818,35.81573],[139.147986,35.815603],[139.147566,35.815313],[139.147268,35.815159],[139.146874,35.815036],[139.146598,35.814994],[139.146291,35.814994],[139.145996,35.815004],[139.145777,35.815039],[139.145517,35.815107],[139.145262,35.815194],[139.144962,35.81534],[139.144452,35.815618],[139.144197,35.815757],[139.143893,35.815899],[139.143626,35.816013],[139.143303,35.816093],[139.143006,35.816133],[139.142225,35.816124],[139.139251,35.816021],[139.138841,35.815999],[139.138358,35.815879],[139.138049,35.815758],[139.137794,35.815639],[139.137419,35.815474],[139.137124,35.815335],[139.136902,35.815258],[139.136631,35.815173],[139.136346,35.815122],[139.136017,35.815088],[139.135711,35.815072],[139.135422,35.815081],[139.135107,35.815092],[139.134832,35.815129],[139.134514,35.815169],[139.134214,35.815204],[139.13396,35.81524],[139.133364,35.815331],[139.132936,35.815429],[139.13267,35.815503],[139.131459,35.815824],[139.131137,35.815883],[139.130909,35.815889],[139.130511,35.815837],[139.130274,35.815786],[139.130017,35.815716],[139.129767,35.81562],[139.129532,35.815516],[139.129146,35.815335],[139.128003,35.814803],[139.127077,35.814385],[139.126363,35.814069],[139.124913,35.81338],[139.123707,35.812838],[139.123387,35.812708],[139.122894,35.812592],[139.122483,35.812552],[139.12208,35.812545],[139.121793,35.812592],[139.12137,35.812675],[139.120778,35.812835],[139.1203,35.812958],[139.11996,35.813008],[139.119647,35.813024],[139.119226,35.813004],[139.118654,35.812951],[139.117785,35.812842],[139.116436,35.812688],[139.116115,35.812627],[139.115788,35.812531],[139.115443,35.812356],[139.115188,35.812222],[139.114975,35.812076],[139.114762,35.811911],[139.114578,35.811746],[139.114298,35.811424],[139.113986,35.811008],[139.11374,35.81077],[139.113418,35.810544],[139.113151,35.810387],[139.112884,35.810293],[139.112734,35.810233],[139.112446,35.810166],[139.112053,35.810115],[139.09972,35.808421],[139.099205,35.808437],[139.098729,35.80852],[139.09824,35.808659],[139.097846,35.808834],[139.09735,35.809027],[139.09701,35.809188],[139.096809,35.809351],[139.096588,35.809607],[139.096448,35.809896]]}}]}