{"type":"FeatureCollection","features":[{"type":"Feature","properties":{"id":"JR-East.SaikyoKawagoe","ja":"埼京・川越線","en":"Saikyo / Kawagoe Line","color":"#00B48D"},"geometry":{"type":"LineString","coordinates":[[139.729162,35.618107],[139.728975,35.618319],[139.728758,35.61862],[139.728481,35.618994],[139.727861,35.619886],[139.727715,35.62009],[139.727491,35.620464],[139.727299,35.620836],[139.727099,35.621225],[139.726912,35.621511],[139.726673,35.621883],[139.726433,35.622255],[139.726199,35.622589],[139.725813,35.623126],[139.725093,35.624113],[139.724773,35.62453],[139.724512,35.624819],[139.724218,35.625139],[139.724076,35.625332],[139.723686,35.62586],[139.723219,35.626485],[139.722973,35.626763],[139.722625,35.627111],[139.722308,35.62738],[139.722015,35.627602],[139.721718,35.627804],[139.721372,35.628013],[139.721019,35.628203],[139.720718,35.628347],[139.720034,35.628649],[139.719298,35.628984],[139.718528,35.629321],[139.718341,35.629406],[139.718123,35.629518],[139.717827,35.629689],[139.717579,35.629863],[139.71736,35.630033],[139.717142,35.630229],[139.716949,35.630428],[139.716783,35.630624],[139.716627,35.630826],[139.716435,35.631153],[139.716261,35.631516],[139.716141,35.63186],[139.715595,35.633925],[139.715351,35.634824],[139.714804,35.636863],[139.714403,35.638282],[139.714182,35.639075],[139.714115,35.639335],[139.714051,35.639504],[139.713971,35.63968],[139.7138,35.640017],[139.713576,35.640442],[139.713302,35.640943],[139.713043,35.64142],[139.712766,35.641931],[139.712419,35.642565],[139.712092,35.643174],[139.711839,35.643632],[139.711435,35.644364],[139.710506,35.645983],[139.709647,35.647526],[139.709318,35.648193],[139.709021,35.648755],[139.708611,35.649507],[139.708202,35.650243],[139.707829,35.650871],[139.707662,35.651103],[139.707362,35.651467],[139.706934,35.651969],[139.705614,35.6535],[139.704866,35.654223],[139.704285,35.654795],[139.703629,35.655545],[139.702693,35.656644],[139.702329,35.65711],[139.702143,35.657417],[139.701841,35.657968],[139.701533,35.658574],[139.70142,35.658901],[139.701356,35.659183],[139.701301,35.659601],[139.701292,35.660056],[139.70136,35.66106],[139.701471,35.662637],[139.701526,35.663117],[139.701867,35.665625],[139.702378,35.669232],[139.702417,35.669584],[139.702472,35.670016],[139.702528,35.670301],[139.702602,35.670691],[139.702724,35.671219],[139.702904,35.671981],[139.703045,35.672409],[139.703236,35.672972],[139.703556,35.673904],[139.703922,35.674946],[139.703996,35.67521],[139.704053,35.675528],[139.704058,35.675813],[139.70404,35.676236],[139.704005,35.676953],[139.703941,35.677732],[139.703821,35.678527],[139.703597,35.679475],[139.703144,35.681349],[139.702851,35.682545],[139.702579,35.683652],[139.702325,35.684709],[139.701961,35.685938],[139.701603,35.687375],[139.701313,35.688683],[139.70098,35.690021],[139.700687,35.691434],[139.700389,35.692362],[139.700049,35.693402],[139.69989,35.694177],[139.699837,35.694857],[139.699793,35.695882],[139.699886,35.696748],[139.699993,35.697741],[139.70012,35.699023],[139.700218,35.700073],[139.700499,35.702993],[139.70058,35.703514],[139.700695,35.704006],[139.700798,35.704372],[139.702675,35.709722],[139.703687,35.71257],[139.704133,35.713835],[139.704631,35.715332],[139.704834,35.715922],[139.704996,35.716383],[139.705356,35.717629],[139.705926,35.719362],[139.706404,35.720744],[139.70679,35.721732],[139.707048,35.722209],[139.707617,35.723324],[139.708396,35.724813],[139.709054,35.726063],[139.70937,35.726586],[139.709865,35.727539],[139.710202,35.728237],[139.71053,35.728964],[139.710982,35.72988],[139.711675,35.731219],[139.712017,35.731863],[139.712597,35.73276],[139.713101,35.733429],[139.713624,35.734613],[139.713917,35.735234],[139.714358,35.736087],[139.715116,35.737519],[139.71583,35.738881],[139.717274,35.741626],[139.718087,35.743154],[139.718529,35.743941],[139.7198,35.745872],[139.720581,35.747102],[139.721057,35.747802],[139.721193,35.748029],[139.721404,35.748431],[139.72159,35.748865],[139.721742,35.749314],[139.721845,35.749683],[139.722073,35.750846],[139.722291,35.752021],[139.722328,35.752398],[139.722346,35.752889],[139.722328,35.753816],[139.722326,35.754816],[139.722293,35.765467],[139.722282,35.766103],[139.722181,35.768865],[139.722063,35.771927],[139.722043,35.772758],[139.722005,35.77344],[139.721952,35.774102],[139.721882,35.775045],[139.721816,35.775438],[139.72173,35.775791],[139.721534,35.77632],[139.721416,35.776606],[139.719994,35.778741],[139.719554,35.779454],[139.718742,35.780859],[139.718411,35.781349],[139.717943,35.782004],[139.717532,35.782449],[139.717106,35.782874],[139.716565,35.783292],[139.716157,35.783595],[139.715667,35.783862],[139.715134,35.784143],[139.71452,35.784374],[139.71371,35.784619],[139.712724,35.784884],[139.711413,35.785193],[139.710838,35.785304],[139.708676,35.785749],[139.708295,35.785843],[139.707831,35.78598],[139.707344,35.78616],[139.706415,35.786585],[139.705652,35.787031],[139.70508,35.787422],[139.703877,35.788304],[139.703255,35.788761],[139.702726,35.789119],[139.702386,35.789322],[139.702061,35.789485],[139.701802,35.789594],[139.701049,35.78984],[139.700488,35.790003],[139.700205,35.790068],[139.699702,35.790135],[139.69812,35.790344],[139.697294,35.790443],[139.69631,35.790594],[139.695416,35.790697],[139.693838,35.790868],[139.692356,35.79107],[139.691687,35.791174],[139.691193,35.791274],[139.690774,35.791395],[139.69038,35.791539],[139.68956,35.791964],[139.688896,35.792347],[139.688461,35.792668],[139.68794,35.793136],[139.687588,35.79353],[139.687296,35.79396],[139.687101,35.794295],[139.686924,35.794674],[139.686728,35.795217],[139.686247,35.79674],[139.685956,35.797785],[139.685803,35.798343],[139.685074,35.800742],[139.684891,35.801192],[139.684705,35.801534],[139.684453,35.801965],[139.68413,35.802441],[139.6836,35.803062],[139.683143,35.803521],[139.682168,35.804363],[139.678403,35.807738],[139.676525,35.809325],[139.67319,35.812104],[139.672668,35.812609],[139.672335,35.812997],[139.672044,35.813361],[139.671838,35.813686],[139.669988,35.816937],[139.668881,35.818866],[139.668256,35.81991],[139.667195,35.821738],[139.666704,35.822591],[139.666481,35.822899],[139.666133,35.823356],[139.665768,35.82379],[139.665416,35.824124],[139.664901,35.824563],[139.664525,35.824845],[139.664031,35.825166],[139.660052,35.827675],[139.65807,35.828914],[139.65741,35.82942],[139.656953,35.829831],[139.65664,35.830146],[139.656298,35.830553],[139.654697,35.83256],[139.652901,35.834848],[139.652441,35.835445],[139.652126,35.835942],[139.651873,35.836356],[139.649364,35.841197],[139.64891,35.842118],[139.648576,35.842869],[139.648131,35.843747],[139.64763,35.844543],[139.647161,35.845131],[139.64649,35.845909],[139.64608,35.846338],[139.645338,35.846986],[139.643673,35.848331],[139.638871,35.852367],[139.638368,35.85286],[139.637406,35.853837],[139.636755,35.854618],[139.636219,35.855287],[139.635818,35.855863],[139.635442,35.856462],[139.635195,35.8569],[139.635059,35.857149],[139.634758,35.857742],[139.634587,35.858132],[139.634404,35.858617],[139.632284,35.86429],[139.63184,35.865634],[139.631396,35.866862],[139.630379,35.869501],[139.629951,35.870492],[139.629551,35.87152],[139.628782,35.873611],[139.626248,35.880586],[139.62557,35.882386],[139.625437,35.882716],[139.625327,35.883078],[139.625266,35.883334],[139.625212,35.883659],[139.625183,35.884091],[139.625192,35.884565],[139.625258,35.885001],[139.625324,35.885306],[139.625439,35.885685],[139.625588,35.886044],[139.625857,35.886548],[139.626168,35.887046],[139.627517,35.889136],[139.628005,35.889829],[139.628645,35.890772],[139.629106,35.891542],[139.629389,35.892214],[139.629485,35.892554],[139.629581,35.892999],[139.629636,35.893635],[139.629578,35.894305],[139.629424,35.895056],[139.629159,35.895756],[139.62864,35.897217],[139.628264,35.898244],[139.627758,35.899144],[139.627334,35.899767],[139.626511,35.900892],[139.626201,35.901413],[139.625404,35.902801],[139.624943,35.903625],[139.624153,35.90507],[139.623737,35.906039],[139.623384,35.906836],[139.623111,35.907564],[139.622757,35.90931],[139.619933,35.917838],[139.619125,35.920072],[139.618461,35.921894],[139.617662,35.923914],[139.617101,35.925174],[139.616859,35.925776],[139.616533,35.926715],[139.615995,35.928221],[139.615841,35.928681],[139.615513,35.929297],[139.614852,35.930302],[139.614601,35.930631],[139.614262,35.930996],[139.613869,35.931325],[139.613259,35.931713],[139.612444,35.932092],[139.61177,35.932313],[139.611089,35.932465],[139.610386,35.932545],[139.609735,35.93254],[139.609312,35.932508],[139.608862,35.93245],[139.6084,35.932337],[139.607982,35.932215],[139.607531,35.932062],[139.606386,35.931662],[139.604871,35.931133],[139.60379,35.930732],[139.590804,35.926146],[139.58116,35.922756],[139.577624,35.921522],[139.576372,35.921076],[139.565933,35.917399],[139.564186,35.916815],[139.562598,35.916227],[139.561972,35.915973],[139.561075,35.915554],[139.559787,35.91485],[139.558906,35.914263],[139.557778,35.913407],[139.556204,35.912168],[139.553171,35.909778],[139.547392,35.905194],[139.5467,35.90471],[139.545986,35.904337],[139.545431,35.90414],[139.544844,35.903972],[139.544163,35.903858],[139.543367,35.903806],[139.524588,35.903663],[139.523051,35.903633],[139.521003,35.903508],[139.519292,35.903328],[139.517196,35.903115],[139.494228,35.901009],[139.490164,35.900645],[139.48985,35.900654],[139.489455,35.900689],[139.489104,35.900751],[139.488718,35.900865],[139.488371,35.901004],[139.488127,35.901141],[139.487733,35.901401],[139.487315,35.901786],[139.486817,35.9025],[139.486224,35.903366],[139.485422,35.904509],[139.484638,35.905413],[139.483494,35.906461],[139.48286,35.907194],[139.482482,35.90764],[139.482482,35.90764]]}}]}