{"type":"FeatureCollection","features":[{"type":"Feature","properties":{"id":"JR-East.ShonanShinjuku","ja":"湘南新宿ライン","en":"Shonan-Shinjuku Line","color":"#E21F26"},"geometry":{"type":"LineString","coordinates":[[139.530673,35.352778],[139.530808,35.353077],[139.531642,35.355112],[139.53172,35.355379],[139.531788,35.355728],[139.531809,35.356099],[139.531794,35.356667],[139.531732,35.357051],[139.531611,35.357462],[139.531508,35.357817],[139.531427,35.358004],[139.531332,35.358141],[139.531241,35.358262],[139.531127,35.358411],[139.530252,35.359463],[139.530189,35.35954],[139.530095,35.35967],[139.530015,35.359794],[139.529891,35.359992],[139.529828,35.360114],[139.529774,35.360218],[139.529712,35.360355],[139.529615,35.36059],[139.529549,35.360793],[139.529499,35.361027],[139.529473,35.361233],[139.529457,35.361462],[139.529466,35.361691],[139.52949,35.361915],[139.529524,35.362137],[139.529587,35.36236],[139.529682,35.362681],[139.529833,35.363181],[139.530406,35.365097],[139.530467,35.365437],[139.530508,35.365764],[139.530488,35.366095],[139.530487,35.366211],[139.530447,35.366554],[139.530375,35.366912],[139.530285,35.367256],[139.529696,35.369454],[139.529661,35.369602],[139.529632,35.369822],[139.52961,35.370037],[139.529606,35.370223],[139.529625,35.370457],[139.529669,35.37074],[139.529729,35.370981],[139.52981,35.371204],[139.529904,35.371421],[139.530559,35.372648],[139.530868,35.373226],[139.531293,35.374022],[139.532187,35.375816],[139.532393,35.376218],[139.532509,35.376442],[139.532684,35.376769],[139.532863,35.377105],[139.533062,35.377484],[139.533294,35.377905],[139.533557,35.378443],[139.533943,35.379343],[139.534212,35.380146],[139.534442,35.381001],[139.534614,35.381886],[139.534778,35.383342],[139.535339,35.388819],[139.53541,35.389733],[139.535556,35.39118],[139.535686,35.392316],[139.535893,35.394333],[139.535905,35.394655],[139.535897,35.395018],[139.535864,35.395384],[139.535808,35.39576],[139.535732,35.396109],[139.535633,35.396488],[139.535517,35.396874],[139.534997,35.39862],[139.534737,35.399598],[139.534446,35.400673],[139.534345,35.400977],[139.534081,35.401665],[139.533951,35.402023],[139.533918,35.402107],[139.533854,35.402419],[139.533808,35.402736],[139.533789,35.403029],[139.5338,35.403308],[139.533986,35.405095],[139.534132,35.406545],[139.534239,35.407244],[139.534403,35.408099],[139.534664,35.409354],[139.534762,35.409706],[139.53493,35.410156],[139.535054,35.410468],[139.535305,35.410961],[139.535521,35.411322],[139.535693,35.411577],[139.535888,35.411829],[139.536193,35.412184],[139.536473,35.412472],[139.536843,35.412821],[139.53747,35.413327],[139.537849,35.413604],[139.538237,35.413852],[139.53847,35.413989],[139.539162,35.414353],[139.540273,35.41498],[139.541367,35.415614],[139.54215,35.416041],[139.54319,35.416609],[139.544242,35.417164],[139.546813,35.418521],[139.548069,35.419189],[139.549508,35.419954],[139.550989,35.420737],[139.552163,35.421367],[139.552825,35.421809],[139.553471,35.422351],[139.553958,35.422822],[139.554421,35.423369],[139.554825,35.423965],[139.555137,35.424554],[139.556382,35.427322],[139.556687,35.428281],[139.556756,35.428564],[139.556806,35.428842],[139.556835,35.42909],[139.556844,35.42932],[139.556844,35.429555],[139.556835,35.430796],[139.556783,35.431234],[139.556647,35.432303],[139.556564,35.433194],[139.556537,35.433663],[139.556513,35.434237],[139.556515,35.434671],[139.556522,35.434925],[139.556546,35.43515],[139.556681,35.435677],[139.556735,35.435839],[139.556867,35.436188],[139.557136,35.43664],[139.557452,35.437075],[139.557754,35.437414],[139.558267,35.437837],[139.558547,35.438036],[139.558786,35.438191],[139.559178,35.438409],[139.559789,35.43868],[139.56679,35.441699],[139.567583,35.442085],[139.568007,35.442297],[139.569669,35.443128],[139.572194,35.444389],[139.576647,35.446602],[139.577001,35.446768],[139.577154,35.446841],[139.577485,35.446944],[139.577818,35.447018],[139.578221,35.447093],[139.578733,35.447109],[139.579447,35.447083],[139.595022,35.444902],[139.595273,35.444884],[139.595713,35.444883],[139.595955,35.444895],[139.596258,35.444926],[139.596521,35.444967],[139.596802,35.445018],[139.597055,35.445077],[139.5974,35.445183],[139.597847,35.445354],[139.598233,35.445528],[139.598465,35.445655],[139.598845,35.445891],[139.599184,35.446121],[139.599678,35.446566],[139.600138,35.447006],[139.601509,35.448405],[139.60176,35.448643],[139.602118,35.448972],[139.603215,35.449967],[139.603715,35.450362],[139.603946,35.450528],[139.604366,35.450827],[139.604783,35.451098],[139.605218,35.451361],[139.605715,35.451633],[139.605911,35.451739],[139.60705,35.452369],[139.608767,35.453317],[139.610513,35.454268],[139.611758,35.454997],[139.612418,35.45544],[139.612943,35.455859],[139.613679,35.456609],[139.615201,35.458243],[139.61658,35.459751],[139.619268,35.46268],[139.620245,35.463735],[139.620661,35.46429],[139.620944,35.464649],[139.621496,35.465249],[139.62283,35.466687],[139.623446,35.467242],[139.62381,35.467579],[139.624307,35.468131],[139.625062,35.469049],[139.62586,35.470064],[139.626174,35.470422],[139.627154,35.471526],[139.62771,35.472141],[139.628373,35.472867],[139.628988,35.473539],[139.629731,35.474363],[139.631269,35.476064],[139.63377,35.478842],[139.634735,35.479867],[139.636098,35.481335],[139.636769,35.482032],[139.637517,35.482559],[139.638202,35.482896],[139.639041,35.483177],[139.643812,35.484802],[139.644279,35.484962],[139.64473,35.48507],[139.64515,35.485165],[139.646496,35.485388],[139.647141,35.485472],[139.647596,35.485507],[139.647938,35.485524],[139.649159,35.485569],[139.649904,35.485632],[139.650288,35.48568],[139.650928,35.485798],[139.651361,35.485903],[139.651799,35.486028],[139.652266,35.486185],[139.652768,35.486385],[139.653058,35.486521],[139.654042,35.487018],[139.65536,35.487702],[139.657006,35.488559],[139.658814,35.489492],[139.660107,35.49018],[139.660474,35.490408],[139.661007,35.490789],[139.662353,35.491972],[139.662951,35.492498],[139.663282,35.49285],[139.663764,35.493399],[139.664202,35.493961],[139.664511,35.494292],[139.664915,35.494671],[139.66525,35.494944],[139.665636,35.495198],[139.666334,35.495627],[139.666789,35.495924],[139.667093,35.496139],[139.667653,35.496605],[139.670518,35.498981],[139.671951,35.50022],[139.672627,35.500809],[139.67301,35.501137],[139.673276,35.501382],[139.673386,35.501492],[139.673718,35.501835],[139.673922,35.502079],[139.674146,35.502364],[139.674329,35.502611],[139.674515,35.502896],[139.674795,35.503383],[139.674969,35.503783],[139.675096,35.504191],[139.67521,35.504771],[139.67572,35.507033],[139.676327,35.50948],[139.676615,35.510459],[139.676856,35.511277],[139.677311,35.512641],[139.677613,35.513547],[139.677874,35.514306],[139.678066,35.514849],[139.67821,35.515149],[139.67839,35.515463],[139.678652,35.515862],[139.678844,35.516105],[139.679119,35.516423],[139.679436,35.516726],[139.67999,35.517237],[139.680163,35.517411],[139.680426,35.517721],[139.680688,35.518058],[139.680887,35.518392],[139.681055,35.518715],[139.681141,35.518914],[139.681222,35.51916],[139.68127,35.519366],[139.681357,35.519975],[139.68137,35.52026],[139.68135,35.520764],[139.68125,35.521154],[139.681193,35.521379],[139.681012,35.521908],[139.680532,35.523315],[139.680437,35.523636],[139.680371,35.523906],[139.680248,35.524423],[139.680063,35.525223],[139.680014,35.525446],[139.67995,35.525766],[139.67974,35.526893],[139.679637,35.527293],[139.679548,35.527672],[139.679014,35.529363],[139.677357,35.534301],[139.676898,35.535631],[139.676796,35.53597],[139.676706,35.536396],[139.676638,35.536829],[139.67657,35.53738],[139.676545,35.537498],[139.676311,35.538344],[139.675698,35.540214],[139.675233,35.541745],[139.675004,35.542608],[139.674825,35.543384],[139.674693,35.54388],[139.67462,35.544175],[139.67435,35.544947],[139.673279,35.548122],[139.673042,35.548726],[139.672627,35.549678],[139.672186,35.550837],[139.671902,35.551561],[139.671698,35.551957],[139.670955,35.553203],[139.670633,35.553781],[139.670285,35.554572],[139.669726,35.556156],[139.669152,35.55782],[139.668831,35.5588],[139.668442,35.559927],[139.667785,35.561554],[139.667144,35.563382],[139.666839,35.564533],[139.666589,35.565289],[139.666139,35.566521],[139.66557,35.568138],[139.665164,35.569154],[139.664583,35.570846],[139.66405,35.572435],[139.663642,35.573656],[139.663421,35.574486],[139.663322,35.57501],[139.663288,35.575474],[139.663322,35.575914],[139.663407,35.576451],[139.663526,35.576758],[139.663629,35.577031],[139.663808,35.577353],[139.664016,35.577659],[139.664194,35.577891],[139.664379,35.578096],[139.664573,35.578291],[139.664856,35.578554],[139.665162,35.578794],[139.665424,35.578973],[139.665606,35.579079],[139.66583,35.5792],[139.666155,35.579351],[139.666492,35.579478],[139.667042,35.579675],[139.67489,35.582482],[139.677258,35.583336],[139.678049,35.583605],[139.679238,35.58397],[139.679694,35.584093],[139.681148,35.584484],[139.68715,35.586198],[139.69443,35.588286],[139.697021,35.589021],[139.699749,35.589801],[139.701138,35.590202],[139.702382,35.590548],[139.704094,35.591043],[139.706948,35.591847],[139.708039,35.592161],[139.708692,35.592374],[139.708974,35.59246],[139.710497,35.59289],[139.712073,35.59334],[139.715602,35.594347],[139.71619,35.59456],[139.716749,35.594813],[139.717098,35.595005],[139.717527,35.595276],[139.71798,35.595598],[139.718497,35.596034],[139.718806,35.596326],[139.719196,35.596776],[139.71946,35.59714],[139.719657,35.597435],[139.719863,35.597884],[139.720268,35.598733],[139.720602,35.599452],[139.720953,35.600222],[139.721417,35.601265],[139.721818,35.602169],[139.722297,35.603205],[139.722765,35.60422],[139.722964,35.604646],[139.723241,35.605256],[139.723429,35.605648],[139.723589,35.605955],[139.723781,35.606309],[139.72397,35.60663],[139.724388,35.607328],[139.724477,35.60748],[139.724915,35.608074],[139.725475,35.608716],[139.725889,35.609161],[139.72626,35.609539],[139.726505,35.60976],[139.726793,35.609958],[139.727158,35.610166],[139.727522,35.610322],[139.728008,35.610466],[139.728388,35.610555],[139.729029,35.610708],[139.729486,35.610824],[139.729832,35.610961],[139.730075,35.611076],[139.73052,35.611332],[139.730781,35.611525],[139.731091,35.611804],[139.731302,35.61203],[139.731562,35.612373],[139.731686,35.612568],[139.731907,35.613033],[139.732108,35.61351],[139.732164,35.61373],[139.732182,35.61397],[139.73218,35.614164],[139.732162,35.614329],[139.732133,35.614497],[139.732092,35.614651],[139.73204,35.614807],[139.731973,35.614966],[139.731889,35.615137],[139.731787,35.615297],[139.731636,35.615502],[139.731237,35.616011],[139.731039,35.616288],[139.730934,35.616438],[139.730836,35.61656],[139.730512,35.616896],[139.730151,35.617246],[139.729815,35.617487],[139.729564,35.617655],[139.729291,35.617856],[139.729093,35.61803],[139.728864,35.618276],[139.728563,35.618667],[139.728328,35.618992],[139.727784,35.619763],[139.727601,35.620087],[139.727388,35.620544],[139.727125,35.621088],[139.726766,35.621841],[139.726588,35.622114],[139.726241,35.622596],[139.725775,35.623231],[139.725128,35.624116],[139.724811,35.624545],[139.724242,35.625197],[139.723714,35.625904],[139.723168,35.626604],[139.722962,35.626844],[139.722707,35.627096],[139.722454,35.627321],[139.722192,35.627525],[139.721894,35.627741],[139.721342,35.628077],[139.721015,35.628251],[139.720409,35.628529],[139.719709,35.628842],[139.718805,35.629245],[139.718388,35.62943],[139.717884,35.629704],[139.717448,35.630014],[139.717255,35.630183],[139.717027,35.630406],[139.716798,35.630677],[139.716602,35.630953],[139.716504,35.631116],[139.716359,35.631414],[139.716308,35.631549],[139.716228,35.631775],[139.716166,35.632005],[139.715615,35.634],[139.71545,35.634654],[139.715208,35.635546],[139.714652,35.637546],[139.71422,35.639167],[139.714102,35.639504],[139.714013,35.639692],[139.713881,35.63995],[139.713679,35.640342],[139.71343,35.640802],[139.713215,35.641222],[139.712869,35.641856],[139.712418,35.642686],[139.712179,35.64309],[139.711695,35.643974],[139.711431,35.644482],[139.71112,35.645083],[139.710843,35.645589],[139.710474,35.646292],[139.709663,35.647696],[139.709503,35.647978],[139.708696,35.649462],[139.707891,35.650864],[139.707745,35.651082],[139.707316,35.651606],[139.706922,35.652045],[139.705907,35.653236],[139.705437,35.653715],[139.704872,35.654338],[139.704328,35.654964],[139.703813,35.655551],[139.702968,35.656512],[139.702442,35.657151],[139.702241,35.657509],[139.701938,35.658138],[139.701564,35.65888],[139.701459,35.65913],[139.701345,35.659493],[139.701332,35.659592],[139.701329,35.659775],[139.701348,35.660168],[139.701406,35.660943],[139.701523,35.662645],[139.701553,35.662932],[139.701667,35.663828],[139.701925,35.665676],[139.70247,35.669584],[139.702643,35.670682],[139.702942,35.671929],[139.703147,35.672593],[139.703711,35.674219],[139.703991,35.675042],[139.704054,35.675308],[139.7041,35.675622],[139.704095,35.675944],[139.704072,35.676383],[139.703989,35.677627],[139.703859,35.678582],[139.703608,35.6796],[139.703235,35.681109],[139.702755,35.68312],[139.702403,35.684566],[139.702276,35.685124],[139.701892,35.686621],[139.701749,35.687301],[139.701585,35.688106],[139.701323,35.689174],[139.701063,35.690248],[139.70081,35.691322],[139.700631,35.691814],[139.700442,35.692357],[139.700266,35.692831],[139.70012,35.693353],[139.700036,35.693717],[139.699945,35.694203],[139.699875,35.694933],[139.699836,35.695584],[139.699867,35.696048],[139.699945,35.696844],[139.700051,35.697962],[139.700229,35.699757],[139.700395,35.701467],[139.700483,35.702399],[139.70054,35.702929],[139.700614,35.703448],[139.700705,35.703876],[139.700806,35.704277],[139.700961,35.704732],[139.703493,35.711897],[139.704234,35.714052],[139.705053,35.716438],[139.705328,35.71738],[139.705443,35.717765],[139.705585,35.718199],[139.705804,35.718829],[139.706678,35.721269],[139.706856,35.721738],[139.70764,35.723249],[139.708576,35.725076],[139.709371,35.726473],[139.709606,35.726869],[139.710113,35.72777],[139.710671,35.728878],[139.711916,35.731303],[139.712314,35.731942],[139.712679,35.732552],[139.7128,35.732759],[139.713009,35.733043],[139.713294,35.733286],[139.713494,35.733455],[139.713977,35.733816],[139.714329,35.734017],[139.714763,35.734197],[139.715413,35.734416],[139.715806,35.734483],[139.716476,35.734525],[139.716849,35.734531],[139.717191,35.734503],[139.717676,35.734433],[139.718326,35.734269],[139.71957,35.733931],[139.730689,35.731037],[139.731369,35.730902],[139.732008,35.730844],[139.732651,35.730851],[139.733354,35.730926],[139.733904,35.731058],[139.734418,35.731208],[139.73488,35.731381],[139.735454,35.731613],[139.748602,35.737032],[139.751263,35.738336],[139.752106,35.738747],[139.752687,35.738974],[139.753752,35.739399],[139.754211,35.739682],[139.754513,35.739981],[139.754831,35.740413],[139.754994,35.740747],[139.755066,35.74109],[139.755069,35.741449],[139.754999,35.74179],[139.754746,35.742244],[139.754466,35.742639],[139.754096,35.743029],[139.753857,35.743207],[139.753535,35.743363],[139.752927,35.743607],[139.752373,35.743848],[139.751608,35.744197],[139.750924,35.744506],[139.750343,35.744816],[139.749445,35.745399],[139.74868,35.745823],[139.747579,35.746419],[139.746775,35.746866],[139.746036,35.747276],[139.744674,35.747974],[139.744353,35.748123],[139.743265,35.748643],[139.742483,35.749025],[139.742088,35.749247],[139.741493,35.749624],[139.740927,35.749995],[139.740348,35.750378],[139.739776,35.750768],[139.738977,35.751333],[139.738473,35.751757],[139.738157,35.75207],[139.737881,35.752379],[139.73756,35.752751],[139.736131,35.754434],[139.735778,35.754875],[139.735036,35.755928],[139.734312,35.756951],[139.733542,35.758033],[139.733352,35.758248],[139.733112,35.758463],[139.732798,35.758751],[139.732444,35.759012],[139.731543,35.759655],[139.730717,35.760244],[139.73012,35.760664],[139.728804,35.761599],[139.728266,35.76201],[139.727868,35.762338],[139.727449,35.762737],[139.727101,35.763122],[139.726765,35.763541],[139.726541,35.763864],[139.726132,35.764545],[139.725426,35.765775],[139.723262,35.769652],[139.722604,35.770816],[139.722411,35.771288],[139.7223,35.771667],[139.722253,35.771997],[139.722203,35.772624],[139.722198,35.773184],[139.722186,35.773471],[139.722159,35.774201],[139.722109,35.775219],[139.722059,35.77558],[139.721946,35.775983],[139.721765,35.776348],[139.721461,35.776866],[139.720836,35.77778],[139.720427,35.778378],[139.719756,35.779444],[139.719406,35.779981],[139.719138,35.780457],[139.718379,35.781946],[139.717742,35.78327],[139.717235,35.784507],[139.716944,35.785234],[139.716816,35.785687],[139.71673,35.786195],[139.716709,35.786821],[139.716775,35.787464],[139.717555,35.794528],[139.717666,35.795315],[139.717906,35.796379],[139.718032,35.796924],[139.718121,35.797451],[139.718181,35.79794],[139.718209,35.798504],[139.718224,35.798932],[139.718181,35.79941],[139.7181,35.799849],[139.718029,35.800207],[139.717909,35.800534],[139.717781,35.800887],[139.717516,35.801426],[139.717227,35.801952],[139.716941,35.802393],[139.716579,35.802932],[139.716106,35.803511],[139.715739,35.803912],[139.71526,35.804391],[139.711946,35.807677],[139.710555,35.809037],[139.710005,35.80959],[139.709316,35.810311],[139.707912,35.811774],[139.706284,35.81344],[139.705225,35.814541],[139.704156,35.815625],[139.702563,35.817219],[139.699811,35.81998],[139.699373,35.820403],[139.698961,35.820777],[139.698599,35.821083],[139.698245,35.821355],[139.697382,35.822006],[139.693036,35.825288],[139.692238,35.825942],[139.691334,35.82683],[139.689945,35.828255],[139.688201,35.829976],[139.687047,35.831078],[139.683438,35.834656],[139.682924,35.835095],[139.682365,35.835545],[139.681736,35.835949],[139.680611,35.836629],[139.680055,35.837033],[139.679584,35.837454],[139.679323,35.837712],[139.678509,35.838551],[139.677059,35.839994],[139.674452,35.842606],[139.67423,35.842806],[139.6737,35.843266],[139.673392,35.843508],[139.672784,35.843991],[139.672419,35.844276],[139.671125,35.845331],[139.670872,35.845568],[139.670299,35.846173],[139.667772,35.848749],[139.665986,35.850561],[139.665693,35.850831],[139.66519,35.851277],[139.664925,35.851488],[139.664367,35.851902],[139.662833,35.853019],[139.660034,35.855052],[139.659449,35.855553],[139.658947,35.85605],[139.658732,35.85631],[139.658147,35.857191],[139.657148,35.858716],[139.656102,35.860329],[139.655546,35.861288],[139.654998,35.86211],[139.652535,35.865772],[139.652012,35.866439],[139.651413,35.867099],[139.651055,35.86745],[139.650451,35.867983],[139.650052,35.868345],[139.648946,35.869351],[139.644754,35.873075],[139.644189,35.873608],[139.643615,35.874231],[139.643106,35.874927],[139.642833,35.875395],[139.642495,35.876133],[139.642004,35.877214],[139.641492,35.878367],[139.640821,35.879898],[139.639837,35.882218],[139.639583,35.8828],[139.639058,35.88394],[139.638594,35.884945],[139.638171,35.885824],[139.63754,35.887037],[139.636851,35.888324],[139.636236,35.889378],[139.635546,35.890464],[139.634591,35.892063],[139.633576,35.893498],[139.632477,35.894943],[139.63172,35.89591],[139.631029,35.896501],[139.629698,35.897567],[139.628744,35.898445],[139.628273,35.898939],[139.626922,35.900805],[139.625754,35.902492],[139.624949,35.904035],[139.624572,35.904863],[139.623823,35.906781],[139.623546,35.907672]]}}]}