{"type":"FeatureCollection","features":[{"type":"Feature","properties":{"id":"JR-East.SobuRapid","ja":"総武線快速","en":"Sobu Line (Rapid)","color":"#0067C0"},"geometry":{"type":"LineString","coordinates":[[139.76559,35.681836],[139.766732,35.682987],[139.766911,35.683212],[139.767147,35.683576],[139.767583,35.684261],[139.768288,35.686069],[139.768555,35.686776],[139.768638,35.686934],[139.768808,35.687124],[139.769064,35.687295],[139.769406,35.687452],[139.76971,35.687595],[139.770283,35.687772],[139.777175,35.689987],[139.778912,35.690978],[139.780948,35.692185],[139.785096,35.695386],[139.785788,35.695603],[139.787022,35.695989],[139.788207,35.696241],[139.789837,35.696471],[139.790671,35.696509],[139.792259,35.696421],[139.794301,35.696185],[139.795949,35.695941],[139.796532,35.695902],[139.797309,35.695916],[139.798401,35.695969],[139.800338,35.696069],[139.800658,35.696088],[139.802032,35.696127],[139.802272,35.69613],[139.80308,35.696176],[139.809819,35.696537],[139.811239,35.696614],[139.812476,35.696771],[139.813252,35.696847],[139.816652,35.696938],[139.817455,35.696934],[139.818233,35.69692],[139.81865,35.696927],[139.819721,35.696982],[139.820998,35.697047],[139.821508,35.697079],[139.825327,35.697386],[139.826895,35.697462],[139.831912,35.69767],[139.832403,35.697703],[139.832877,35.697773],[139.833487,35.697908],[139.833942,35.69804],[139.834387,35.698194],[139.834955,35.698435],[139.835438,35.698673],[139.835892,35.698978],[139.836203,35.699229],[139.836457,35.69945],[139.836672,35.69967],[139.836862,35.69991],[139.837051,35.700165],[139.837248,35.700473],[139.838806,35.703131],[139.838968,35.70338],[139.839155,35.703642],[139.839459,35.704012],[139.839703,35.704294],[139.840361,35.705022],[139.840688,35.705319],[139.840986,35.705551],[139.841408,35.705836],[139.845138,35.708273],[139.845536,35.708547],[139.846074,35.708947],[139.846635,35.709394],[139.846955,35.709639],[139.847427,35.709954],[139.847815,35.710218],[139.854188,35.714559],[139.855629,35.715493],[139.856611,35.716111],[139.858235,35.717206],[139.858909,35.717607],[139.859564,35.717963],[139.861186,35.718813],[139.861632,35.719061],[139.862049,35.719308],[139.86243,35.719578],[139.865244,35.72155],[139.865507,35.721779],[139.866008,35.722187],[139.867165,35.723127],[139.86848,35.724148],[139.869091,35.724525],[139.871967,35.726433],[139.873031,35.727238],[139.873829,35.727808],[139.876539,35.729659],[139.879036,35.731376],[139.880587,35.732485],[139.881014,35.732805],[139.882802,35.734012],[139.883552,35.734457],[139.884103,35.734763],[139.884624,35.735031],[139.885029,35.735211],[139.885539,35.735412],[139.886007,35.735562],[139.886564,35.735725],[139.887064,35.735826],[139.887537,35.735907],[139.888158,35.735979],[139.888661,35.736008],[139.889105,35.736026],[139.88951,35.73601],[139.889994,35.735979],[139.890401,35.735935],[139.890812,35.735874],[139.891168,35.735808],[139.891477,35.735744],[139.891784,35.735665],[139.892117,35.735573],[139.892417,35.735483],[139.892669,35.735393],[139.892913,35.735301],[139.893365,35.735108],[139.893885,35.734853],[139.894387,35.734614],[139.895195,35.734226],[139.89612,35.733836],[139.900456,35.732053],[139.901855,35.731561],[139.902558,35.73132],[139.902862,35.731215],[139.903479,35.730968],[139.905072,35.730296],[139.90556,35.730043],[139.906482,35.729659],[139.910086,35.728121],[139.911481,35.727543],[139.912244,35.727237],[139.912923,35.726963],[139.91345,35.726745],[139.953871,35.709951],[139.95672,35.708755],[139.957666,35.70832],[139.959372,35.707569],[139.961382,35.706643],[139.962242,35.706222],[139.963505,35.705649],[139.964643,35.705121],[139.966026,35.704499],[139.967442,35.703854],[139.969358,35.702981],[139.970148,35.702687],[139.970848,35.702516],[139.971619,35.702352],[139.97221,35.70226],[139.972842,35.702125],[139.97325,35.702054],[139.973732,35.702011],[139.974164,35.702005],[139.974605,35.702015],[139.975,35.702062],[139.975474,35.702131],[139.976048,35.702247],[139.97643,35.702315],[139.976733,35.70236],[139.97713,35.7024],[139.977488,35.702408],[139.977808,35.702411],[139.978233,35.70238],[139.978608,35.702349],[139.980761,35.702149],[139.98136,35.702105],[139.982344,35.702045],[139.983343,35.701936],[139.984995,35.701757],[139.985995,35.701679],[139.986718,35.70164],[139.987283,35.701594],[139.988008,35.70153],[139.988654,35.701468],[139.993686,35.700926],[139.996693,35.700635],[140.00764,35.699571],[140.008139,35.699512],[140.008874,35.69939],[140.009305,35.699288],[140.009755,35.699163],[140.010186,35.699026],[140.010994,35.698701],[140.011394,35.698511],[140.011829,35.698276],[140.012264,35.698011],[140.012624,35.697765],[140.018137,35.693216],[140.021594,35.690416],[140.022359,35.689801],[140.022976,35.689299],[140.024299,35.688194],[140.025001,35.687501],[140.025847,35.686696],[140.026134,35.686456],[140.027009,35.685769],[140.030933,35.682463],[140.032988,35.680734],[140.036042,35.678286],[140.038111,35.676398],[140.058725,35.658907],[140.060573,35.65736],[140.061617,35.656564],[140.062159,35.656245],[140.06448,35.655068],[140.065582,35.654457],[140.066277,35.65408],[140.068223,35.653106],[140.068806,35.652834],[140.069329,35.652629],[140.0699,35.652441],[140.070484,35.6523],[140.070968,35.652196],[140.071401,35.652125],[140.075398,35.651612],[140.077053,35.651418],[140.077554,35.651338],[140.077897,35.651283],[140.078518,35.651216],[140.079285,35.651118],[140.079774,35.651028],[140.080336,35.650894],[140.080747,35.650772],[140.08105,35.650673],[140.081588,35.650463],[140.08203,35.650261],[140.082531,35.649998],[140.083004,35.64971],[140.083282,35.649528],[140.083555,35.649318],[140.083885,35.649066],[140.084183,35.648789],[140.084632,35.648328],[140.085429,35.647353],[140.085685,35.646954],[140.086014,35.646486],[140.086344,35.646025],[140.091266,35.63897],[140.091649,35.638445],[140.09336,35.636136],[140.095627,35.632951],[140.097555,35.630282],[140.100953,35.625374],[140.101364,35.624861],[140.101746,35.62443],[140.102323,35.623798],[140.103066,35.623012],[140.103529,35.622509],[140.104298,35.621562],[140.105206,35.620454],[140.106345,35.619193],[140.107521,35.617878],[140.10896,35.616291],[140.109339,35.615914],[140.109834,35.615482],[140.1106,35.614857],[140.111784,35.614213],[140.112448,35.613878],[140.112967,35.613614],[140.113487,35.613409],[140.114052,35.61324],[140.114573,35.613127],[140.114875,35.613084],[140.114875,35.613084],[140.114883,35.613083]]}}]}