{"type":"FeatureCollection","features":[{"type":"Feature","properties":{"id":"JR-East.SotetsuDirect","ja":"相鉄直通線","en":"Sotetsu Direct Line","color":"#0067C0"},"geometry":{"type":"LineString","coordinates":[[139.727746,35.620239],[139.72904,35.618455],[139.729289,35.618135],[139.729434,35.617996],[139.729552,35.617888],[139.729941,35.617548],[139.730216,35.617263],[139.730378,35.617054],[139.730483,35.616876],[139.730773,35.616525],[139.73112,35.61603],[139.731371,35.615658],[139.731609,35.615348],[139.731723,35.615157],[139.731855,35.6149],[139.73193,35.61468],[139.732014,35.614344],[139.732037,35.61411],[139.732036,35.613736],[139.731988,35.613485],[139.731932,35.613248],[139.731851,35.613026],[139.731727,35.612741],[139.731547,35.612425],[139.731372,35.612165],[139.731224,35.611971],[139.731055,35.611798],[139.73084,35.611607],[139.730526,35.611367],[139.730246,35.611202],[139.730061,35.611102],[139.729683,35.61094],[139.729412,35.610847],[139.72886,35.610702],[139.728061,35.610521],[139.727878,35.610477],[139.727589,35.61038],[139.727337,35.610286],[139.727016,35.610138],[139.726838,35.610035],[139.726683,35.609936],[139.726399,35.609725],[139.726141,35.609482],[139.725879,35.609205],[139.725664,35.608956],[139.725358,35.608614],[139.724905,35.608092],[139.72473,35.607859],[139.724451,35.607473],[139.724284,35.607196],[139.723899,35.606542],[139.723736,35.606257],[139.723551,35.605915],[139.723223,35.605263],[139.722989,35.604741],[139.722687,35.604086],[139.721574,35.601666],[139.721328,35.601109],[139.720744,35.599804],[139.720158,35.598542],[139.719675,35.597524],[139.719637,35.597449],[139.719451,35.59715],[139.719189,35.596804],[139.718789,35.596341],[139.718486,35.596049],[139.717983,35.595636],[139.717658,35.595393],[139.717361,35.595195],[139.717114,35.59504],[139.716889,35.594919],[139.716609,35.594774],[139.716213,35.594595],[139.715607,35.594376],[139.708816,35.592433],[139.708096,35.592201],[139.707792,35.592106],[139.707163,35.591924],[139.705196,35.591369],[139.689324,35.586839],[139.680918,35.584438],[139.679182,35.583973],[139.678498,35.583765],[139.677944,35.583585],[139.677592,35.583466],[139.676381,35.583035],[139.667111,35.579719],[139.666552,35.579513],[139.666284,35.579417],[139.665995,35.5793],[139.665737,35.579169],[139.665549,35.579067],[139.665367,35.578958],[139.665177,35.578831],[139.664969,35.578665],[139.664773,35.578509],[139.664502,35.578248],[139.664351,35.578095],[139.664181,35.577912],[139.664017,35.577698],[139.66388,35.577495],[139.663785,35.577355],[139.663642,35.5771],[139.663613,35.577035],[139.663492,35.576749],[139.663363,35.576386],[139.663259,35.57599],[139.663222,35.575663],[139.66322,35.575335],[139.663247,35.575011],[139.663332,35.574568],[139.663495,35.573984],[139.663691,35.573392],[139.663835,35.572984],[139.663947,35.572654],[139.664235,35.571787],[139.664403,35.571257],[139.66452,35.570782],[139.664587,35.570493],[139.664601,35.570131],[139.664682,35.569642],[139.664832,35.569023],[139.665101,35.568214],[139.665622,35.566652],[139.665949,35.565873],[139.66626,35.565142],[139.666507,35.564504],[139.666734,35.563829],[139.66712,35.562485],[139.667386,35.561673],[139.667716,35.560731],[139.667975,35.559964],[139.668164,35.559397],[139.66912,35.556542],[139.66959,35.55515],[139.669759,35.554631],[139.669886,35.553875],[139.670037,35.552962],[139.670385,35.551884],[139.67121,35.549264],[139.67157,35.548096],[139.671924,35.547576],[139.672744,35.546641],[139.673262,35.546025],[139.673746,35.545342],[139.673887,35.545003],[139.674016,35.544559],[139.674674,35.542361],[139.675212,35.540586],[139.675329,35.54018],[139.675921,35.538467],[139.676407,35.536866],[139.677173,35.534356],[139.677851,35.532297],[139.678606,35.530235],[139.679125,35.528568],[139.679529,35.527315],[139.679571,35.527011],[139.679605,35.526245],[139.67968,35.525769],[139.679832,35.525096],[139.680167,35.523969],[139.680522,35.522885],[139.68068,35.522302],[139.681077,35.521138],[139.68127,35.520524],[139.681407,35.51986],[139.681436,35.519615],[139.681438,35.519419],[139.681407,35.519105],[139.681337,35.518763],[139.681185,35.518212],[139.680947,35.517663],[139.680607,35.517167],[139.680174,35.516742],[139.679924,35.51648],[139.679652,35.516132],[139.679176,35.515407],[139.678305,35.513972],[139.678038,35.513484],[139.677826,35.512878],[139.677342,35.511658],[139.677027,35.510768],[139.67685,35.510029],[139.676587,35.508826],[139.675854,35.505761],[139.675556,35.50442],[139.675387,35.503925],[139.675089,35.503319],[139.674782,35.502802],[139.674475,35.502346],[139.67409,35.501851],[139.673599,35.501321],[139.67291,35.500668],[139.672343,35.500097],[139.671927,35.499738],[139.671434,35.499333],[139.670467,35.498523],[139.66963,35.497837],[139.667632,35.496194],[139.667064,35.495716],[139.666515,35.495347],[139.666162,35.495105],[139.665501,35.494794],[139.665245,35.494673],[139.664836,35.494529],[139.663877,35.494305],[139.662613,35.494168],[139.661857,35.494189],[139.66112,35.494262],[139.658268,35.494961],[139.656143,35.49537],[139.651586,35.49558],[139.648439,35.495733],[139.647734,35.495753],[139.642299,35.495864],[139.617489,35.496422],[139.615542,35.496414],[139.614601,35.496327],[139.613613,35.496145],[139.612384,35.495809],[139.611876,35.495641],[139.610409,35.494966],[139.605292,35.492419],[139.601119,35.490354],[139.594355,35.487027],[139.593701,35.486699],[139.592993,35.486286],[139.591555,35.485508],[139.590471,35.48483],[139.58937,35.484201],[139.589177,35.484055],[139.588583,35.483461],[139.587658,35.482527],[139.587103,35.481987],[139.58681,35.481734],[139.586089,35.481196]]}}]}