{"type":"FeatureCollection","features":[{"type":"Feature","properties":{"id":"JR-East.Takasaki","ja":"高崎線","en":"Takasaki Line","color":"#F68B1E"},"geometry":{"type":"LineString","coordinates":[[139.766267,35.67969],[139.766472,35.68005],[139.766583,35.68031],[139.766997,35.681418],[139.767287,35.682201],[139.767452,35.682761],[139.767684,35.683294],[139.768038,35.684091],[139.768449,35.685074],[139.768685,35.685644],[139.768874,35.686166],[139.769382,35.687548],[139.769706,35.688328],[139.770029,35.689117],[139.770229,35.689597],[139.770395,35.690017],[139.770557,35.690406],[139.770767,35.690873],[139.771023,35.691379],[139.771269,35.691881],[139.771445,35.692261],[139.771556,35.692615],[139.771713,35.693109],[139.771821,35.693375],[139.77208,35.693964],[139.772329,35.694575],[139.772506,35.69505],[139.77268,35.695517],[139.772773,35.695789],[139.772847,35.696084],[139.772917,35.696422],[139.773093,35.69723],[139.773217,35.697873],[139.773339,35.698995],[139.773345,35.699796],[139.77339,35.700206],[139.773527,35.701168],[139.773558,35.701449],[139.773661,35.70187],[139.773815,35.702335],[139.774089,35.703127],[139.774171,35.703378],[139.774298,35.704057],[139.774634,35.705995],[139.774745,35.706514],[139.774872,35.707204],[139.775,35.70792],[139.775076,35.708425],[139.77508,35.708777],[139.775045,35.709167],[139.774981,35.709544],[139.774893,35.71003],[139.774834,35.710394],[139.774853,35.710855],[139.774935,35.711195],[139.775124,35.711636],[139.775484,35.712207],[139.775922,35.712852],[139.776537,35.713734],[139.777129,35.714595],[139.777528,35.715102],[139.77799,35.715617],[139.778778,35.716506],[139.779097,35.716864],[139.779442,35.71728],[139.779684,35.717671],[139.779792,35.717968],[139.779908,35.718405],[139.779945,35.718911],[139.779903,35.719265],[139.77982,35.719642],[139.779707,35.719936],[139.779511,35.720266],[139.779324,35.720527],[139.77906,35.720855],[139.778568,35.721402],[139.778151,35.72181],[139.777348,35.722432],[139.776691,35.722993],[139.776061,35.723579],[139.77517,35.724392],[139.774357,35.725143],[139.773836,35.725624],[139.773339,35.726023],[139.772744,35.726436],[139.772116,35.726956],[139.771214,35.727746],[139.770257,35.728572],[139.769704,35.729086],[139.769019,35.729769],[139.768524,35.730344],[139.767615,35.731503],[139.767207,35.732192],[139.766768,35.733195],[139.766432,35.734036],[139.766164,35.734774],[139.765944,35.735354],[139.765702,35.736075],[139.76545,35.736805],[139.765303,35.737204],[139.764867,35.738405],[139.764604,35.739009],[139.76439,35.739411],[139.764065,35.739926],[139.763636,35.740543],[139.763223,35.741016],[139.762859,35.741388],[139.762456,35.741752],[139.762189,35.741976],[139.761853,35.742223],[139.761492,35.742471],[139.761017,35.742757],[139.760196,35.743258],[139.758142,35.744511],[139.757404,35.744981],[139.756475,35.745561],[139.755507,35.746156],[139.755083,35.746343],[139.753159,35.747113],[139.751893,35.747605],[139.750656,35.748113],[139.750046,35.74835],[139.748856,35.748806],[139.74839,35.748946],[139.747694,35.749105],[139.747076,35.749184],[139.74588,35.749273],[139.743811,35.749434],[139.743255,35.749488],[139.74282,35.749558],[139.742285,35.749674],[139.741563,35.749896],[139.741159,35.750064],[139.740711,35.750311],[139.7403,35.750582],[139.739437,35.751199],[139.738785,35.751683],[139.73834,35.752081],[139.737782,35.752659],[139.737338,35.753151],[139.736155,35.754561],[139.73584,35.754953],[139.734223,35.757234],[139.733687,35.757992],[139.733525,35.758178],[139.733308,35.758415],[139.733102,35.758614],[139.732795,35.758871],[139.732455,35.759121],[139.729399,35.761284],[139.728569,35.761891],[139.727987,35.762363],[139.72757,35.762753],[139.727118,35.763247],[139.726825,35.763623],[139.726648,35.76388],[139.726068,35.764845],[139.725964,35.765001],[139.724792,35.767111],[139.7241,35.768351],[139.722808,35.770639],[139.722665,35.770902],[139.722556,35.771171],[139.722443,35.771496],[139.722368,35.771834],[139.722329,35.77214],[139.722289,35.772748],[139.722256,35.773371],[139.722195,35.775363],[139.722135,35.775754],[139.722047,35.776111],[139.721856,35.776546],[139.721424,35.777194],[139.720432,35.778682],[139.719963,35.779363],[139.719471,35.780057],[139.719361,35.780255],[139.719057,35.780857],[139.717983,35.783065],[139.717839,35.783389],[139.717621,35.783879],[139.717392,35.784434],[139.717133,35.785045],[139.717022,35.785415],[139.716943,35.785765],[139.716895,35.786099],[139.716884,35.78641],[139.716903,35.786806],[139.716946,35.787183],[139.717002,35.787717],[139.717216,35.789548],[139.717824,35.794886],[139.71792,35.795613],[139.718094,35.796547],[139.718135,35.796796],[139.718286,35.797986],[139.718328,35.798764],[139.718319,35.799202],[139.718254,35.799734],[139.718136,35.800211],[139.717969,35.800662],[139.717718,35.801236],[139.717434,35.801827],[139.717181,35.802202],[139.716695,35.802931],[139.716229,35.803517],[139.715822,35.803959],[139.715344,35.804436],[139.714583,35.805218],[139.713715,35.806063],[139.71239,35.807372],[139.711181,35.808567],[139.710583,35.809242],[139.710358,35.809491],[139.710047,35.809793],[139.708501,35.811369],[139.707427,35.812446],[139.706489,35.813394],[139.705132,35.814767],[139.704149,35.81574],[139.70041,35.819507],[139.699861,35.820058],[139.699385,35.820517],[139.699087,35.820775],[139.698587,35.82119],[139.698077,35.821579],[139.693193,35.825271],[139.692812,35.825581],[139.692457,35.825893],[139.691945,35.826383],[139.691213,35.827116],[139.690384,35.827967],[139.689241,35.829097],[139.688323,35.829998],[139.683583,35.834642],[139.683205,35.834992],[139.682788,35.835338],[139.682326,35.835689],[139.681815,35.836003],[139.680717,35.836668],[139.680351,35.836921],[139.680021,35.837179],[139.679706,35.837453],[139.679487,35.837668],[139.679029,35.838123],[139.674962,35.842198],[139.674479,35.842681],[139.674212,35.842941],[139.673907,35.843201],[139.672933,35.843967],[139.671731,35.84493],[139.671366,35.845231],[139.670991,35.845575],[139.670737,35.845836],[139.670067,35.846514],[139.667099,35.849547],[139.666812,35.849842],[139.666293,35.850366],[139.665726,35.85092],[139.665389,35.851211],[139.664997,35.851532],[139.66445,35.851944],[139.663788,35.852432],[139.661851,35.853848],[139.661137,35.854361],[139.660468,35.85485],[139.660192,35.855058],[139.659843,35.855367],[139.659312,35.855861],[139.658902,35.856318],[139.658602,35.856698],[139.658334,35.857156],[139.657983,35.857758],[139.656293,35.86034],[139.656046,35.860743],[139.655779,35.861169],[139.653447,35.86461],[139.652629,35.865821],[139.65223,35.866342],[139.651833,35.86678],[139.651583,35.867053],[139.651247,35.867382],[139.650963,35.867645],[139.650517,35.86804],[139.649819,35.868667],[139.649052,35.869365],[139.647403,35.870829],[139.646145,35.871965],[139.644687,35.87325],[139.644406,35.873513],[139.644058,35.873881],[139.643642,35.874368],[139.64338,35.874753],[139.643037,35.875332],[139.642834,35.875755],[139.642464,35.876573],[139.641181,35.87938],[139.639978,35.882191],[139.639466,35.883378],[139.63899,35.884405],[139.638866,35.884681],[139.638389,35.885693],[139.637604,35.887339],[139.637322,35.887959],[139.636816,35.889029],[139.636346,35.890037],[139.636049,35.890641],[139.635865,35.890951],[139.635599,35.891379],[139.635313,35.891765],[139.634843,35.892419],[139.634546,35.892808],[139.634113,35.893403],[139.633511,35.894228],[139.633033,35.894885],[139.632458,35.895668],[139.632227,35.895966],[139.631748,35.896551],[139.631127,35.897263],[139.630525,35.897857],[139.630038,35.898284],[139.629561,35.898717],[139.628841,35.89941],[139.62801,35.900186],[139.627412,35.900722],[139.627243,35.900914],[139.626942,35.901283],[139.626475,35.901929],[139.625971,35.902656],[139.625873,35.90283],[139.625408,35.903816],[139.624944,35.90475],[139.624648,35.905533],[139.623726,35.908098],[139.62356,35.908479],[139.623418,35.908908],[139.623202,35.909511],[139.623045,35.90999],[139.622709,35.910889],[139.622617,35.911172],[139.622562,35.91144],[139.622481,35.911856],[139.622429,35.912216],[139.62233,35.912564],[139.622231,35.912903],[139.622072,35.913282],[139.621906,35.913682],[139.62139,35.914844],[139.621166,35.915344],[139.620633,35.916534],[139.620258,35.917503],[139.619886,35.918506],[139.619688,35.91901],[139.619433,35.919712],[139.618978,35.920896],[139.618382,35.922475],[139.617932,35.923689],[139.617544,35.924682],[139.617435,35.92497],[139.617226,35.925593],[139.616566,35.927628],[139.616034,35.92908],[139.615896,35.929329],[139.615627,35.929793],[139.615412,35.930112],[139.615098,35.930529],[139.614189,35.931639],[139.613258,35.93278],[139.611394,35.935101],[139.610892,35.935729],[139.610621,35.936156],[139.610398,35.936583],[139.610231,35.936978],[139.610069,35.937518],[139.609856,35.938425],[139.609725,35.939124],[139.6095,35.940129],[139.608962,35.942593],[139.608872,35.942894],[139.608727,35.943262],[139.608478,35.943812],[139.608082,35.944572],[139.607627,35.945402],[139.607345,35.945779],[139.60706,35.946148],[139.60438,35.949407],[139.602833,35.951318],[139.602447,35.951777],[139.602077,35.952253],[139.601791,35.952693],[139.601533,35.953152],[139.601173,35.953991],[139.600183,35.956384],[139.599879,35.957111],[139.599366,35.958289],[139.598909,35.959382],[139.59861,35.960094],[139.59783,35.961935],[139.597557,35.962479],[139.597274,35.962955],[139.596973,35.963386],[139.596464,35.964012],[139.590348,35.971168],[139.589483,35.972234],[139.588719,35.973132],[139.587649,35.974396],[139.587086,35.975048],[139.586701,35.975484],[139.58607,35.976248],[139.585328,35.977111],[139.585081,35.977363],[139.584501,35.977963],[139.57121,35.991781],[139.569818,35.993217],[139.569493,35.993531],[139.566565,35.996292],[139.566096,35.996713],[139.565444,35.997266],[139.56474,35.997912],[139.563889,35.998705],[139.562977,35.999562],[139.562092,36.000413],[139.561333,36.001129],[139.560719,36.001759],[139.559843,36.002578],[139.558905,36.003455],[139.550224,36.011574],[139.549612,36.012143],[139.549161,36.012571],[139.548776,36.012953],[139.548466,36.013294],[139.548157,36.013637],[139.547993,36.013825],[139.54775,36.014117],[139.541214,36.022169],[139.540519,36.023019],[139.53989,36.023792],[139.53668,36.027502],[139.536329,36.027931],[139.536173,36.028135],[139.535985,36.028396],[139.535403,36.029247],[139.535001,36.029931],[139.534747,36.030339],[139.534121,36.031332],[139.533614,36.032148],[139.533093,36.032987],[139.532528,36.033888],[139.53198,36.034738],[139.531537,36.03546],[139.531206,36.035891],[139.531021,36.036119],[139.530836,36.036329],[139.530598,36.036598],[139.523299,36.044354],[139.522759,36.044923],[139.521792,36.04594],[139.521164,36.046569],[139.520252,36.047476],[139.51947,36.048243],[139.512701,36.055128],[139.512304,36.055594],[139.511714,36.056326],[139.510839,36.057427],[139.510237,36.058219],[139.509471,36.059271],[139.508965,36.059961],[139.508212,36.061057],[139.507746,36.061756],[139.507349,36.062317],[139.506963,36.062846],[139.503769,36.067229],[139.5035,36.067557],[139.503224,36.067849],[139.502963,36.068084],[139.502702,36.068304],[139.502421,36.068502],[139.501998,36.068769],[139.501568,36.069028],[139.488166,36.076951],[139.487429,36.077374],[139.486956,36.077625],[139.486281,36.077956],[139.48513,36.078502],[139.484166,36.078949],[139.483814,36.079131],[139.483481,36.079309],[139.483104,36.079558],[139.482741,36.079816],[139.482388,36.080093],[139.482088,36.080369],[139.48175,36.080722],[139.474965,36.087453],[139.474678,36.087682],[139.474318,36.087929],[139.4739,36.088215],[139.473501,36.088429],[139.472825,36.088778],[139.466998,36.091695],[139.466651,36.09192],[139.466373,36.092111],[139.466093,36.092335],[139.465859,36.092548],[139.465679,36.092724],[139.465529,36.092894],[139.465284,36.093179],[139.46497,36.09359],[139.460476,36.099541],[139.460142,36.099899],[139.459859,36.100159],[139.459563,36.100377],[139.459226,36.100588],[139.458825,36.100787],[139.458502,36.100923],[139.456549,36.101726],[139.455242,36.102308],[139.451689,36.103818],[139.450597,36.104253],[139.450032,36.104464],[139.449591,36.104598],[139.449104,36.104716],[139.448517,36.104827],[139.4477,36.104938],[139.443241,36.105462],[139.44274,36.105545],[139.442178,36.105661],[139.441634,36.105806],[139.441032,36.105997],[139.440393,36.106218],[139.439866,36.106468],[139.439341,36.106812],[139.439089,36.107038],[139.435697,36.110295],[139.434287,36.1117],[139.432908,36.113075],[139.430741,36.115336],[139.429702,36.116403],[139.429313,36.116742],[139.428798,36.117134],[139.4284,36.117402],[139.421782,36.121733],[139.421295,36.122025],[139.420413,36.122492],[139.419817,36.122806],[139.418544,36.123404],[139.407708,36.128527],[139.407124,36.12882],[139.406762,36.129011],[139.406129,36.129374],[139.405566,36.129746],[139.40479,36.130325],[139.396702,36.136539],[139.395563,36.137394],[139.39527,36.137556],[139.394743,36.137803],[139.393815,36.138167],[139.392043,36.138794],[139.390721,36.139302],[139.38745,36.140479],[139.386772,36.140809],[139.38578,36.141235],[139.385337,36.141434],[139.384585,36.141694],[139.382574,36.142401],[139.380114,36.143274],[139.37945,36.143569],[139.37901,36.143801],[139.37844,36.144144],[139.377996,36.144451],[139.377605,36.144759],[139.377229,36.145102],[139.368665,36.15307],[139.367546,36.154118],[139.366919,36.154631],[139.366377,36.155054],[139.365872,36.155409],[139.365136,36.155901],[139.363364,36.157007],[139.362277,36.157615],[139.36058,36.158539],[139.358165,36.159851],[139.352302,36.163041],[139.350048,36.164254],[139.34926,36.164654],[139.347371,36.16555],[139.346791,36.165842],[139.335043,36.172192],[139.33328,36.173121],[139.330532,36.174504],[139.329586,36.174894],[139.328273,36.175465],[139.325958,36.17643],[139.322012,36.178019],[139.315525,36.180726],[139.303035,36.185888],[139.302316,36.186155],[139.3018,36.186301],[139.301242,36.186451],[139.284837,36.190597],[139.282937,36.191064],[139.279435,36.19194],[139.275816,36.192868],[139.271491,36.193991],[139.271032,36.194083],[139.270581,36.194154],[139.269844,36.194236],[139.263521,36.194931],[139.262538,36.195106],[139.261662,36.195305],[139.260804,36.195555],[139.260028,36.195835],[139.259413,36.196078],[139.258632,36.196422],[139.241521,36.203993],[139.238384,36.205379],[139.235667,36.206585],[139.233696,36.207457],[139.23211,36.208188],[139.231236,36.208639],[139.23048,36.209084],[139.223623,36.21363],[139.223216,36.213891],[139.222454,36.214302],[139.22192,36.214543],[139.220989,36.214895],[139.218989,36.215617],[139.218585,36.215748],[139.216952,36.216232],[139.216046,36.216522],[139.213924,36.217279],[139.213373,36.217498],[139.212778,36.217763],[139.212247,36.218044],[139.211641,36.218414],[139.211046,36.218814],[139.210528,36.219198],[139.209984,36.21967],[139.209332,36.22027],[139.205148,36.224109],[139.198863,36.229764],[139.196007,36.232343],[139.195529,36.232762],[139.195136,36.233075],[139.194729,36.233327],[139.194335,36.233545],[139.193964,36.233708],[139.191455,36.234829],[139.189677,36.235615],[139.186196,36.237186],[139.184928,36.237777],[139.183712,36.238298],[139.152973,36.251927],[139.149409,36.253526],[139.146157,36.25497],[139.131915,36.261307],[139.130752,36.261847],[139.129334,36.262496],[139.128215,36.262982],[139.126469,36.263668],[139.125586,36.263998],[139.124798,36.264336],[139.123624,36.264851],[139.119322,36.266769],[139.118653,36.267045],[139.117343,36.267633],[139.116266,36.268103],[139.114802,36.268806],[139.112156,36.270064],[139.111437,36.270419],[139.109947,36.271086],[139.106386,36.272588],[139.102992,36.274088],[139.101823,36.274638],[139.100462,36.275243],[139.097565,36.276505],[139.087552,36.280954],[139.08697,36.281173],[139.086326,36.281389],[139.085552,36.281632],[139.084307,36.281942],[139.082904,36.282274],[139.075328,36.283999],[139.074659,36.284155],[139.07378,36.284365],[139.073187,36.284554],[139.072765,36.2847],[139.072621,36.284756],[139.072181,36.284984],[139.071713,36.285291],[139.071419,36.285537],[139.071128,36.285812],[139.07097,36.285987],[139.070789,36.286204],[139.070617,36.286448],[139.070395,36.286839],[139.070207,36.287233],[139.070048,36.287605],[139.069854,36.288137],[139.068429,36.291892],[139.068267,36.292198],[139.067959,36.29268],[139.067646,36.293049],[139.067285,36.293412],[139.066998,36.293664],[139.066367,36.294099],[139.06594,36.294328],[139.065174,36.294661],[139.064426,36.294933],[139.058092,36.297221],[139.049368,36.300377],[139.043708,36.302444],[139.040606,36.303574],[139.037473,36.304973],[139.035093,36.305911],[139.033468,36.30652],[139.032343,36.30684],[139.03041,36.307425],[139.029286,36.307771],[139.028649,36.308014],[139.028105,36.308233],[139.025028,36.309758],[139.023997,36.310286],[139.022972,36.310799],[139.022443,36.311071],[139.021545,36.311515],[139.019953,36.312336],[139.018874,36.312902],[139.017677,36.313532],[139.016295,36.314277],[139.015157,36.314888],[139.01429,36.315461],[139.013847,36.315795],[139.013624,36.316014],[139.013353,36.31635],[139.01313,36.316702],[139.012907,36.317148],[139.012763,36.317648],[139.012676,36.318352],[139.012641,36.319006],[139.01267,36.319889],[139.012722,36.320675],[139.012732,36.321238],[139.012701,36.321666],[139.012662,36.322174],[139.012607,36.323074],[139.01258,36.323539],[139.01258,36.323539],[139.01258,36.323539]]}}]}