{"type":"FeatureCollection","features":[{"type":"Feature","properties":{"id":"JR-East.Tokaido","ja":"東海道線","en":"Tokaido Line","color":"#F68B1E"},"geometry":{"type":"LineString","coordinates":[[139.076554,35.102946],[139.077089,35.103291],[139.077593,35.103635],[139.079374,35.104872],[139.079964,35.10524],[139.080846,35.105751],[139.081282,35.106068],[139.081687,35.106336],[139.082246,35.106727],[139.082765,35.10718],[139.083148,35.107601],[139.083384,35.107931],[139.083636,35.108338],[139.083793,35.108627],[139.083853,35.108822],[139.083917,35.109138],[139.083942,35.10937],[139.083936,35.110464],[139.083939,35.110616],[139.083956,35.110964],[139.083987,35.111217],[139.084044,35.111475],[139.084154,35.111803],[139.084292,35.112109],[139.084423,35.112351],[139.08462,35.112633],[139.084853,35.112895],[139.085101,35.113157],[139.085488,35.113442],[139.0857,35.113592],[139.086302,35.113927],[139.088539,35.115108],[139.088818,35.115325],[139.089215,35.115691],[139.089553,35.116099],[139.089881,35.116632],[139.090113,35.117217],[139.090248,35.117783],[139.095627,35.140434],[139.095901,35.141584],[139.096069,35.142109],[139.096291,35.14254],[139.096678,35.143105],[139.097147,35.143596],[139.097673,35.144013],[139.098198,35.144326],[139.098973,35.144746],[139.100133,35.145292],[139.105196,35.14771],[139.105565,35.147905],[139.106009,35.148141],[139.106147,35.148219],[139.106392,35.148384],[139.106661,35.148609],[139.107028,35.148955],[139.107307,35.14925],[139.107536,35.149531],[139.107615,35.14965],[139.10929,35.152426],[139.109454,35.15268],[139.109671,35.152968],[139.109875,35.153194],[139.110144,35.153445],[139.110502,35.153713],[139.110822,35.153906],[139.111206,35.154103],[139.111677,35.154279],[139.11208,35.154381],[139.112412,35.154446],[139.11271,35.154486],[139.112997,35.154509],[139.113252,35.154521],[139.113607,35.154505],[139.114,35.154481],[139.114384,35.154425],[139.114666,35.154355],[139.114971,35.154259],[139.115297,35.15413],[139.116504,35.153659],[139.116892,35.153539],[139.117303,35.153425],[139.117854,35.153298],[139.118368,35.15322],[139.118835,35.153176],[139.119379,35.15316],[139.119776,35.153158],[139.120237,35.153183],[139.12078,35.153242],[139.121322,35.153337],[139.121796,35.15344],[139.122459,35.153606],[139.124019,35.154038],[139.129171,35.155452],[139.130097,35.155728],[139.130577,35.155917],[139.131213,35.15622],[139.131669,35.156493],[139.132195,35.156887],[139.132885,35.157481],[139.133345,35.157954],[139.134043,35.158676],[139.134681,35.159356],[139.136015,35.160796],[139.136213,35.161056],[139.136392,35.161332],[139.136555,35.161676],[139.136674,35.161954],[139.136738,35.162193],[139.136784,35.162436],[139.136804,35.162663],[139.136834,35.162949],[139.136824,35.16326],[139.136834,35.163454],[139.13685,35.163665],[139.136885,35.163933],[139.136908,35.164114],[139.136967,35.164335],[139.137083,35.164679],[139.137238,35.165038],[139.137604,35.165815],[139.13768,35.165987],[139.137769,35.166295],[139.137861,35.166674],[139.137891,35.167036],[139.137908,35.16762],[139.137837,35.168297],[139.137754,35.16874],[139.137678,35.169021],[139.137516,35.16951],[139.137304,35.170005],[139.136965,35.170609],[139.13673,35.170959],[139.133782,35.175155],[139.133578,35.175491],[139.133228,35.176129],[139.133043,35.176659],[139.132897,35.177044],[139.132788,35.177531],[139.13271,35.178025],[139.132684,35.17853],[139.132707,35.179199],[139.132804,35.179829],[139.132976,35.180474],[139.133223,35.181122],[139.133651,35.181911],[139.135171,35.184398],[139.13561,35.185132],[139.135777,35.185455],[139.135928,35.185828],[139.136014,35.186134],[139.136054,35.18636],[139.136107,35.186745],[139.136117,35.187021],[139.13638,35.194186],[139.136354,35.194518],[139.136318,35.194822],[139.136235,35.195162],[139.136144,35.195472],[139.135823,35.196472],[139.13574,35.196837],[139.135708,35.197284],[139.135732,35.197724],[139.135779,35.198022],[139.135973,35.198562],[139.136213,35.199005],[139.13665,35.199647],[139.138607,35.202539],[139.139344,35.20364],[139.139929,35.20457],[139.140319,35.205255],[139.140486,35.205631],[139.140596,35.20596],[139.14069,35.206463],[139.140883,35.208189],[139.140883,35.208449],[139.140857,35.208774],[139.140821,35.209033],[139.140758,35.209294],[139.140647,35.209615],[139.140493,35.209953],[139.140338,35.21019],[139.140129,35.210437],[139.13993,35.210673],[139.139038,35.211616],[139.138805,35.212016],[139.138579,35.212567],[139.13849,35.212997],[139.138453,35.213466],[139.138469,35.213771],[139.138505,35.214031],[139.138578,35.214339],[139.138713,35.214712],[139.138883,35.215042],[139.139106,35.215387],[139.139376,35.215705],[139.13973,35.216042],[139.140124,35.216344],[139.140643,35.216746],[139.140971,35.217042],[139.14119,35.217298],[139.141281,35.217414],[139.141419,35.217619],[139.141555,35.217842],[139.141671,35.218086],[139.141741,35.21828],[139.141812,35.218497],[139.14187,35.218739],[139.141907,35.218962],[139.141928,35.219269],[139.141922,35.219563],[139.141858,35.219928],[139.141789,35.22024],[139.141417,35.221406],[139.141281,35.221821],[139.14084,35.223217],[139.14062,35.224027],[139.140588,35.224441],[139.140588,35.22478],[139.140635,35.225135],[139.140702,35.22548],[139.140808,35.22584],[139.140972,35.226207],[139.141208,35.226675],[139.14155,35.227318],[139.141813,35.228044],[139.141903,35.228586],[139.142195,35.230879],[139.142214,35.231278],[139.142192,35.231648],[139.142154,35.232132],[139.142122,35.232988],[139.142144,35.233222],[139.142196,35.2335],[139.142305,35.233851],[139.14245,35.234196],[139.14262,35.234493],[139.143066,35.235111],[139.143776,35.236103],[139.143916,35.236346],[139.144042,35.236563],[139.144281,35.237114],[139.145845,35.240582],[139.146229,35.241415],[139.146554,35.242015],[139.150113,35.247789],[139.152249,35.251243],[139.153172,35.252575],[139.154888,35.254883],[139.156209,35.256689],[139.157154,35.257934],[139.157611,35.258508],[139.158032,35.258987],[139.158361,35.259386],[139.158725,35.259865],[139.159096,35.260351],[139.1593,35.260607],[139.159763,35.26111],[139.160416,35.261749],[139.161057,35.262362],[139.16234,35.263567],[139.163632,35.264807],[139.164691,35.265846],[139.165426,35.266493],[139.166615,35.267576],[139.167767,35.268654],[139.168684,35.269534],[139.172238,35.272903],[139.172974,35.273516],[139.173594,35.273938],[139.174473,35.27441],[139.175173,35.27469],[139.175768,35.274906],[139.176548,35.275113],[139.177365,35.275265],[139.17859,35.27547],[139.182488,35.27611],[139.18375,35.276346],[139.184355,35.276438],[139.196659,35.278437],[139.197689,35.278596],[139.19831,35.278681],[139.200573,35.278997],[139.201769,35.279193],[139.208042,35.280228],[139.210529,35.280581],[139.213798,35.281158],[139.216363,35.281572],[139.217049,35.281704],[139.217777,35.281901],[139.218848,35.282275],[139.220079,35.282798],[139.221871,35.283623],[139.22394,35.28455],[139.224719,35.284961],[139.225284,35.285331],[139.230015,35.288642],[139.230639,35.289072],[139.231316,35.289499],[139.232022,35.289893],[139.232755,35.290288],[139.233651,35.290709],[139.235197,35.291337],[139.236657,35.291908],[139.240049,35.293251],[139.24228,35.294102],[139.24303,35.294366],[139.24372,35.294595],[139.244923,35.294954],[139.246176,35.295289],[139.253656,35.2973],[139.254219,35.297451],[139.255012,35.297712],[139.256025,35.298129],[139.258729,35.299227],[139.259272,35.299476],[139.259664,35.299631],[139.26056,35.299991],[139.264328,35.301497],[139.270787,35.304098],[139.271344,35.304307],[139.271956,35.304505],[139.272874,35.304763],[139.273684,35.304937],[139.274325,35.305022],[139.275615,35.305193],[139.288224,35.3067],[139.294004,35.307435],[139.302328,35.308444],[139.303606,35.30861],[139.306973,35.309028],[139.308217,35.30922],[139.308988,35.309343],[139.309401,35.309425],[139.310033,35.309589],[139.310708,35.30981],[139.311523,35.310167],[139.312464,35.310708],[139.314995,35.312364],[139.31601,35.31304],[139.317337,35.313905],[139.318668,35.314765],[139.324384,35.318488],[139.326073,35.31961],[139.326859,35.320076],[139.327619,35.320482],[139.328106,35.320705],[139.328601,35.320913],[139.331978,35.3223],[139.335187,35.323617],[139.339924,35.325564],[139.340866,35.325863],[139.341755,35.326023],[139.343764,35.326367],[139.346491,35.326871],[139.347354,35.327048],[139.348489,35.327267],[139.350422,35.32762],[139.352621,35.328072],[139.35363,35.328347],[139.355286,35.328722],[139.357129,35.329131],[139.360148,35.329696],[139.361199,35.329847],[139.362336,35.330106],[139.362918,35.330246],[139.363891,35.330447],[139.371028,35.331749],[139.372016,35.331918],[139.372651,35.331985],[139.3733,35.332005],[139.373892,35.331966],[139.374441,35.331896],[139.37499,35.33178],[139.375709,35.331575],[139.376222,35.331376],[139.376702,35.331207],[139.377536,35.330949],[139.382752,35.32928],[139.383276,35.329111],[139.384069,35.328896],[139.384711,35.328754],[139.385405,35.328631],[139.386372,35.328503],[139.388835,35.328168],[139.392251,35.327727],[139.394799,35.327377],[139.395608,35.327287],[139.396416,35.327257],[139.397298,35.327293],[139.39807,35.327378],[139.39867,35.327488],[139.399488,35.327701],[139.40007,35.327893],[139.400596,35.32808],[139.403591,35.329153],[139.405642,35.329811],[139.407606,35.330481],[139.408896,35.330949],[139.409924,35.331324],[139.41083,35.331677],[139.412088,35.332204],[139.412507,35.332379],[139.412947,35.332542],[139.413833,35.332864],[139.415079,35.333315],[139.416755,35.333913],[139.41883,35.334651],[139.420177,35.335125],[139.420705,35.335287],[139.421285,35.335418],[139.421896,35.335524],[139.422732,35.33561],[139.423394,35.335652],[139.424067,35.335681],[139.44283,35.336614],[139.443726,35.336668],[139.444633,35.336733],[139.445637,35.336795],[139.446752,35.336865],[139.448561,35.336952],[139.449675,35.336968],[139.450624,35.337013],[139.451695,35.337067],[139.469191,35.337937],[139.477936,35.338385],[139.486692,35.338781],[139.487961,35.33884],[139.48849,35.33884],[139.48885,35.338828],[139.4892,35.338774],[139.489947,35.338591],[139.499621,35.336028],[139.500093,35.335906],[139.500584,35.335838],[139.501142,35.335798],[139.501659,35.335802],[139.502075,35.335831],[139.502457,35.335875],[139.503032,35.336004],[139.503586,35.336174],[139.504109,35.336387],[139.504495,35.336593],[139.508669,35.338826],[139.517286,35.343479],[139.524006,35.347087],[139.526078,35.348207],[139.527845,35.349178],[139.528472,35.349606],[139.528943,35.35004],[139.529354,35.350552],[139.529674,35.351081],[139.530084,35.351894],[139.530557,35.352879],[139.531137,35.354269],[139.531524,35.355241],[139.531645,35.355672],[139.531698,35.355965],[139.531718,35.356427],[139.531704,35.356713],[139.531634,35.357123],[139.531542,35.357452],[139.531421,35.357747],[139.531298,35.357979],[139.531157,35.358183],[139.531012,35.358376],[139.530888,35.358521],[139.530011,35.359617],[139.529813,35.359911],[139.529626,35.360276],[139.529471,35.360657],[139.529381,35.36102],[139.529336,35.361437],[139.529345,35.36179],[139.529411,35.362205],[139.529541,35.362619],[139.529784,35.363409],[139.530133,35.364571],[139.530308,35.365132],[139.53035,35.365434],[139.530376,35.365697],[139.530365,35.365974],[139.530325,35.366375],[139.530254,35.366781],[139.530122,35.367239],[139.529527,35.369519],[139.529479,35.369749],[139.529456,35.369994],[139.529456,35.370371],[139.529505,35.370728],[139.529579,35.371027],[139.529689,35.37134],[139.529978,35.371883],[139.530666,35.372994],[139.530997,35.373611],[139.531306,35.374192],[139.531561,35.374704],[139.53202,35.375604],[139.532392,35.376346],[139.532747,35.377035],[139.533331,35.378122],[139.533525,35.378535],[139.533742,35.379043],[139.533918,35.379498],[139.534055,35.379918],[139.534233,35.380468],[139.534381,35.381073],[139.534487,35.381615],[139.534568,35.382178],[139.53465,35.382927],[139.534931,35.385511],[139.535048,35.386647],[139.535199,35.388124],[139.535379,35.390068],[139.535558,35.39175],[139.535752,35.393504],[139.535825,35.394334],[139.535841,35.394671],[139.535815,35.395173],[139.535766,35.395586],[139.535691,35.39602],[139.535531,35.396581],[139.535298,35.397351],[139.535023,35.398231],[139.534766,35.399044],[139.534214,35.400764],[139.533888,35.401842],[139.533801,35.402267],[139.533731,35.402837],[139.533715,35.40336],[139.53374,35.403935],[139.533847,35.404926],[139.533934,35.405521],[139.534061,35.406108],[139.534226,35.40679],[139.534398,35.407548],[139.534553,35.40833],[139.534703,35.409136],[139.534803,35.409538],[139.534925,35.409928],[139.535171,35.41052],[139.535549,35.411196],[139.535866,35.411656],[139.53622,35.412068],[139.536418,35.412285],[139.536779,35.412614],[139.537211,35.412948],[139.538082,35.413517],[139.539156,35.414217],[139.540281,35.414914],[139.541298,35.415504],[139.542335,35.416075],[139.550705,35.42052],[139.552153,35.421285],[139.552731,35.421668],[139.552941,35.421818],[139.553301,35.422112],[139.553767,35.422523],[139.554218,35.422991],[139.554567,35.423421],[139.554906,35.423916],[139.555099,35.424275],[139.555357,35.424813],[139.556552,35.427419],[139.556795,35.428064],[139.556898,35.428565],[139.556923,35.428916],[139.556926,35.429349],[139.556921,35.43176],[139.556964,35.432166],[139.557073,35.432671],[139.557242,35.433187],[139.557476,35.433689],[139.557667,35.433997],[139.557882,35.434322],[139.558229,35.434741],[139.558724,35.435312],[139.56148,35.438384],[139.561959,35.438839],[139.56238,35.439168],[139.562877,35.439479],[139.563508,35.439817],[139.572211,35.444224],[139.575295,35.445786],[139.577005,35.446647],[139.57759,35.446826],[139.578035,35.446924],[139.578567,35.446985],[139.579079,35.446999],[139.579635,35.446955],[139.58011,35.446881],[139.594698,35.444893],[139.595107,35.444844],[139.595499,35.444826],[139.595853,35.444836],[139.596294,35.444877],[139.596733,35.444945],[139.597404,35.445117],[139.598066,35.445364],[139.598592,35.445647],[139.599153,35.446016],[139.599495,35.446287],[139.599991,35.44677],[139.600764,35.447552],[139.602112,35.448887],[139.603238,35.449894],[139.603767,35.450315],[139.60439,35.450762],[139.605055,35.45119],[139.606354,35.451916],[139.607614,35.452604],[139.609261,35.453518],[139.610968,35.454462],[139.611601,35.454818],[139.612061,35.455119],[139.612471,35.455396],[139.612762,35.45563],[139.613286,35.456117],[139.613709,35.456556],[139.614234,35.457114],[139.615097,35.458052],[139.61588,35.45891],[139.617047,35.460158],[139.61823,35.46145],[139.619553,35.462892],[139.620248,35.463633],[139.6206,35.464017],[139.62132,35.464746],[139.622506,35.46596],[139.623149,35.466675],[139.623596,35.467213],[139.62382,35.467513],[139.624363,35.468105],[139.624799,35.46863],[139.625031,35.468908],[139.625592,35.469624],[139.625983,35.470119],[139.626381,35.470557],[139.62686,35.471106],[139.627331,35.471611],[139.628016,35.472371],[139.6294,35.473891],[139.630493,35.475105],[139.633199,35.478127],[139.635066,35.480145],[139.636322,35.481477],[139.636783,35.48193],[139.637104,35.482191],[139.637555,35.482501],[139.638154,35.482804],[139.638642,35.482991],[139.639159,35.483169],[139.640003,35.483456],[139.643828,35.48474],[139.644192,35.48486],[139.644678,35.484992],[139.6453,35.485115],[139.646423,35.485308],[139.647222,35.485414],[139.647863,35.485462],[139.648779,35.485493],[139.649402,35.485527],[139.649916,35.485565],[139.650429,35.485634],[139.65092,35.485728],[139.651508,35.485873],[139.652053,35.48604],[139.652601,35.48624],[139.653105,35.486462],[139.653596,35.486707],[139.653982,35.486911],[139.654707,35.487284],[139.656272,35.488099],[139.660161,35.490129],[139.66048,35.490333],[139.660713,35.490486],[139.660993,35.490701],[139.661609,35.491207],[139.662144,35.491688],[139.663158,35.49259],[139.66418,35.493508],[139.664841,35.494082],[139.666443,35.49542],[139.667251,35.496082],[139.668078,35.496765],[139.669072,35.497586],[139.670425,35.49872],[139.671014,35.499219],[139.671748,35.499856],[139.672312,35.500345],[139.672828,35.500796],[139.673482,35.501385],[139.673738,35.50165],[139.674112,35.502072],[139.674511,35.502608],[139.674792,35.503076],[139.674992,35.50342],[139.67512,35.503719],[139.675266,35.504055],[139.6754,35.504533],[139.675547,35.505133],[139.675713,35.505875],[139.675898,35.506599],[139.676121,35.507581],[139.676321,35.50843],[139.676726,35.510146],[139.676894,35.510819],[139.677105,35.511534],[139.677487,35.512588],[139.677826,35.513474],[139.678039,35.513866],[139.679512,35.516376],[139.679726,35.516641],[139.680122,35.517098],[139.680501,35.51745],[139.681118,35.517987],[139.681889,35.518634],[139.682812,35.519405],[139.691091,35.526335],[139.6929,35.527849],[139.693792,35.528598],[139.69482,35.529469],[139.696005,35.530455],[139.69694,35.531245],[139.698624,35.532643],[139.699604,35.533455],[139.700711,35.534382],[139.701776,35.535288],[139.702396,35.535832],[139.702782,35.53626],[139.703097,35.536638],[139.706624,35.540843],[139.706828,35.541107],[139.707207,35.541667],[139.70756,35.542213],[139.707831,35.542731],[139.70816,35.543402],[139.708439,35.544066],[139.709001,35.54541],[139.710298,35.548524],[139.711142,35.550556],[139.712132,35.552929],[139.713872,35.557107],[139.714813,35.559369],[139.715313,35.560527],[139.715991,35.56203],[139.716313,35.56284],[139.716488,35.563294],[139.716696,35.563878],[139.717197,35.565098],[139.717708,35.566339],[139.718636,35.568586],[139.724322,35.582169],[139.724702,35.583072],[139.725013,35.583816],[139.72522,35.584275],[139.725449,35.584719],[139.725852,35.585379],[139.726201,35.585897],[139.726838,35.586845],[139.727776,35.58813],[139.728556,35.589311],[139.729097,35.590196],[139.729443,35.590796],[139.730048,35.591759],[139.73259,35.595737],[139.733311,35.596887],[139.73355,35.597316],[139.733723,35.597732],[139.733895,35.59825],[139.73399,35.598633],[139.734081,35.599029],[139.734133,35.599448],[139.734242,35.600307],[139.734955,35.605993],[139.735132,35.607364],[139.735302,35.608686],[139.736002,35.613919],[139.736044,35.614256],[139.736168,35.614815],[139.736329,35.615399],[139.737294,35.618836],[139.737544,35.619914],[139.73787,35.621164],[139.738299,35.62277],[139.738542,35.623717],[139.738662,35.624248],[139.7388,35.624865],[139.738908,35.62539],[139.739067,35.626029],[139.739162,35.626969],[139.739179,35.627563],[139.739185,35.628417],[139.739209,35.629643],[139.739319,35.630198],[139.739676,35.631445],[139.739826,35.632394],[139.74005,35.633273],[139.740582,35.634551],[139.741055,35.635685],[139.741467,35.636672],[139.741901,35.637715],[139.742296,35.638649],[139.742759,35.639805],[139.742981,35.640758],[139.743277,35.641757],[139.743451,35.64232],[139.743614,35.642701],[139.743835,35.643097],[139.744048,35.643375],[139.744266,35.643611],[139.744603,35.643927],[139.745097,35.644275],[139.745612,35.644554],[139.74681,35.645146],[139.748107,35.645758],[139.749486,35.646425],[139.750944,35.647135],[139.752451,35.647849],[139.752854,35.648053],[139.753218,35.648285],[139.753788,35.648692],[139.754377,35.649152],[139.75469,35.649446],[139.755138,35.649949],[139.755415,35.650324],[139.75573,35.650823],[139.75591,35.651148],[139.756196,35.651772],[139.756316,35.652067],[139.756607,35.652955],[139.756939,35.654053],[139.757218,35.654954],[139.757593,35.656337],[139.757828,35.657491],[139.757962,35.658089],[139.758384,35.659836],[139.758598,35.660883],[139.758682,35.661573],[139.758707,35.662188],[139.758703,35.662801],[139.758667,35.663295],[139.758583,35.664006],[139.758499,35.664544],[139.758451,35.66502],[139.758443,35.665671],[139.758309,35.666781],[139.758214,35.667515],[139.758224,35.667861],[139.758262,35.668179],[139.758316,35.668449],[139.758394,35.668669],[139.758539,35.669037],[139.758795,35.669498],[139.759129,35.6701],[139.760405,35.672361],[139.760678,35.67277],[139.761031,35.673166],[139.761483,35.673588],[139.762065,35.674027],[139.762757,35.674508],[139.76332,35.67493],[139.763865,35.675371],[139.7641,35.675579],[139.764528,35.675956],[139.764896,35.67638],[139.765062,35.676643],[139.765374,35.677177],[139.765645,35.677722],[139.765994,35.678324],[139.766617,35.679818],[139.766939,35.680711],[139.767404,35.681952],[139.76756,35.682577],[139.76756,35.682577],[139.76756,35.682577]]}}]}