{"type":"FeatureCollection","features":[{"type":"Feature","properties":{"id":"JR-East.Utsunomiya","ja":"宇都宮線","en":"Utsunomiya Line","color":"#F68B1E"},"geometry":{"type":"LineString","coordinates":[[139.766267,35.67969],[139.766472,35.68005],[139.766583,35.68031],[139.766997,35.681418],[139.767287,35.682201],[139.767452,35.682761],[139.767684,35.683294],[139.768038,35.684091],[139.768449,35.685074],[139.768685,35.685644],[139.768874,35.686166],[139.769382,35.687548],[139.769706,35.688328],[139.770029,35.689117],[139.770229,35.689597],[139.770395,35.690017],[139.770557,35.690406],[139.770767,35.690873],[139.771023,35.691379],[139.771269,35.691881],[139.771445,35.692261],[139.771556,35.692615],[139.771713,35.693109],[139.771821,35.693375],[139.77208,35.693964],[139.772329,35.694575],[139.772506,35.69505],[139.77268,35.695517],[139.772773,35.695789],[139.772847,35.696084],[139.772917,35.696422],[139.773093,35.69723],[139.773217,35.697873],[139.773339,35.698995],[139.773345,35.699796],[139.77339,35.700206],[139.773527,35.701168],[139.773558,35.701449],[139.773661,35.70187],[139.773815,35.702335],[139.774089,35.703127],[139.774171,35.703378],[139.774298,35.704057],[139.774634,35.705995],[139.774745,35.706514],[139.774872,35.707204],[139.775,35.70792],[139.775076,35.708425],[139.77508,35.708777],[139.775045,35.709167],[139.774981,35.709544],[139.774893,35.71003],[139.774834,35.710394],[139.774853,35.710855],[139.774935,35.711195],[139.775124,35.711636],[139.775484,35.712207],[139.775922,35.712852],[139.776537,35.713734],[139.777129,35.714595],[139.777528,35.715102],[139.77799,35.715617],[139.778778,35.716506],[139.779097,35.716864],[139.779442,35.71728],[139.779684,35.717671],[139.779792,35.717968],[139.779908,35.718405],[139.779945,35.718911],[139.779903,35.719265],[139.77982,35.719642],[139.779707,35.719936],[139.779511,35.720266],[139.779324,35.720527],[139.77906,35.720855],[139.778568,35.721402],[139.778151,35.72181],[139.777348,35.722432],[139.776691,35.722993],[139.776061,35.723579],[139.77517,35.724392],[139.774357,35.725143],[139.773836,35.725624],[139.773339,35.726023],[139.772744,35.726436],[139.772116,35.726956],[139.771214,35.727746],[139.770257,35.728572],[139.769704,35.729086],[139.769019,35.729769],[139.768524,35.730344],[139.767615,35.731503],[139.767207,35.732192],[139.766768,35.733195],[139.766432,35.734036],[139.766164,35.734774],[139.765944,35.735354],[139.765702,35.736075],[139.76545,35.736805],[139.765303,35.737204],[139.764867,35.738405],[139.764604,35.739009],[139.76439,35.739411],[139.764065,35.739926],[139.763636,35.740543],[139.763223,35.741016],[139.762859,35.741388],[139.762456,35.741752],[139.762189,35.741976],[139.761853,35.742223],[139.761492,35.742471],[139.761017,35.742757],[139.760196,35.743258],[139.758142,35.744511],[139.757404,35.744981],[139.756475,35.745561],[139.755507,35.746156],[139.755083,35.746343],[139.753159,35.747113],[139.751893,35.747605],[139.750656,35.748113],[139.750046,35.74835],[139.748856,35.748806],[139.74839,35.748946],[139.747694,35.749105],[139.747076,35.749184],[139.74588,35.749273],[139.743811,35.749434],[139.743255,35.749488],[139.74282,35.749558],[139.742285,35.749674],[139.741563,35.749896],[139.741159,35.750064],[139.740711,35.750311],[139.7403,35.750582],[139.739437,35.751199],[139.738785,35.751683],[139.73834,35.752081],[139.737782,35.752659],[139.737338,35.753151],[139.736155,35.754561],[139.73584,35.754953],[139.734223,35.757234],[139.733687,35.757992],[139.733525,35.758178],[139.733308,35.758415],[139.733102,35.758614],[139.732795,35.758871],[139.732455,35.759121],[139.729399,35.761284],[139.728569,35.761891],[139.727987,35.762363],[139.72757,35.762753],[139.727118,35.763247],[139.726825,35.763623],[139.726648,35.76388],[139.726068,35.764845],[139.725964,35.765001],[139.724792,35.767111],[139.7241,35.768351],[139.722808,35.770639],[139.722665,35.770902],[139.722556,35.771171],[139.722443,35.771496],[139.722368,35.771834],[139.722329,35.77214],[139.722289,35.772748],[139.722256,35.773371],[139.722195,35.775363],[139.722135,35.775754],[139.722047,35.776111],[139.721856,35.776546],[139.721424,35.777194],[139.720432,35.778682],[139.719963,35.779363],[139.719471,35.780057],[139.719361,35.780255],[139.719057,35.780857],[139.717983,35.783065],[139.717839,35.783389],[139.717621,35.783879],[139.717392,35.784434],[139.717133,35.785045],[139.717022,35.785415],[139.716943,35.785765],[139.716895,35.786099],[139.716884,35.78641],[139.716903,35.786806],[139.716946,35.787183],[139.717002,35.787717],[139.717216,35.789548],[139.717824,35.794886],[139.71792,35.795613],[139.718094,35.796547],[139.718135,35.796796],[139.718286,35.797986],[139.718328,35.798764],[139.718319,35.799202],[139.718254,35.799734],[139.718136,35.800211],[139.717969,35.800662],[139.717718,35.801236],[139.717434,35.801827],[139.717181,35.802202],[139.716695,35.802931],[139.716229,35.803517],[139.715822,35.803959],[139.715344,35.804436],[139.714583,35.805218],[139.713715,35.806063],[139.71239,35.807372],[139.711181,35.808567],[139.710583,35.809242],[139.710358,35.809491],[139.710047,35.809793],[139.708501,35.811369],[139.707427,35.812446],[139.706489,35.813394],[139.705132,35.814767],[139.704149,35.81574],[139.70041,35.819507],[139.699861,35.820058],[139.699385,35.820517],[139.699087,35.820775],[139.698587,35.82119],[139.698077,35.821579],[139.693193,35.825271],[139.692812,35.825581],[139.692457,35.825893],[139.691945,35.826383],[139.691213,35.827116],[139.690384,35.827967],[139.689241,35.829097],[139.688323,35.829998],[139.683583,35.834642],[139.683205,35.834992],[139.682788,35.835338],[139.682326,35.835689],[139.681815,35.836003],[139.680717,35.836668],[139.680351,35.836921],[139.680021,35.837179],[139.679706,35.837453],[139.679487,35.837668],[139.679029,35.838123],[139.674962,35.842198],[139.674479,35.842681],[139.674212,35.842941],[139.673907,35.843201],[139.672933,35.843967],[139.671731,35.84493],[139.671366,35.845231],[139.670991,35.845575],[139.670737,35.845836],[139.670067,35.846514],[139.667099,35.849547],[139.666812,35.849842],[139.666293,35.850366],[139.665726,35.85092],[139.665389,35.851211],[139.664997,35.851532],[139.66445,35.851944],[139.663788,35.852432],[139.661851,35.853848],[139.661137,35.854361],[139.660468,35.85485],[139.660192,35.855058],[139.659843,35.855367],[139.659312,35.855861],[139.658902,35.856318],[139.658602,35.856698],[139.658334,35.857156],[139.657983,35.857758],[139.656293,35.86034],[139.656046,35.860743],[139.655779,35.861169],[139.653447,35.86461],[139.652629,35.865821],[139.65223,35.866342],[139.651833,35.86678],[139.651583,35.867053],[139.651247,35.867382],[139.650963,35.867645],[139.650517,35.86804],[139.649819,35.868667],[139.649052,35.869365],[139.647403,35.870829],[139.646145,35.871965],[139.644687,35.87325],[139.644406,35.873513],[139.644058,35.873881],[139.643642,35.874368],[139.64338,35.874753],[139.643037,35.875332],[139.642834,35.875755],[139.642464,35.876573],[139.641181,35.87938],[139.639978,35.882191],[139.639466,35.883378],[139.63899,35.884405],[139.638866,35.884681],[139.638389,35.885693],[139.637604,35.887339],[139.637322,35.887959],[139.636816,35.889029],[139.636346,35.890037],[139.636049,35.890641],[139.635865,35.890951],[139.635599,35.891379],[139.635313,35.891765],[139.634843,35.892419],[139.634546,35.892808],[139.634113,35.893403],[139.633511,35.894228],[139.633033,35.894885],[139.632458,35.895668],[139.632227,35.895966],[139.631748,35.896551],[139.631127,35.897263],[139.630525,35.897857],[139.630038,35.898284],[139.629561,35.898717],[139.628841,35.89941],[139.62801,35.900186],[139.627412,35.900722],[139.627243,35.900914],[139.626942,35.901283],[139.626475,35.901929],[139.625971,35.902656],[139.625873,35.90283],[139.625408,35.903816],[139.624944,35.90475],[139.624648,35.905533],[139.623726,35.908098],[139.623574,35.908684],[139.623404,35.909138],[139.623216,35.909661],[139.623009,35.910389],[139.62285,35.910854],[139.622733,35.911246],[139.622639,35.911757],[139.622552,35.912525],[139.622547,35.912972],[139.622634,35.913416],[139.622736,35.913738],[139.622886,35.914096],[139.623081,35.914526],[139.623564,35.915468],[139.62407,35.916429],[139.624676,35.917577],[139.625001,35.918195],[139.625253,35.91872],[139.625401,35.919036],[139.625617,35.919449],[139.625938,35.92006],[139.626155,35.920476],[139.630513,35.928792],[139.630658,35.929088],[139.630882,35.929501],[139.631699,35.930978],[139.632398,35.932317],[139.632893,35.933306],[139.633238,35.933983],[139.633474,35.934471],[139.633679,35.934852],[139.633927,35.935321],[139.638421,35.943901],[139.638877,35.944816],[139.639142,35.945432],[139.639606,35.946746],[139.640612,35.94967],[139.640808,35.950382],[139.640889,35.950793],[139.640949,35.951237],[139.64103,35.951859],[139.641123,35.952762],[139.641194,35.953449],[139.641229,35.95397],[139.64136,35.95504],[139.641665,35.957858],[139.642012,35.960948],[139.642106,35.961718],[139.642217,35.962243],[139.642362,35.962699],[139.642581,35.963268],[139.642694,35.963508],[139.643011,35.964071],[139.650621,35.977285],[139.652308,35.980243],[139.653678,35.982627],[139.655012,35.984895],[139.655318,35.985291],[139.655604,35.985609],[139.655857,35.985859],[139.656195,35.986161],[139.656592,35.986458],[139.658296,35.98776],[139.658607,35.988065],[139.658884,35.988359],[139.659155,35.988682],[139.659407,35.989046],[139.659598,35.989357],[139.659816,35.989794],[139.659932,35.99007],[139.66007,35.990507],[139.662724,35.997858],[139.662879,35.998266],[139.663936,36.001166],[139.664053,36.001642],[139.664127,36.002023],[139.665304,36.008958],[139.665364,36.009239],[139.66546,36.009624],[139.666527,36.014255],[139.666614,36.014678],[139.66668,36.015052],[139.666725,36.015752],[139.666791,36.016705],[139.667086,36.021088],[139.667104,36.021503],[139.667115,36.021772],[139.667136,36.02207],[139.667291,36.024435],[139.667338,36.024888],[139.667372,36.025187],[139.667463,36.025581],[139.667626,36.026142],[139.668517,36.029054],[139.668733,36.029697],[139.669024,36.030393],[139.670509,36.033633],[139.671394,36.035546],[139.671645,36.036211],[139.671827,36.036914],[139.675268,36.06027],[139.675356,36.060742],[139.675452,36.06147],[139.675492,36.061731],[139.675646,36.062303],[139.675863,36.062855],[139.676373,36.06387],[139.67697,36.065026],[139.677599,36.06629],[139.678366,36.067795],[139.678937,36.068937],[139.679408,36.069817],[139.679682,36.070417],[139.679803,36.070708],[139.679964,36.071235],[139.680048,36.071634],[139.680106,36.072009],[139.68014,36.072383],[139.680158,36.072924],[139.68012,36.073776],[139.679915,36.079446],[139.679882,36.081515],[139.679763,36.084003],[139.679721,36.085638],[139.679655,36.087283],[139.679583,36.088427],[139.679472,36.089755],[139.67935,36.091325],[139.678432,36.101853],[139.67847,36.102288],[139.678594,36.10354],[139.679247,36.110136],[139.679358,36.110693],[139.679507,36.111184],[139.67971,36.111644],[139.680004,36.112173],[139.680312,36.112573],[139.680781,36.113131],[139.685195,36.117844],[139.685716,36.118497],[139.686183,36.119227],[139.686679,36.120134],[139.692805,36.131211],[139.692944,36.13152],[139.693208,36.132191],[139.693405,36.132723],[139.693665,36.133626],[139.693796,36.134429],[139.694431,36.138282],[139.694692,36.139575],[139.694871,36.140456],[139.695292,36.142804],[139.695384,36.143152],[139.695517,36.143502],[139.695741,36.143995],[139.696008,36.144493],[139.696282,36.144862],[139.696545,36.145171],[139.696999,36.145612],[139.697407,36.145942],[139.697823,36.146229],[139.698143,36.146427],[139.698657,36.146696],[139.706465,36.150757],[139.707369,36.151284],[139.707935,36.151648],[139.708396,36.151962],[139.709261,36.152676],[139.710989,36.154334],[139.712153,36.155384],[139.713021,36.156117],[139.717479,36.159839],[139.717851,36.160214],[139.718093,36.160521],[139.71832,36.160893],[139.718482,36.16125],[139.718558,36.16148],[139.718628,36.161758],[139.718662,36.162007],[139.718681,36.162289],[139.718662,36.162652],[139.718606,36.163012],[139.717654,36.167526],[139.717461,36.168128],[139.715109,36.175851],[139.713755,36.180243],[139.712849,36.183366],[139.712374,36.185141],[139.710773,36.190485],[139.710517,36.191351],[139.709967,36.193261],[139.709687,36.194283],[139.709324,36.19539],[139.709085,36.196048],[139.708777,36.196977],[139.708526,36.197689],[139.708417,36.198064],[139.70834,36.198416],[139.708306,36.198832],[139.708297,36.19911],[139.708322,36.199478],[139.708362,36.199858],[139.708445,36.200195],[139.708552,36.200567],[139.708721,36.200966],[139.708921,36.201371],[139.709155,36.201738],[139.709357,36.202025],[139.70961,36.20231],[139.709843,36.202565],[139.711989,36.204925],[139.712957,36.206008],[139.714138,36.207396],[139.714977,36.208341],[139.715706,36.209134],[139.717923,36.211575],[139.718613,36.212325],[139.727953,36.222595],[139.729493,36.224283],[139.73138,36.226282],[139.733167,36.228244],[139.734627,36.229852],[139.735791,36.231128],[139.737661,36.233177],[139.738803,36.234338],[139.739937,36.2354],[139.741433,36.236795],[139.742828,36.238097],[139.748305,36.24319],[139.748527,36.243398],[139.748896,36.243776],[139.749262,36.244174],[139.749471,36.244422],[139.749846,36.244863],[139.759679,36.256269],[139.761365,36.258234],[139.762393,36.25943],[139.7632,36.260381],[139.763834,36.261123],[139.764305,36.261672],[139.775769,36.274981],[139.777503,36.277002],[139.778427,36.278062],[139.779126,36.278816],[139.779919,36.279803],[139.780905,36.280927],[139.781831,36.282005],[139.783626,36.284109],[139.799508,36.302537],[139.801093,36.304389],[139.801659,36.305165],[139.801985,36.305713],[139.802562,36.306678],[139.803526,36.308307],[139.804567,36.309948],[139.805147,36.310832],[139.805584,36.311528],[139.806174,36.312525],[139.80677,36.313566],[139.80757,36.314948],[139.808214,36.31628],[139.808438,36.316734],[139.80886,36.317466],[139.809593,36.318697],[139.811267,36.321553],[139.812175,36.323117],[139.812672,36.323935],[139.83761,36.366592],[139.840225,36.371132],[139.841033,36.37246],[139.841915,36.374015],[139.842938,36.375781],[139.844167,36.377789],[139.845078,36.379397],[139.846351,36.381585],[139.847372,36.383284],[139.848583,36.385304],[139.84918,36.386398],[139.849664,36.387255],[139.850255,36.388259],[139.852932,36.392701],[139.854001,36.394419],[139.854729,36.395674],[139.855584,36.397205],[139.856194,36.398358],[139.856765,36.399415],[139.857025,36.399839],[139.857448,36.400545],[139.858801,36.402884],[139.859067,36.40337],[139.859448,36.404093],[139.859721,36.404705],[139.860137,36.405623],[139.860452,36.406446],[139.860772,36.407399],[139.861157,36.408683],[139.861519,36.409928],[139.861903,36.411342],[139.862306,36.412873],[139.862812,36.415419],[139.875752,36.487296],[139.876418,36.491058],[139.876912,36.493575],[139.877243,36.495482],[139.877678,36.497942],[139.880041,36.510899],[139.880186,36.512217],[139.881487,36.52969],[139.881582,36.530961],[139.881691,36.532378],[139.881799,36.534052],[139.88196,36.53525],[139.882107,36.536059],[139.882267,36.53679],[139.882537,36.537699],[139.882917,36.538643],[139.883297,36.539543],[139.88376,36.540397],[139.884272,36.541255],[139.884914,36.542079],[139.886329,36.543671],[139.887981,36.545451],[139.888871,36.546224],[139.890595,36.54775],[139.895786,36.552323],[139.896077,36.552597],[139.896399,36.552977],[139.896835,36.553524],[139.897041,36.553866],[139.897272,36.554343],[139.897403,36.554629],[139.897683,36.555429],[139.897878,36.556271],[139.898292,36.557812],[139.899292,36.56215],[139.899511,36.563228],[139.899625,36.564024],[139.89988,36.565136],[139.900096,36.565903],[139.900291,36.566515],[139.900486,36.567018],[139.9007,36.567455],[139.900937,36.567839],[139.901181,36.568177],[139.901414,36.56847],[139.901599,36.568695],[139.901891,36.568989],[139.902235,36.569311],[139.902641,36.569633],[139.903085,36.569965],[139.90364,36.570341],[139.904294,36.57079],[139.9591,36.608412],[139.959617,36.608746],[139.960133,36.609027],[139.960783,36.609329],[139.961745,36.609682],[139.963012,36.610065],[139.964108,36.610372],[139.965229,36.610566],[139.966395,36.610679],[139.968134,36.610822],[139.97414,36.611341],[139.9753,36.611541],[139.976147,36.611858],[139.977045,36.612378],[139.977659,36.612876],[139.978041,36.613259],[139.978271,36.613527],[139.978626,36.61413],[139.978847,36.614628],[139.980656,36.620149],[139.980838,36.620886],[139.980935,36.621414],[139.980999,36.622281],[139.98098,36.623215],[139.980931,36.623687],[139.980886,36.624014],[139.980777,36.62462],[139.979381,36.63211],[139.978706,36.635505],[139.977787,36.64041],[139.977645,36.641109],[139.977437,36.641779],[139.977214,36.642465],[139.97698,36.643022],[139.976723,36.643583],[139.976402,36.644156],[139.976141,36.644579],[139.975901,36.644971],[139.971562,36.651798],[139.971377,36.652115],[139.970846,36.653246],[139.970576,36.653921],[139.970304,36.654813],[139.967368,36.666792],[139.967201,36.667316],[139.966982,36.667985],[139.966667,36.6689],[139.963794,36.677048],[139.963357,36.678268],[139.962848,36.679574],[139.962297,36.681003],[139.961481,36.683418],[139.961066,36.684672],[139.960734,36.685657],[139.960458,36.686372],[139.957473,36.693563],[139.957415,36.693702],[139.957136,36.694678],[139.956726,36.696289],[139.949595,36.724088],[139.949516,36.724539],[139.94944,36.724942],[139.949423,36.725527],[139.949474,36.725967],[139.949557,36.726635],[139.952302,36.741109],[139.952362,36.741585],[139.9524,36.742316],[139.952362,36.74298],[139.952258,36.743682],[139.952098,36.744316],[139.95184,36.745002],[139.951643,36.745471],[139.951378,36.745953],[139.951174,36.746284],[139.941662,36.760536],[139.935528,36.769664],[139.93498,36.770435],[139.934658,36.770874],[139.933911,36.771875],[139.932977,36.77295],[139.931255,36.774926],[139.930858,36.775402],[139.930421,36.775965],[139.930023,36.776585],[139.929765,36.777003],[139.929365,36.777817],[139.929014,36.778624],[139.928742,36.779471],[139.928519,36.780423],[139.928411,36.781152],[139.928358,36.781934],[139.928364,36.782696],[139.928454,36.78372],[139.928598,36.784784],[139.928738,36.785701],[139.92895,36.787089],[139.929121,36.788285],[139.929425,36.790259],[139.931047,36.801088],[139.931119,36.80146],[139.931254,36.801913],[139.931487,36.802623],[139.931797,36.803517],[139.932114,36.80434],[139.932609,36.805668],[139.933185,36.80725],[139.933681,36.808612],[139.933988,36.809458],[139.93417,36.809968],[139.934424,36.810607],[139.934708,36.811394],[139.935027,36.81225],[139.935291,36.812852],[139.935517,36.813291],[139.935826,36.813793],[139.936001,36.814055],[139.936411,36.814605],[139.936794,36.815048],[139.937281,36.815521],[139.937847,36.81602],[139.938494,36.816553],[139.94003,36.817863],[139.941296,36.818847],[139.943748,36.820434],[139.945924,36.822002],[139.946602,36.822866],[139.94703,36.823685],[139.947199,36.824235],[139.947297,36.824906],[139.947297,36.82516],[139.947391,36.830078],[139.947486,36.830689],[139.947688,36.831341],[139.947946,36.831876],[139.948187,36.832247],[139.948652,36.832913],[139.949301,36.833714],[139.95571,36.841092],[139.956644,36.842126],[139.957499,36.843125],[139.958189,36.844067],[139.959344,36.84572],[139.96536,36.85429],[139.967169,36.856848],[139.967528,36.857352],[139.968149,36.858222],[139.968778,36.859121],[139.969274,36.859818],[139.970223,36.861148],[139.970856,36.862051],[139.975446,36.868515],[139.981336,36.876792],[139.983373,36.879688],[139.985577,36.88276],[139.986917,36.884558],[139.988369,36.886715],[139.989847,36.888822],[140.014648,36.923384],[140.016296,36.925728],[140.017193,36.926937],[140.019418,36.929765],[140.021263,36.931899],[140.022566,36.933225],[140.02348,36.934117],[140.024268,36.934813],[140.025683,36.936117],[140.032216,36.942148],[140.034991,36.944721],[140.037051,36.946619],[140.0462,36.955055],[140.048281,36.957005],[140.049218,36.957933],[140.050717,36.959547],[140.054882,36.964311],[140.057048,36.966618],[140.059009,36.968816],[140.060361,36.970331],[140.061535,36.971687]]}}]}