{"type":"FeatureCollection","features":[{"type":"Feature","properties":{"id":"JR-East.Yokosuka","ja":"横須賀線","en":"Yokosuka Line","color":"#0067C0"},"geometry":{"type":"LineString","coordinates":[[139.76559,35.681836],[139.76559,35.681836],[139.764534,35.68065],[139.764265,35.680289],[139.764089,35.679943],[139.76386,35.679237],[139.762105,35.673843],[139.761744,35.673385],[139.761007,35.672481],[139.760759,35.672192],[139.760555,35.671812],[139.759582,35.669921],[139.759366,35.669645],[139.759204,35.669389],[139.758957,35.668942],[139.758779,35.668525],[139.758651,35.668103],[139.758625,35.667524],[139.758688,35.666927],[139.758761,35.666242],[139.758803,35.66571],[139.758844,35.664671],[139.759209,35.66226],[139.759289,35.661427],[139.759167,35.657841],[139.759101,35.657361],[139.758909,35.656682],[139.758272,35.654741],[139.758007,35.654012],[139.757678,35.652758],[139.757329,35.651858],[139.756853,35.650913],[139.756603,35.650467],[139.755697,35.649121],[139.755153,35.648374],[139.75449,35.64749],[139.753914,35.64686],[139.753639,35.646621],[139.753445,35.646463],[139.752845,35.646082],[139.752579,35.645907],[139.750669,35.644974],[139.745668,35.642789],[139.745346,35.642625],[139.743517,35.640682],[139.743084,35.640042],[139.742725,35.639448],[139.742555,35.638979],[139.742536,35.638113],[139.742516,35.637701],[139.742441,35.637204],[139.74223,35.636295],[139.74223,35.636295],[139.74194,35.635307],[139.741831,35.634974],[139.740191,35.63115],[139.739933,35.630476],[139.73977,35.629977],[139.739673,35.629465],[139.739645,35.629049],[139.739614,35.628397],[139.739541,35.627767],[139.739421,35.626974],[139.739297,35.626459],[139.739162,35.625964],[139.738967,35.625123],[139.738721,35.624079],[139.738494,35.623089],[139.737688,35.620014],[139.737522,35.619594],[139.737362,35.619298],[139.737017,35.618788],[139.736651,35.618335],[139.736357,35.618023],[139.736047,35.617768],[139.735748,35.617573],[139.735467,35.617407],[139.735206,35.617268],[139.734816,35.617101],[139.73449,35.616981],[139.734143,35.616874],[139.733728,35.616777],[139.733498,35.616723],[139.732987,35.616652],[139.732542,35.616611],[139.73232,35.616591],[139.732031,35.61655],[139.731811,35.616505],[139.731577,35.616443],[139.731341,35.616367],[139.730963,35.616221],[139.730631,35.616053],[139.730342,35.61588],[139.730057,35.615662],[139.729871,35.615498],[139.729625,35.615246],[139.729324,35.614874],[139.728878,35.614103],[139.728682,35.613668],[139.728505,35.613339],[139.728288,35.613018],[139.727751,35.612205],[139.726561,35.610234],[139.726281,35.609781],[139.726147,35.609584],[139.72586,35.609228],[139.725112,35.608349],[139.724868,35.608071],[139.724629,35.607753],[139.724422,35.607462],[139.72408,35.606894],[139.723648,35.606132],[139.723444,35.605736],[139.723255,35.605358],[139.722886,35.604545],[139.722052,35.602748],[139.721738,35.602071],[139.721191,35.600833],[139.720808,35.599985],[139.720408,35.59912],[139.719807,35.597855],[139.71966,35.597539],[139.719479,35.597226],[139.719324,35.597017],[139.719137,35.59677],[139.718916,35.596519],[139.718702,35.596294],[139.71848,35.596081],[139.718219,35.59586],[139.717964,35.595651],[139.717612,35.595387],[139.717312,35.595192],[139.716966,35.594981],[139.716611,35.594795],[139.716152,35.594591],[139.715738,35.594437],[139.715341,35.594312],[139.714416,35.594045],[139.7136,35.593811],[139.708868,35.592466],[139.707768,35.592124],[139.707269,35.591982],[139.681802,35.584702],[139.679136,35.583982],[139.678422,35.583761],[139.677223,35.583356],[139.675844,35.582854],[139.672858,35.581796],[139.666522,35.579524],[139.666309,35.579448],[139.665992,35.579319],[139.665746,35.579203],[139.665561,35.579099],[139.66533,35.578956],[139.665122,35.578817],[139.664869,35.578613],[139.664627,35.578405],[139.664417,35.578198],[139.66425,35.578024],[139.664087,35.577828],[139.663936,35.577624],[139.663765,35.577369],[139.663591,35.577056],[139.663485,35.5768],[139.663327,35.576365],[139.663205,35.576003],[139.66317,35.575798],[139.663161,35.575636],[139.663148,35.575368],[139.663154,35.575226],[139.663174,35.575006],[139.663205,35.574835],[139.663269,35.574547],[139.663393,35.574127],[139.663503,35.573796],[139.663665,35.573376],[139.66377,35.573129],[139.663837,35.572916],[139.663948,35.572585],[139.664566,35.570734],[139.665099,35.569169],[139.665387,35.568331],[139.665907,35.566961],[139.666505,35.565369],[139.666593,35.565131],[139.666685,35.564848],[139.666834,35.56436],[139.666971,35.563836],[139.667042,35.563548],[139.667163,35.563172],[139.667962,35.560974],[139.668412,35.559862],[139.668564,35.559455],[139.668845,35.558591],[139.66984,35.555669],[139.67026,35.554444],[139.670388,35.554145],[139.670595,35.553718],[139.671493,35.552045],[139.671965,35.551034],[139.672462,35.549853],[139.673058,35.548502],[139.673241,35.548026],[139.673329,35.547795],[139.673402,35.54759],[139.673527,35.547249],[139.674546,35.544229],[139.67465,35.543863],[139.674794,35.54334],[139.674967,35.54253],[139.675195,35.541717],[139.676172,35.53863],[139.676364,35.538027],[139.676515,35.537401],[139.676588,35.536979],[139.676657,35.536441],[139.676718,35.536101],[139.67681,35.535754],[139.678694,35.530258],[139.679282,35.528413],[139.679522,35.527626],[139.679708,35.52687],[139.679959,35.525574],[139.680363,35.523791],[139.680479,35.52337],[139.68066,35.522839],[139.681114,35.521485],[139.681223,35.521109],[139.681295,35.520806],[139.681323,35.520523],[139.681336,35.520225],[139.681311,35.519892],[139.681243,35.519447],[139.681159,35.519134],[139.681026,35.518777],[139.680834,35.518388],[139.680667,35.518122],[139.680428,35.517792],[139.680073,35.517375],[139.679718,35.517036],[139.679245,35.516615],[139.678954,35.516301],[139.67865,35.515935],[139.678396,35.515561],[139.678175,35.515172],[139.678013,35.514824],[139.677843,35.514386],[139.677727,35.513997],[139.676992,35.511835],[139.676789,35.51121],[139.676602,35.510579],[139.676354,35.509739],[139.676221,35.509274],[139.675904,35.508006],[139.675776,35.507442],[139.675351,35.505655],[139.675205,35.504938],[139.675115,35.504463],[139.675069,35.50425],[139.675028,35.504092],[139.674974,35.503914],[139.674876,35.503656],[139.674794,35.503472],[139.674627,35.503173],[139.674462,35.502894],[139.674225,35.50254],[139.673857,35.50206],[139.673315,35.501481],[139.672757,35.500971],[139.671961,35.500283],[139.671153,35.499579],[139.669788,35.498399],[139.668906,35.497674],[139.667028,35.496136],[139.66647,35.495753],[139.665579,35.495218],[139.665072,35.494858],[139.664448,35.494306],[139.664144,35.493965],[139.663862,35.49361],[139.663553,35.49322],[139.6632,35.492831],[139.662899,35.492523],[139.66238,35.492044],[139.661509,35.49127],[139.661267,35.491056],[139.660921,35.490772],[139.660432,35.490422],[139.660107,35.490217],[139.65497,35.487549],[139.654137,35.487112],[139.65324,35.486647],[139.652791,35.486435],[139.652233,35.48621],[139.651528,35.485988],[139.650581,35.485759],[139.649562,35.485628],[139.647945,35.485554],[139.647499,35.485534],[139.646978,35.485487],[139.646361,35.485396],[139.645316,35.485222],[139.645006,35.485167],[139.644775,35.485117],[139.644546,35.485059],[139.644264,35.484984],[139.643976,35.484897],[139.638819,35.483156],[139.638212,35.48294],[139.637914,35.482808],[139.637696,35.482689],[139.63741,35.482536],[139.637173,35.482376],[139.636894,35.482177],[139.636631,35.48195],[139.636351,35.48166],[139.633979,35.47912],[139.633163,35.478233],[139.632574,35.477585],[139.632196,35.477167],[139.631902,35.476844],[139.631468,35.476349],[139.628851,35.473441],[139.628502,35.473074],[139.62775,35.472234],[139.626784,35.471176],[139.625901,35.470188],[139.625602,35.469807],[139.625197,35.469288],[139.62442,35.468336],[139.624096,35.468003],[139.623602,35.46752],[139.623138,35.467123],[139.62274,35.466802],[139.62147,35.465408],[139.621045,35.464902],[139.620595,35.464324],[139.620316,35.463918],[139.620068,35.463617],[139.619804,35.463325],[139.618209,35.46159],[139.61734,35.460638],[139.615643,35.45879],[139.613283,35.456254],[139.612864,35.455859],[139.61254,35.455569],[139.612215,35.455333],[139.611629,35.454955],[139.610804,35.454476],[139.609329,35.453652],[139.607933,35.452892],[139.60585,35.451751],[139.605245,35.451414],[139.604819,35.451158],[139.604419,35.450906],[139.603878,35.450534],[139.603421,35.450184],[139.602726,35.449602],[139.60231,35.449238],[139.601863,35.448822],[139.601371,35.448396],[139.601044,35.448088],[139.600195,35.447279],[139.599378,35.4465],[139.599168,35.446304],[139.598902,35.446054],[139.5987,35.445891],[139.598299,35.445631],[139.597865,35.445405],[139.597386,35.445225],[139.596921,35.445083],[139.596571,35.445006],[139.596297,35.444962],[139.59592,35.444928],[139.595585,35.444919],[139.59526,35.444927],[139.594864,35.444961],[139.581166,35.446881],[139.579714,35.447072],[139.579459,35.44711],[139.578739,35.447138],[139.578219,35.447116],[139.577815,35.447043],[139.577473,35.446965],[139.577145,35.44686],[139.576729,35.446681],[139.574003,35.445325],[139.568486,35.442571],[139.567554,35.442106],[139.566673,35.441752],[139.565737,35.441331],[139.559377,35.438593],[139.559045,35.438441],[139.558698,35.438242],[139.558304,35.437984],[139.557915,35.437663],[139.557599,35.437402],[139.557383,35.43715],[139.557113,35.436787],[139.556797,35.436229],[139.55661,35.435715],[139.556507,35.435233],[139.556478,35.434919],[139.556458,35.434396],[139.556499,35.433788],[139.556555,35.432806],[139.55662,35.431808],[139.556725,35.429242],[139.556688,35.428818],[139.556597,35.428252],[139.556498,35.427831],[139.556266,35.427179],[139.556075,35.426765],[139.555694,35.425924],[139.555165,35.424749],[139.554983,35.424374],[139.554843,35.424111],[139.554561,35.423663],[139.554393,35.423413],[139.5542,35.423163],[139.554002,35.422945],[139.553816,35.422744],[139.553568,35.422504],[139.553329,35.422281],[139.552658,35.42175],[139.552041,35.421338],[139.548118,35.419259],[139.545839,35.41806],[139.542199,35.416112],[139.53967,35.414687],[139.539261,35.414466],[139.538052,35.41381],[139.537857,35.413681],[139.537416,35.413359],[139.536986,35.413016],[139.536755,35.412817],[139.536331,35.412408],[139.536087,35.412147],[139.535733,35.411707],[139.535591,35.411499],[139.53535,35.411154],[139.535007,35.410543],[139.534825,35.410095],[139.534666,35.409641],[139.534538,35.40911],[139.534261,35.407936],[139.53405,35.406737],[139.533868,35.405521],[139.533765,35.404892],[139.533677,35.404185],[139.533623,35.403644],[139.533628,35.403021],[139.533667,35.402537],[139.533782,35.401798],[139.5341,35.400504],[139.534451,35.399577],[139.534847,35.398526],[139.535053,35.397874],[139.535341,35.397003],[139.535651,35.395948],[139.535717,35.3955],[139.535753,35.395241],[139.535772,35.394958],[139.535781,35.394543],[139.535778,35.394406],[139.535717,35.393857],[139.535556,35.392262],[139.535486,35.391662],[139.535401,35.390883],[139.534872,35.385568],[139.534812,35.385073],[139.534782,35.384777],[139.534698,35.383974],[139.534668,35.383658],[139.534621,35.38322],[139.534586,35.382914],[139.534556,35.382624],[139.534508,35.382231],[139.534488,35.382014],[139.534463,35.381886],[139.534386,35.381417],[139.534306,35.381056],[139.534173,35.380562],[139.53412,35.380343],[139.534031,35.380049],[139.533821,35.379444],[139.533578,35.378839],[139.533296,35.378211],[139.533062,35.377759],[139.532747,35.37718],[139.530912,35.373624],[139.530445,35.372739],[139.530105,35.372056],[139.529875,35.371512],[139.529728,35.371166],[139.529647,35.370915],[139.529599,35.370711],[139.529558,35.370431],[139.529545,35.370229],[139.529549,35.370016],[139.529577,35.369745],[139.529629,35.369487],[139.529704,35.369176],[139.530322,35.366914],[139.530391,35.366584],[139.530444,35.366108],[139.530452,35.36563],[139.530399,35.365269],[139.530288,35.364848],[139.530105,35.364266],[139.529784,35.363191],[139.529524,35.362356],[139.529466,35.362048],[139.529418,35.361665],[139.529428,35.361208],[139.529453,35.360987],[139.529508,35.360763],[139.529601,35.360519],[139.529747,35.360168],[139.52987,35.359938],[139.530011,35.359716],[139.530149,35.359534],[139.531255,35.358158],[139.531435,35.357906],[139.531697,35.357378],[139.531844,35.35711],[139.531942,35.35675],[139.532029,35.356466],[139.532091,35.356193],[139.532089,35.355952],[139.532071,35.355803],[139.531979,35.355373],[139.531888,35.355106],[139.531432,35.353947],[139.530932,35.35272],[139.530799,35.352297],[139.530678,35.351872],[139.530545,35.351499],[139.530338,35.350951],[139.530275,35.350789],[139.530206,35.350541],[139.530147,35.350313],[139.530127,35.350022],[139.530129,35.349821],[139.530175,35.349442],[139.530258,35.349096],[139.530361,35.348808],[139.530507,35.348525],[139.530702,35.348229],[139.531035,35.347874],[139.531748,35.347126],[139.532666,35.346168],[139.534027,35.344694],[139.534459,35.344253],[139.534844,35.343922],[139.53531,35.343607],[139.535828,35.343315],[139.536277,35.343125],[139.53769,35.342671],[139.539161,35.342212],[139.539667,35.341999],[139.540088,35.341795],[139.540499,35.341533],[139.540908,35.341222],[139.541312,35.340851],[139.544862,35.337647],[139.546051,35.336564],[139.547588,35.335133],[139.547833,35.33485],[139.548072,35.334512],[139.548237,35.334178],[139.548404,35.333756],[139.548472,35.333353],[139.548489,35.332926],[139.548495,35.33264],[139.548421,35.332167],[139.548318,35.33169],[139.548266,35.330427],[139.548318,35.329934],[139.548371,35.329241],[139.548452,35.328101],[139.548527,35.327724],[139.548676,35.327262],[139.548879,35.326841],[139.54908,35.326585],[139.549278,35.326316],[139.54974,35.325763],[139.549971,35.325495],[139.550135,35.325289],[139.550303,35.325028],[139.550471,35.324727],[139.550611,35.324398],[139.550691,35.324005],[139.550727,35.323839],[139.550738,35.323563],[139.55074,35.323429],[139.550698,35.322516],[139.550688,35.322304],[139.550633,35.321604],[139.550577,35.321206],[139.550455,35.320298],[139.550378,35.319406],[139.550334,35.318674],[139.550354,35.31815],[139.55038,35.317791],[139.550503,35.317139],[139.550714,35.316273],[139.550893,35.315769],[139.551065,35.315389],[139.551284,35.314937],[139.55164,35.314372],[139.551913,35.313978],[139.552142,35.313685],[139.552456,35.313345],[139.552741,35.313044],[139.553024,35.312782],[139.553391,35.312476],[139.553792,35.312161],[139.554234,35.311847],[139.554693,35.311581],[139.555116,35.311348],[139.55553,35.311152],[139.555995,35.310952],[139.556458,35.310783],[139.556845,35.310647],[139.55729,35.310513],[139.557701,35.310411],[139.558062,35.310335],[139.558778,35.310198],[139.559643,35.310036],[139.559976,35.309957],[139.560525,35.309798],[139.561218,35.309541],[139.562107,35.309103],[139.56457,35.307811],[139.566372,35.306909],[139.56785,35.30617],[139.56826,35.305908],[139.568572,35.305664],[139.568746,35.305516],[139.568911,35.305348],[139.569058,35.305172],[139.56923,35.304974],[139.569403,35.304722],[139.569546,35.304463],[139.569675,35.304198],[139.569809,35.303869],[139.570828,35.301297],[139.570928,35.301052],[139.571021,35.30084],[139.571135,35.300601],[139.571258,35.300392],[139.571414,35.300148],[139.571637,35.299856],[139.571883,35.299555],[139.572174,35.299242],[139.572427,35.29902],[139.572628,35.298854],[139.572984,35.2986],[139.573316,35.298387],[139.573479,35.298296],[139.573864,35.298094],[139.574568,35.297803],[139.57507,35.297641],[139.575366,35.297564],[139.576354,35.297424],[139.57689,35.297383],[139.577468,35.297383],[139.577971,35.297417],[139.57843,35.29748],[139.578644,35.297518],[139.579161,35.297612],[139.581178,35.297976],[139.581932,35.298102],[139.582998,35.298293],[139.584258,35.298512],[139.586275,35.298882],[139.588945,35.299362],[139.590878,35.299685],[139.591505,35.299747],[139.59203,35.299771],[139.592738,35.299757],[139.593192,35.299723],[139.593679,35.299669],[139.610709,35.297824],[139.611373,35.297731],[139.611924,35.297628],[139.612417,35.297521],[139.612791,35.29742],[139.613458,35.297221],[139.61409,35.29701],[139.61455,35.296846],[139.614974,35.296664],[139.615695,35.29633],[139.616324,35.29599],[139.616925,35.295625],[139.618299,35.294765],[139.618791,35.294497],[139.619244,35.294284],[139.620483,35.293863],[139.623058,35.293041],[139.624174,35.292719],[139.624826,35.292603],[139.625377,35.292581],[139.626,35.292616],[139.627499,35.292801],[139.630773,35.293191],[139.632076,35.293326],[139.632864,35.293361],[139.633576,35.293311],[139.635412,35.293027],[139.638182,35.292641],[139.64047,35.292301],[139.640749,35.292244],[139.641519,35.291959],[139.643659,35.290888],[139.645683,35.289898],[139.647862,35.288859],[139.648496,35.288547],[139.649108,35.288191],[139.649747,35.287687],[139.650219,35.287255],[139.651867,35.285834],[139.652802,35.285022],[139.653341,35.284705],[139.653625,35.284562],[139.653946,35.284426],[139.654186,35.284346],[139.654908,35.284169],[139.655882,35.283934],[139.656544,35.283707],[139.657168,35.283379],[139.657673,35.28293],[139.657975,35.282647],[139.658225,35.282328],[139.658391,35.282015],[139.658548,35.281612],[139.65864,35.281148],[139.658669,35.280706],[139.658691,35.279784],[139.658637,35.279396],[139.658421,35.278596],[139.658185,35.277673],[139.657908,35.276539],[139.657739,35.27593],[139.657599,35.275442],[139.657494,35.27491],[139.657393,35.274566],[139.657151,35.273632],[139.657,35.272947],[139.656636,35.271427],[139.656211,35.269769],[139.65574,35.26798],[139.655277,35.266083],[139.654916,35.2646],[139.654807,35.263675],[139.654807,35.262797],[139.6549,35.262115],[139.655032,35.261479],[139.655202,35.260865],[139.655454,35.260354],[139.65563,35.26004],[139.655838,35.259767],[139.656288,35.259248],[139.656837,35.258806],[139.657375,35.258479],[139.657972,35.258182],[139.658658,35.257923],[139.661206,35.257088],[139.665142,35.255809],[139.666882,35.255258],[139.670226,35.254308],[139.675764,35.252732],[139.676437,35.252488],[139.676984,35.252225],[139.677577,35.251888],[139.678004,35.251569],[139.678581,35.251106],[139.681276,35.24887],[139.682693,35.247731],[139.685521,35.245447],[139.687098,35.244188],[139.687788,35.243704],[139.688673,35.243177],[139.691075,35.24182],[139.693575,35.240437],[139.694787,35.239747],[139.695567,35.23922],[139.696279,35.238613],[139.698131,35.236913],[139.699233,35.235909],[139.699578,35.235498],[139.700103,35.234776],[139.700524,35.234146],[139.700914,35.233185],[139.701336,35.232178],[139.701336,35.232178],[139.701336,35.232178],[139.701336,35.232178],[139.701336,35.232178]]}}]}